,index,TimeEDT,TemperatureF,Dew PointF,Humidity,Sea Level PressureIn,VisibilityMPH,Wind Direction,Wind SpeedMPH,Gust SpeedMPH,PrecipitationIn,Events,Conditions,WindDirDegrees,dt
0,0,12:00 AM,73.4,68,83,29.99,10,Calm,Calm,-,,,Clear,0,01-06-2016 04:35
1,1,12:35 AM,73.4,66.2,78,29.99,10,SW,3.5,-,,,Clear,220,01-06-2016 04:55
2,2,12:55 AM,71.6,66.2,83,29.99,10,SW,4.6,-,,,Clear,220,01-06-2016 05:00
3,3,1:00 AM,71.6,66.2,83,29.99,10,WSW,4.6,-,,,Clear,250,01-06-2016 05:35
4,4,1:35 AM,71.6,66.2,83,29.99,10,Calm,Calm,-,,,Clear,0,01-06-2016 05:55
5,5,1:55 AM,69.8,66.2,88,30,10,Calm,Calm,-,,,Clear,0,01-06-2016 06:00
6,6,2:00 AM,69.8,66.2,88,30,10,Calm,Calm,-,,,Clear,0,01-06-2016 06:35
7,7,2:35 AM,69.8,66.2,88,30,10,ENE,4.6,-,,,Clear,60,01-06-2016 06:55
8,8,2:55 AM,69.8,66.2,88,30.01,10,ENE,6.9,-,,,Clear,70,01-06-2016 07:00
9,9,3:00 AM,69.8,64.4,83,30.01,10,ENE,8.1,-,,,Clear,60,01-06-2016 07:35
10,10,3:35 AM,69.8,62.6,78,30.01,10,ENE,6.9,-,,,Clear,60,01-06-2016 07:55
11,11,3:55 AM,71.6,57.2,60,30.02,10,ENE,8.1,-,,,Clear,60,01-06-2016 08:00
12,12,4:00 AM,69.8,57.2,64,30.02,10,ENE,8.1,-,,,Clear,60,01-06-2016 08:35
13,13,4:35 AM,71.6,53.6,53,30.02,10,NE,9.2,-,,,Clear,40,01-06-2016 08:55
14,14,4:55 AM,71.6,53.6,53,30.03,10,NE,5.8,-,,,Scattered Clouds,50,01-06-2016 09:00
15,15,5:00 AM,71.6,53.6,53,30.04,10,ENE,5.8,-,,,Scattered Clouds,60,01-06-2016 09:35
16,16,5:35 AM,71.6,55.4,57,30.04,10,NE,8.1,-,,,Clear,50,01-06-2016 09:55
17,17,5:55 AM,69.8,57.2,64,30.05,10,ENE,6.9,-,,,Clear,70,01-06-2016 10:00
18,18,6:00 AM,71.6,53.6,53,30.06,10,NE,8.1,-,,,Clear,50,01-06-2016 10:35
19,19,6:35 AM,71.6,51.8,50,30.06,10,NE,8.1,-,,,Clear,50,01-06-2016 10:55
20,20,6:55 AM,71.6,50,46,30.06,10,NE,10.4,-,,,Clear,50,01-06-2016 11:00
21,21,7:00 AM,71.6,50,46,30.07,10,NE,8.1,23,,,Partly Cloudy,40,01-06-2016 11:35
22,22,7:35 AM,71.6,50,46,30.08,10,NNE,12.7,34.5,,,Mostly Cloudy,30,01-06-2016 11:55
23,23,7:55 AM,71.6,51.8,50,30.08,10,NE,9.2,-,,,Partly Cloudy,50,01-06-2016 12:00
24,24,8:00 AM,71.6,50,46,30.09,10,NE,9.2,-,,,Clear,50,01-06-2016 12:35
25,25,8:35 AM,73.4,50,44,30.09,10,ENE,10.4,-,,,Clear,60,01-06-2016 12:55
26,26,8:55 AM,73.4,51.8,47,30.09,10,ENE,9.2,-,,,Clear,60,01-06-2016 13:00
27,27,9:00 AM,75.2,50,41,30.09,10,ENE,9.2,-,,,Clear,60,01-06-2016 13:35
28,28,9:35 AM,75.2,50,41,30.1,10,NE,8.1,20.7,,,Clear,50,01-06-2016 13:55
29,29,9:55 AM,78.8,48.2,34,30.1,10,ENE,8.1,-,,,Clear,60,01-06-2016 14:00
30,30,10:00 AM,78.8,48.2,34,30.1,10,ENE,10.4,17.3,,,Clear,60,01-06-2016 14:35
31,31,10:35 AM,80.6,48.2,32,30.1,10,ENE,9.2,-,,,Clear,60,01-06-2016 14:55
32,32,10:55 AM,78.8,48.2,34,30.1,10,ENE,10.4,-,,,Clear,60,01-06-2016 15:00
33,33,11:00 AM,80.6,48.2,32,30.09,10,NE,11.5,-,,,Clear,50,01-06-2016 15:35
34,34,11:35 AM,80.6,46.4,30,30.1,10,NNE,11.5,-,,,Clear,30,01-06-2016 15:55
35,35,11:55 AM,82.4,46.4,28,30.09,10,NE,11.5,20.7,,,Clear,50,01-06-2016 16:00
36,36,12:00 PM,82.4,46.4,28,30.09,10,NE,10.4,16.1,,,Clear,40,01-06-2016 16:35
37,37,12:35 PM,82.4,48.2,30,30.09,10,NE,9.2,17.3,,,Clear,50,01-06-2016 16:55
38,38,12:55 PM,82.4,50,32,30.09,10,NE,9.2,-,,,Clear,50,01-06-2016 17:00
39,39,1:00 PM,82.4,51.8,35,30.1,10,Calm,Calm,-,,,Clear,0,01-06-2016 17:35
40,40,1:35 PM,80.6,57.2,45,30.1,10,West,6.9,-,,,Clear,260,01-06-2016 17:55
41,41,1:55 PM,78.8,57.2,47,30.1,10,West,5.8,-,,,Clear,270,01-06-2016 18:00
42,42,2:00 PM,80.6,57.2,45,30.1,10,WSW,5.8,-,,,Clear,240,01-06-2016 18:35
43,43,2:35 PM,80.6,59,48,30.1,10,West,8.1,-,,,Scattered Clouds,280,01-06-2016 18:55
44,44,2:55 PM,80.6,55.4,42,30.1,10,SSW,3.5,18.4,,,Partly Cloudy,200,01-06-2016 19:00
45,45,3:00 PM,82.4,53.6,37,30.09,10,SSE,10.4,-,,,Clear,150,01-06-2016 19:35
46,46,3:35 PM,80.6,51.8,37,30.1,10,SSE,10.4,-,,,Clear,150,01-06-2016 19:55
47,47,3:55 PM,80.6,53.6,39,30.1,10,SE,6.9,-,,,Clear,130,01-06-2016 20:00
48,48,4:00 PM,80.6,51.8,37,30.1,10,East,3.5,16.1,,,Scattered Clouds,100,01-06-2016 20:35
49,49,4:35 PM,80.6,55.4,42,30.1,10,East,6.9,-,,,Partly Cloudy,90,01-06-2016 20:55
50,50,4:55 PM,80.6,55.4,42,30.09,10,ESE,9.2,-,,,Clear,120,01-06-2016 21:00
51,51,5:00 PM,78.8,55.4,44,30.1,10,ENE,6.9,-,,,Clear,70,01-06-2016 21:35
52,52,5:35 PM,78.8,57.2,47,30.1,10,SE,9.2,17.3,,,Clear,140,01-06-2016 21:55
53,53,5:55 PM,78.8,55.4,44,30.1,10,East,5.8,26.5,,,Clear,100,01-06-2016 22:00
54,54,6:00 PM,78.8,55.4,44,30.1,10,East,8.1,-,,,Clear,90,01-06-2016 22:35
55,55,6:35 PM,75.2,55.4,50,30.1,10,ENE,9.2,-,,,Clear,70,01-06-2016 22:55
56,56,6:55 PM,75.2,57.2,53,30.11,10,ESE,6.9,-,,,Clear,110,01-06-2016 23:00
57,57,7:00 PM,73.4,57.2,57,30.12,10,East,8.1,-,,,Clear,100,01-06-2016 23:35
58,58,7:35 PM,71.6,57.2,60,30.12,10,East,8.1,16.1,,,Clear,90,01-06-2016 23:55
59,59,7:55 PM,69.8,57.2,64,30.12,10,East,9.2,-,,,Clear,80,02-06-2016 00:00
60,60,8:00 PM,69.8,57.2,64,30.12,10,East,8.1,-,,,Clear,80,02-06-2016 00:35
61,61,8:35 PM,69.8,57.2,64,30.12,10,ESE,8.1,17.3,,,Clear,110,02-06-2016 00:55
62,62,8:55 PM,69.8,57.2,64,30.13,10,ENE,9.2,-,,,Clear,70,02-06-2016 01:00
63,63,9:00 PM,69.8,55.4,60,30.13,10,East,6.9,-,,,Clear,90,02-06-2016 01:35
64,64,9:35 PM,69.8,55.4,60,30.14,10,ENE,8.1,-,,,Clear,70,02-06-2016 01:55
65,65,9:55 PM,69.8,55.4,60,30.14,10,NE,10.4,-,,,Clear,50,02-06-2016 02:00
66,66,10:00 PM,68,57.2,68,30.14,10,ENE,8.1,-,,,Clear,60,02-06-2016 02:35
67,67,10:35 PM,68,57.2,68,30.15,10,NE,10.4,-,,,Clear,40,02-06-2016 02:55
68,68,10:55 PM,68,57.2,68,30.15,10,NE,10.4,-,,,Clear,50,02-06-2016 03:00
69,69,11:00 PM,66.2,57.2,73,30.15,10,NE,9.2,-,,,Clear,40,02-06-2016 03:35
70,70,11:35 PM,66.2,57.2,73,30.15,10,ENE,11.5,-,,,Clear,60,02-06-2016 03:55
71,71,11:55 PM,66.2,57.2,73,30.15,10,NE,11.5,-,,,Clear,50,02-06-2016 04:00
72,0,12:00 AM,66.2,57.2,73,30.15,10,NE,12.7,-,,,Clear,50,02-06-2016 04:35
73,1,12:35 AM,66.2,57.2,73,30.16,10,ENE,11.5,-,,,Clear,60,02-06-2016 04:55
74,2,12:55 AM,66.2,57.2,73,30.15,10,ENE,11.5,-,,,Clear,60,02-06-2016 05:00
75,3,1:00 AM,66.2,55.4,68,30.15,10,NE,11.5,-,,,Clear,50,02-06-2016 05:35
76,4,1:35 AM,66.2,55.4,68,30.15,10,NE,10.4,-,,,Clear,50,02-06-2016 05:55
77,5,1:55 AM,66.2,55.4,68,30.15,10,NE,10.4,-,,,Clear,40,02-06-2016 06:00
78,6,2:00 AM,66.2,55.4,68,30.15,10,NE,10.4,-,,,Clear,50,02-06-2016 06:35
79,7,2:35 AM,64.4,57.2,77,30.15,10,NNE,6.9,-,,,Clear,30,02-06-2016 06:55
80,8,2:55 AM,64.4,57.2,77,30.14,10,NE,9.2,-,,,Clear,40,02-06-2016 07:00
81,9,3:00 AM,64.4,57.2,77,30.14,10,NE,11.5,-,,,Clear,40,02-06-2016 07:35
82,10,3:35 AM,64.4,57.2,77,30.14,10,NNE,11.5,-,,,Clear,30,02-06-2016 07:55
83,11,3:55 AM,64.4,59,83,30.13,10,NE,11.5,-,,,Clear,40,02-06-2016 08:00
84,12,4:00 AM,64.4,59,83,30.13,10,NE,10.4,-,,,Clear,40,02-06-2016 08:35
85,13,4:35 AM,64.4,59,83,30.13,10,NE,10.4,-,,,Clear,50,02-06-2016 08:55
86,14,4:55 AM,62.6,59,88,30.13,10,NE,9.2,-,,,Clear,40,02-06-2016 09:00
87,15,5:00 AM,62.6,57.2,82,30.13,10,NE,9.2,-,,,Clear,40,02-06-2016 09:35
88,16,5:35 AM,62.6,59,88,30.14,10,NE,8.1,-,,,Partly Cloudy,50,02-06-2016 09:55
89,17,5:55 AM,62.6,59,88,30.14,10,ENE,8.1,-,,,Mostly Cloudy,60,02-06-2016 10:00
90,18,6:00 AM,62.6,59,88,30.15,10,ENE,8.1,-,,,Overcast,60,02-06-2016 10:35
91,19,6:35 AM,62.6,59,88,30.16,10,NE,6.9,-,,,Overcast,50,02-06-2016 10:55
92,20,6:55 AM,62.6,59,88,30.16,10,ENE,6.9,-,,,Overcast,70,02-06-2016 11:00
93,21,7:00 AM,64.4,59,83,30.16,10,ENE,6.9,-,,,Mostly Cloudy,60,02-06-2016 11:35
94,22,7:35 AM,64.4,59,83,30.16,10,East,6.9,-,,,Partly Cloudy,80,02-06-2016 11:55
95,23,7:55 AM,64.4,60.8,88,30.15,9,ENE,8.1,-,,,Clear,70,02-06-2016 12:00
96,24,8:00 AM,64.4,60.8,88,30.16,10,ENE,8.1,-,,,Clear,70,02-06-2016 12:35
97,25,8:35 AM,64.4,60.8,88,30.16,10,ENE,9.2,-,,,Clear,60,02-06-2016 12:55
98,26,8:55 AM,66.2,60.8,83,30.16,10,ENE,6.9,-,,,Clear,70,02-06-2016 13:00
99,27,9:00 AM,66.2,60.8,83,30.16,10,ENE,8.1,-,,,Clear,60,02-06-2016 13:35
100,28,9:35 AM,69.8,60.8,73,30.16,10,ENE,6.9,-,,,Clear,60,02-06-2016 13:55
101,29,9:55 AM,69.8,60.8,73,30.16,10,NE,5.8,-,,,Clear,50,02-06-2016 14:00
102,30,10:00 AM,71.6,60.8,69,30.16,10,NE,6.9,-,,,Clear,40,02-06-2016 14:35
103,31,10:35 AM,71.6,60.8,69,30.16,10,NNE,6.9,-,,,Clear,30,02-06-2016 14:55
104,32,10:55 AM,71.6,60.8,69,30.16,9,WSW,5.8,-,,,Clear,250,02-06-2016 15:00
105,33,11:00 AM,71.6,60.8,69,30.16,10,SSW,8.1,-,,,Clear,200,02-06-2016 15:35
106,34,11:35 AM,69.8,60.8,73,30.16,10,West,6.9,-,,,Clear,270,02-06-2016 15:55
107,35,11:55 AM,73.4,60.8,65,30.14,8,Calm,Calm,-,,,Clear,0,02-06-2016 16:00
108,36,12:00 PM,73.4,60.8,65,30.14,10,East,4.6,-,,,Clear,100,02-06-2016 16:35
109,37,12:35 PM,73.4,60.8,65,30.14,10,SE,5.8,-,,,Clear,140,02-06-2016 16:55
110,38,12:55 PM,73.4,60.8,65,30.14,10,South,3.5,-,,,Clear,170,02-06-2016 17:00
111,39,1:00 PM,73.4,60.8,65,30.14,10,SSE,5.8,-,,,Clear,150,02-06-2016 17:35
112,40,1:35 PM,73.4,62.6,69,30.13,10,SSE,6.9,-,,,Clear,160,02-06-2016 17:55
113,41,1:55 PM,73.4,62.6,69,30.13,10,South,8.1,-,,,Clear,170,02-06-2016 18:00
114,42,2:00 PM,73.4,60.8,65,30.13,10,SSE,9.2,-,,,Clear,160,02-06-2016 18:35
115,43,2:35 PM,73.4,60.8,65,30.12,10,South,10.4,-,,,Clear,170,02-06-2016 18:55
116,44,2:55 PM,73.4,60.8,65,30.12,10,SSE,11.5,-,,,Clear,160,02-06-2016 19:00
117,45,3:00 PM,73.4,60.8,65,30.11,10,SSE,9.2,-,,,Clear,160,02-06-2016 19:35
118,46,3:35 PM,73.4,60.8,65,30.11,10,SSE,8.1,-,,,Clear,160,02-06-2016 19:55
119,47,3:55 PM,73.4,60.8,65,30.1,10,SE,10.4,-,,,Clear,140,02-06-2016 20:00
120,48,4:00 PM,73.4,60.8,65,30.1,9,SE,4.6,-,,,Clear,130,02-06-2016 20:35
121,49,4:35 PM,71.6,60.8,69,30.1,9,SSE,8.1,-,,,Clear,160,02-06-2016 20:55
122,50,4:55 PM,73.4,60.8,65,30.09,10,SSE,10.4,-,,,Clear,160,02-06-2016 21:00
123,51,5:00 PM,71.6,60.8,69,30.09,10,SSE,8.1,-,,,Clear,150,02-06-2016 21:35
124,52,5:35 PM,71.6,62.6,73,30.09,10,SSE,8.1,-,,,Clear,160,02-06-2016 21:55
125,53,5:55 PM,69.8,62.6,78,30.09,10,SSE,6.9,-,,,Scattered Clouds,150,02-06-2016 22:00
126,54,6:00 PM,69.8,62.6,78,30.08,8,SSE,6.9,-,,,Scattered Clouds,160,02-06-2016 22:35
127,55,6:35 PM,69.8,62.6,78,30.09,10,South,9.2,-,,,Mostly Cloudy,170,02-06-2016 22:55
128,56,6:55 PM,66.2,62.6,88,30.09,10,South,9.2,-,,,Overcast,170,02-06-2016 23:00
129,57,7:00 PM,66.2,62.6,88,30.09,10,SSE,8.1,-,,,Overcast,150,02-06-2016 23:35
130,58,7:35 PM,66.2,62.6,88,30.09,10,SE,6.9,-,,,Overcast,130,02-06-2016 23:55
131,59,7:55 PM,64.4,62.6,94,30.09,10,South,9.2,-,,,Overcast,170,03-06-2016 00:00
132,60,8:00 PM,64.4,60.8,88,30.09,10,East,6.9,-,,,Overcast,90,03-06-2016 00:35
133,61,8:35 PM,64.4,60.8,88,30.09,10,ESE,5.8,-,,,Overcast,110,03-06-2016 00:55
134,62,8:55 PM,64.4,60.8,88,30.1,10,ESE,5.8,-,,,Overcast,110,03-06-2016 01:00
135,63,9:00 PM,64.4,62.6,94,30.1,10,Calm,Calm,-,,,Overcast,0,03-06-2016 01:35
136,64,9:35 PM,64.4,62.6,94,30.1,10,ENE,6.9,-,,,Overcast,70,03-06-2016 01:55
137,65,9:55 PM,64.4,62.6,94,30.1,10,East,5.8,-,,,Overcast,90,03-06-2016 02:00
138,66,10:00 PM,64.4,62.6,94,30.1,10,ENE,8.1,-,,,Overcast,60,03-06-2016 02:35
139,67,10:35 PM,64.4,62.6,94,30.1,10,ESE,3.5,-,,,Overcast,120,03-06-2016 02:55
140,68,10:55 PM,64.4,62.6,94,30.1,10,East,3.5,-,,,Overcast,90,03-06-2016 03:00
141,69,11:00 PM,64.4,62.6,94,30.11,10,SE,4.6,-,,,Overcast,130,03-06-2016 03:35
142,70,11:35 PM,64.4,62.6,94,30.11,10,ENE,4.6,-,,,Overcast,60,03-06-2016 03:55
143,71,11:55 PM,64.4,60.8,88,30.11,10,ENE,5.8,-,,,Overcast,70,03-06-2016 04:00
144,0,12:00 AM,64.4,60.8,88,30.11,10,East,4.6,-,,,Overcast,90,03-06-2016 04:35
145,1,12:35 AM,64.4,60.8,88,30.11,10,SE,6.9,-,,,Overcast,140,03-06-2016 04:55
146,2,12:55 AM,64.4,60.8,88,30.11,10,East,3.5,-,,,Overcast,90,03-06-2016 05:00
147,3,1:00 AM,64.4,60.8,88,30.1,10,ENE,3.5,-,,,Overcast,70,03-06-2016 05:35
148,4,1:35 AM,64.4,60.8,88,30.1,10,ENE,3.5,-,,,Overcast,60,03-06-2016 05:55
149,5,1:55 AM,64.4,60.8,88,30.09,10,East,3.5,-,,,Overcast,100,03-06-2016 06:00
150,6,2:00 AM,64.4,60.8,88,30.09,10,SSE,3.5,-,,,Overcast,160,03-06-2016 06:35
151,7,2:35 AM,64.4,60.8,88,30.08,10,Calm,Calm,-,,,Overcast,0,03-06-2016 06:55
152,8,2:55 AM,64.4,60.8,88,30.08,10,Calm,Calm,-,,,Overcast,0,03-06-2016 07:00
153,9,3:00 AM,64.4,60.8,88,30.07,10,Calm,Calm,-,,,Overcast,0,03-06-2016 07:35
154,10,3:35 AM,64.4,60.8,88,30.07,10,Calm,Calm,-,,,Overcast,0,03-06-2016 07:55
155,11,3:55 AM,64.4,60.8,88,30.07,10,West,3.5,-,,,Overcast,280,03-06-2016 08:00
156,12,4:00 AM,64.4,62.6,94,30.07,10,West,3.5,-,,,Overcast,280,03-06-2016 08:35
157,13,4:35 AM,64.4,62.6,94,30.07,10,West,3.5,-,,,Overcast,280,03-06-2016 08:55
158,14,4:55 AM,64.4,62.6,94,30.07,10,West,4.6,-,,,Overcast,270,03-06-2016 09:00
159,15,5:00 AM,64.4,62.6,94,30.07,10,Calm,Calm,-,,,Overcast,0,03-06-2016 09:35
160,16,5:35 AM,64.4,62.6,94,30.07,10,Calm,Calm,-,,,Overcast,0,03-06-2016 09:55
161,17,5:55 AM,64.4,62.6,94,30.07,10,South,4.6,-,,,Overcast,170,03-06-2016 10:00
162,18,6:00 AM,64.4,60.8,88,30.07,10,SSE,3.5,-,,,Overcast,160,03-06-2016 10:35
163,19,6:35 AM,64.4,62.6,94,30.07,10,South,3.5,-,,,Overcast,180,03-06-2016 10:55
164,20,6:55 AM,64.4,62.6,94,30.08,10,Calm,Calm,-,,,Overcast,0,03-06-2016 11:00
165,21,7:00 AM,64.4,62.6,94,30.08,10,Calm,Calm,-,,,Overcast,0,03-06-2016 11:35
166,22,7:35 AM,64.4,62.6,94,30.08,10,NE,3.5,-,,,Overcast,50,03-06-2016 11:55
167,23,7:55 AM,66.2,62.6,88,30.07,10,NE,5.8,-,,,Overcast,50,03-06-2016 12:00
168,24,8:00 AM,66.2,62.6,88,30.08,7,NE,4.6,-,,,Overcast,50,03-06-2016 12:35
169,25,8:35 AM,66.2,62.6,88,30.08,6,NE,3.5,-,0.01,,Overcast,50,03-06-2016 12:55
170,26,8:55 AM,64.4,62.6,94,30.08,6,SE,3.5,-,0.02,,Overcast,130,03-06-2016 13:00
171,27,9:00 AM,64.4,62.6,94,30.08,7,South,4.6,-,,,Overcast,180,03-06-2016 13:35
172,28,9:35 AM,64.4,62.6,94,30.08,8,South,5.8,-,,,Overcast,180,03-06-2016 13:55
173,29,9:55 AM,64.4,62.6,94,30.08,10,SSE,3.5,-,0.01,,Overcast,150,03-06-2016 14:00
174,30,10:00 AM,66.2,62.6,88,30.08,10,SSE,4.6,-,,,Overcast,160,03-06-2016 14:35
175,31,10:35 AM,66.2,62.6,88,30.08,10,Calm,Calm,-,,,Overcast,0,03-06-2016 14:55
176,32,10:55 AM,66.2,62.6,88,30.08,8,South,3.5,-,,,Overcast,180,03-06-2016 15:00
177,33,11:00 AM,66.2,62.6,88,30.08,10,SSE,4.6,-,,,Overcast,160,03-06-2016 15:35
178,34,11:35 AM,66.2,62.6,88,30.09,9,SW,4.6,-,,,Overcast,220,03-06-2016 15:55
179,35,11:55 AM,64.4,62.6,94,30.08,9,WSW,4.6,-,,,Overcast,250,03-06-2016 16:00
180,36,12:00 PM,64.4,62.6,94,30.08,10,West,4.6,-,,,Overcast,260,03-06-2016 16:35
181,37,12:35 PM,66.2,62.6,88,30.08,9,West,6.9,-,,,Overcast,270,03-06-2016 16:55
182,38,12:55 PM,66.2,62.6,88,30.07,7,West,4.6,-,,,Overcast,260,03-06-2016 17:00
183,39,1:00 PM,66.2,62.6,88,30.08,10,West,6.9,-,,,Overcast,270,03-06-2016 17:35
184,40,1:35 PM,66.2,62.6,88,30.07,10,West,6.9,-,,,Overcast,270,03-06-2016 17:55
185,41,1:55 PM,66.2,62.6,88,30.07,10,West,4.6,-,,,Overcast,270,03-06-2016 18:00
186,42,2:00 PM,66.2,62.6,88,30.07,10,West,5.8,-,,,Overcast,270,03-06-2016 18:35
187,43,2:35 PM,66.2,62.6,88,30.06,10,SW,3.5,-,,,Mostly Cloudy,220,03-06-2016 18:55
188,44,2:55 PM,68,62.6,83,30.05,9,SSE,4.6,-,,,Mostly Cloudy,160,03-06-2016 19:00
189,45,3:00 PM,66.2,62.6,88,30.05,10,Calm,Calm,-,,,Overcast,0,03-06-2016 19:35
190,46,3:35 PM,68,62.6,83,30.06,10,West,4.6,-,,,Overcast,270,03-06-2016 19:55
191,47,3:55 PM,66.2,62.6,88,30.05,10,West,4.6,-,,,Overcast,270,03-06-2016 20:00
192,48,4:00 PM,66.2,62.6,88,30.05,10,West,5.8,-,,,Overcast,270,03-06-2016 20:35
193,49,4:35 PM,66.2,62.6,88,30.04,10,West,4.6,-,,,Overcast,270,03-06-2016 20:55
194,50,4:55 PM,69.8,62.6,78,30.04,10,West,5.8,-,,,Overcast,270,03-06-2016 21:00
195,51,5:00 PM,68,62.6,83,30.04,10,West,5.8,-,,,Overcast,270,03-06-2016 21:35
196,52,5:35 PM,68,62.6,83,30.04,10,West,4.6,-,,,Overcast,280,03-06-2016 21:55
197,53,5:55 PM,68,62.6,83,30.03,10,SW,3.5,-,,,Scattered Clouds,230,03-06-2016 22:00
198,54,6:00 PM,68,62.6,83,30.04,9,West,3.5,-,,,Clear,270,03-06-2016 22:35
199,55,6:35 PM,68,62.6,83,30.04,9,Calm,Calm,-,,,Mostly Cloudy,0,03-06-2016 22:55
200,56,6:55 PM,66.2,62.6,88,30.04,10,Calm,Calm,-,,,Overcast,0,03-06-2016 23:00
201,57,7:00 PM,66.2,62.6,88,30.04,10,West,3.5,-,,,Overcast,260,03-06-2016 23:35
202,58,7:35 PM,66.2,62.6,88,30.04,10,West,3.5,-,,,Overcast,280,03-06-2016 23:55
203,59,7:55 PM,66.2,62.6,88,30.04,10,West,3.5,-,,,Overcast,280,04-06-2016 00:00
204,60,8:00 PM,66.2,62.6,88,30.04,10,West,3.5,-,,,Overcast,280,04-06-2016 00:35
205,61,8:35 PM,66.2,62.6,88,30.04,10,West,3.5,-,,,Overcast,260,04-06-2016 00:55
206,62,8:55 PM,66.2,62.6,88,30.03,10,Calm,Calm,-,,,Overcast,0,04-06-2016 01:00
207,63,9:00 PM,66.2,62.6,88,30.03,10,Calm,Calm,-,,,Overcast,0,04-06-2016 01:35
208,64,9:35 PM,66.2,62.6,88,30.04,10,SSW,4.6,-,,,Overcast,210,04-06-2016 01:55
209,65,9:55 PM,64.4,62.6,94,30.04,10,Calm,Calm,-,,,Overcast,0,04-06-2016 02:00
210,66,10:00 PM,64.4,62.6,94,30.05,10,Calm,Calm,-,,,Overcast,0,04-06-2016 02:35
211,67,10:35 PM,66.2,62.6,88,30.05,10,Calm,Calm,-,,,Overcast,0,04-06-2016 02:55
212,68,10:55 PM,64.4,62.6,94,30.06,10,Calm,Calm,-,,,Overcast,0,04-06-2016 03:00
213,69,11:00 PM,64.4,62.6,94,30.06,10,Calm,Calm,-,,,Overcast,0,04-06-2016 03:35
214,70,11:35 PM,64.4,62.6,94,30.06,10,Calm,Calm,-,,,Overcast,0,04-06-2016 03:55
215,71,11:55 PM,64.4,62.6,94,30.06,10,Calm,Calm,-,,,Overcast,0,04-06-2016 04:00
216,0,12:00 AM,64.4,62.6,94,30.06,10,Calm,Calm,-,,,Overcast,0,04-06-2016 04:35
217,1,12:35 AM,64.4,62.6,94,30.05,10,Calm,Calm,-,,,Overcast,0,04-06-2016 04:55
218,2,12:55 AM,66.2,62.6,88,30.05,10,Calm,Calm,-,,,Overcast,0,04-06-2016 05:00
219,3,1:00 AM,64.4,62.6,94,30.04,10,Calm,Calm,-,,,Overcast,0,04-06-2016 05:35
220,4,1:35 AM,64.4,62.6,94,30.04,10,West,3.5,-,,,Overcast,270,04-06-2016 05:55
221,5,1:55 AM,64.4,62.6,94,30.04,10,Calm,Calm,-,,,Overcast,0,04-06-2016 06:00
222,6,2:00 AM,64.4,62.6,94,30.03,10,Calm,Calm,-,,,Overcast,0,04-06-2016 06:35
223,7,2:35 AM,64.4,62.6,94,30.03,10,Calm,Calm,-,,,Overcast,0,04-06-2016 06:55
224,8,2:55 AM,64.4,62.6,94,30.02,10,Calm,Calm,-,,,Overcast,0,04-06-2016 07:00
225,9,3:00 AM,64.4,62.6,94,30.03,10,Calm,Calm,-,,,Overcast,0,04-06-2016 07:35
226,10,3:35 AM,66.2,62.6,88,30.03,10,West,3.5,-,,,Overcast,260,04-06-2016 07:55
227,11,3:55 AM,66.2,62.6,88,30.02,10,WSW,4.6,-,,,Overcast,240,04-06-2016 08:00
228,12,4:00 AM,64.4,62.6,94,30.02,10,WSW,3.5,-,,,Overcast,240,04-06-2016 08:35
229,13,4:35 AM,64.4,62.6,94,30.02,10,Calm,Calm,-,,,Overcast,0,04-06-2016 08:55
230,14,4:55 AM,66.2,62.6,88,30.02,10,Calm,Calm,-,,,Overcast,0,04-06-2016 09:00
231,15,5:00 AM,66.2,62.6,88,30.02,10,Calm,Calm,-,,,Overcast,0,04-06-2016 09:35
232,16,5:35 AM,66.2,62.6,88,30.02,10,Calm,Calm,-,,,Overcast,0,04-06-2016 09:55
233,17,5:55 AM,66.2,64.4,94,30.03,10,Calm,Calm,-,,,Overcast,0,04-06-2016 10:00
234,18,6:00 AM,66.2,64.4,94,30.03,10,Calm,Calm,-,,,Overcast,0,04-06-2016 10:35
235,19,6:35 AM,66.2,64.4,94,30.03,10,Calm,Calm,-,,,Overcast,0,04-06-2016 10:55
236,20,6:55 AM,66.2,64.4,94,30.03,10,Calm,Calm,-,,,Overcast,0,04-06-2016 11:00
237,21,7:00 AM,66.2,64.4,94,30.03,10,Calm,Calm,-,,,Mostly Cloudy,0,04-06-2016 11:35
238,22,7:35 AM,68,64.4,88,30.03,10,Calm,Calm,-,,,Overcast,0,04-06-2016 11:55
239,23,7:55 AM,68,64.4,88,30.03,9,WSW,3.5,-,,,Overcast,250,04-06-2016 12:00
240,24,8:00 AM,68,64.4,88,30.04,8,West,4.6,-,,,Mostly Cloudy,270,04-06-2016 12:35
241,25,8:35 AM,69.8,66.2,88,30.03,8,WSW,4.6,-,,,Partly Cloudy,250,04-06-2016 12:55
242,26,8:55 AM,69.8,66.2,88,30.03,8,WSW,4.6,-,,,Clear,240,04-06-2016 13:00
243,27,9:00 AM,69.8,66.2,88,30.03,7,SW,3.5,-,,,Clear,230,04-06-2016 13:35
244,28,9:35 AM,71.6,66.2,83,30.03,5,WSW,5.8,-,,,Mostly Cloudy,250,04-06-2016 13:55
245,29,9:55 AM,71.6,66.2,83,30.02,8,WSW,3.5,-,,,Mostly Cloudy,250,04-06-2016 14:00
246,30,10:00 AM,73.4,66.2,78,30.02,7,West,3.5,-,,,Mostly Cloudy,260,04-06-2016 14:35
247,31,10:35 AM,75.2,66.2,73,30.02,7,Calm,Calm,-,0.01,,Scattered Clouds,0,04-06-2016 14:55
248,32,10:55 AM,75.2,66.2,73,30.01,6,Calm,Calm,-,0.01,,Partly Cloudy,0,04-06-2016 15:00
249,33,11:00 AM,77,66.2,69,30.02,10,SW,3.5,-,,,Partly Cloudy,230,04-06-2016 15:35
250,34,11:35 AM,77,66.2,69,30.01,8,SSW,3.5,-,,,Scattered Clouds,210,04-06-2016 15:55
251,35,11:55 AM,78.8,66.2,65,30.01,8,Calm,Calm,-,,,Scattered Clouds,0,04-06-2016 16:00
252,36,12:00 PM,77,66.2,69,30,10,South,3.5,-,,,Mostly Cloudy,190,04-06-2016 16:35
253,37,12:35 PM,78.8,66.2,65,29.99,10,Calm,Calm,-,,,Partly Cloudy,0,04-06-2016 16:55
254,38,12:55 PM,78.8,66.2,65,29.99,10,SW,4.6,-,,,Clear,220,04-06-2016 17:00
255,39,1:00 PM,78.8,66.2,65,29.98,9,South,4.6,-,,,Clear,190,04-06-2016 17:35
256,40,1:35 PM,80.6,64.4,58,29.97,10,Calm,Calm,-,,,Clear,0,04-06-2016 17:55
257,41,1:55 PM,80.6,66.2,61,29.97,9,SW,4.6,-,,,Clear,230,04-06-2016 18:00
258,42,2:00 PM,82.4,66.2,58,29.96,10,West,3.5,-,,,Clear,260,04-06-2016 18:35
259,43,2:35 PM,80.6,66.2,61,29.96,10,WSW,3.5,-,,,Clear,250,04-06-2016 18:55
260,44,2:55 PM,80.6,66.2,61,29.96,9,SW,6.9,-,,,Clear,230,04-06-2016 19:00
261,45,3:00 PM,82.4,66.2,58,29.95,9,WSW,4.6,-,,,Clear,250,04-06-2016 19:35
262,46,3:35 PM,82.4,66.2,58,29.94,10,WSW,5.8,-,,,Clear,250,04-06-2016 19:55
263,47,3:55 PM,82.4,64.4,54,29.93,8,SSW,6.9,-,,,Clear,200,04-06-2016 20:00
264,48,4:00 PM,82.4,64.4,54,29.93,10,South,10.4,-,,,Partly Cloudy,170,04-06-2016 20:35
265,49,4:35 PM,82.4,64.4,54,29.93,10,South,8.1,19.6,,,Clear,190,04-06-2016 20:55
266,50,4:55 PM,80.6,64.4,58,29.92,9,SSW,8.1,-,,,Scattered Clouds,200,04-06-2016 21:00
267,51,5:00 PM,80.6,64.4,58,29.92,10,South,9.2,-,,,Scattered Clouds,170,04-06-2016 21:35
268,52,5:35 PM,78.8,66.2,65,29.92,10,South,3.5,-,,,Partly Cloudy,170,04-06-2016 21:55
269,53,5:55 PM,77,66.2,69,29.92,9,South,9.2,-,,,Partly Cloudy,180,04-06-2016 22:00
270,54,6:00 PM,75.2,64.4,69,29.92,10,South,11.5,17.3,,,Partly Cloudy,180,04-06-2016 22:35
271,55,6:35 PM,75.2,64.4,69,29.92,10,South,9.2,-,,,Mostly Cloudy,180,04-06-2016 22:55
272,56,6:55 PM,73.4,64.4,73,29.93,9,South,6.9,-,,,Overcast,170,04-06-2016 23:00
273,57,7:00 PM,71.6,66.2,83,29.93,9,SSE,6.9,-,0.02,,Overcast,150,04-06-2016 23:35
274,58,7:35 PM,71.6,66.2,83,29.94,10,Calm,Calm,-,0.02,,Mostly Cloudy,0,04-06-2016 23:55
275,59,7:55 PM,71.6,64.4,78,29.94,10,ESE,4.6,-,0.02,,Overcast,120,05-06-2016 00:00
276,60,8:00 PM,71.6,64.4,78,29.94,10,NE,3.5,-,,,Overcast,50,05-06-2016 00:35
277,61,8:35 PM,71.6,64.4,78,29.95,10,Calm,Calm,-,,,Mostly Cloudy,0,05-06-2016 00:55
278,62,8:55 PM,71.6,64.4,78,29.94,10,Calm,Calm,-,,,Mostly Cloudy,0,05-06-2016 01:00
279,63,9:00 PM,71.6,64.4,78,29.94,10,ESE,4.6,-,,,Overcast,120,05-06-2016 01:35
280,64,9:35 PM,71.6,64.4,78,29.95,10,Calm,Calm,-,,,Overcast,0,05-06-2016 01:55
281,65,9:55 PM,69.8,64.4,83,29.95,10,Calm,Calm,-,,,Overcast,0,05-06-2016 02:00
282,66,10:00 PM,69.8,64.4,83,29.95,10,NE,6.9,-,,,Overcast,40,05-06-2016 02:35
283,67,10:35 PM,69.8,64.4,83,29.95,10,NE,6.9,-,,,Overcast,40,05-06-2016 02:55
284,68,10:55 PM,69.8,64.4,83,29.94,10,NE,6.9,-,,,Overcast,50,05-06-2016 03:00
285,69,11:00 PM,69.8,64.4,83,29.94,10,NE,4.6,-,,,Mostly Cloudy,40,05-06-2016 03:35
286,70,11:35 PM,69.8,64.4,83,29.94,10,NNE,5.8,-,,,Mostly Cloudy,30,05-06-2016 03:55
287,71,11:55 PM,69.8,64.4,83,29.93,10,NNE,5.8,-,,,Overcast,30,05-06-2016 04:00
288,0,12:00 AM,68,64.4,88,29.93,10,NNE,5.8,-,,,Overcast,30,05-06-2016 04:35
289,1,12:35 AM,68,64.4,88,29.92,10,NNE,5.8,-,,,Overcast,30,05-06-2016 04:55
290,2,12:55 AM,69.8,64.4,83,29.92,10,NNE,4.6,-,,,Overcast,30,05-06-2016 05:00
291,3,1:00 AM,69.8,64.4,83,29.91,10,NNE,4.6,-,,,Mostly Cloudy,30,05-06-2016 05:35
292,4,1:35 AM,69.8,64.4,83,29.91,10,NE,3.5,-,,,Overcast,40,05-06-2016 05:55
293,5,1:55 AM,69.8,62.6,78,29.91,10,Calm,Calm,-,,,Overcast,0,05-06-2016 06:00
294,6,2:00 AM,69.8,62.6,78,29.91,10,Calm,Calm,-,,,Overcast,0,05-06-2016 06:35
295,7,2:35 AM,69.8,60.8,73,29.9,10,Calm,Calm,-,,,Mostly Cloudy,0,05-06-2016 06:55
296,8,2:55 AM,69.8,59,68,29.9,10,Calm,Calm,-,,,Mostly Cloudy,0,05-06-2016 07:00
297,9,3:00 AM,69.8,59,68,29.9,10,Calm,Calm,-,,,Overcast,0,05-06-2016 07:35
298,10,3:35 AM,69.8,57.2,64,29.89,10,Calm,Calm,-,,,Overcast,0,05-06-2016 07:55
299,11,3:55 AM,69.8,57.2,64,29.89,10,Calm,Calm,-,,,Overcast,0,05-06-2016 08:00
300,12,4:00 AM,69.8,57.2,64,29.89,10,Calm,Calm,-,,,Overcast,0,05-06-2016 08:35
301,13,4:35 AM,68,60.8,78,29.89,10,Calm,Calm,-,,,Overcast,0,05-06-2016 08:55
302,14,4:55 AM,68,60.8,78,29.88,10,SE,3.5,-,,,Mostly Cloudy,140,05-06-2016 09:00
303,15,5:00 AM,68,60.8,78,29.87,10,Calm,Calm,-,,,Mostly Cloudy,0,05-06-2016 09:35
304,16,5:35 AM,68,60.8,78,29.86,10,ESE,4.6,-,,,Mostly Cloudy,110,05-06-2016 09:55
305,17,5:55 AM,68,60.8,78,29.86,10,East,3.5,-,,,Mostly Cloudy,80,05-06-2016 10:00
306,18,6:00 AM,66.2,62.6,88,29.87,10,SSE,4.6,-,,,Partly Cloudy,150,05-06-2016 10:35
307,19,6:35 AM,66.2,62.6,88,29.86,10,SE,4.6,-,,,Partly Cloudy,140,05-06-2016 10:55
308,20,6:55 AM,66.2,62.6,88,29.87,10,SE,4.6,-,,,Scattered Clouds,130,05-06-2016 11:00
309,21,7:00 AM,66.2,62.6,88,29.87,10,SE,6.9,-,,,Mostly Cloudy,140,05-06-2016 11:35
310,22,7:35 AM,66.2,64.4,94,29.87,10,SE,3.5,-,,,Overcast,130,05-06-2016 11:55
311,23,7:55 AM,68,64.4,88,29.86,10,ESE,6.9,-,,,Overcast,120,05-06-2016 12:00
312,24,8:00 AM,66.2,64.4,94,29.86,10,ESE,5.8,-,,,Overcast,120,05-06-2016 12:35
313,25,8:35 AM,66.2,64.4,94,29.87,10,SE,4.6,-,0.01,,Overcast,130,05-06-2016 12:55
314,26,8:55 AM,66.2,64.4,94,29.85,10,ESE,6.9,-,0.01,,Overcast,120,05-06-2016 13:00
315,27,9:00 AM,66.2,64.4,94,29.85,10,SE,4.6,-,,,Overcast,140,05-06-2016 13:35
316,28,9:35 AM,66.2,64.4,94,29.83,10,SE,6.9,-,,,Overcast,130,05-06-2016 13:55
317,29,9:55 AM,66.2,64.4,94,29.83,10,ESE,4.6,-,,,Overcast,120,05-06-2016 14:00
318,30,10:00 AM,68,64.4,88,29.82,10,East,4.6,-,,,Overcast,90,05-06-2016 14:35
319,31,10:35 AM,68,64.4,88,29.82,10,East,5.8,-,,,Overcast,80,05-06-2016 14:55
320,32,10:55 AM,68,64.4,88,29.81,10,East,6.9,-,,,Overcast,90,05-06-2016 15:00
321,33,11:00 AM,68,64.4,88,29.8,2.5,East,4.6,-,0.08,,Overcast,90,05-06-2016 15:35
322,34,11:35 AM,66.2,66.2,100,29.8,3,NE,6.9,-,0.17,,Overcast,40,05-06-2016 15:55
323,35,11:55 AM,66.2,66.2,100,29.79,10,NE,4.6,-,0.23,,Overcast,50,05-06-2016 16:00
324,36,12:00 PM,68,66.2,94,29.78,10,SE,5.8,-,,,Overcast,140,05-06-2016 16:35
325,37,12:35 PM,68,66.2,94,29.78,6,ESE,5.8,-,,,Overcast,120,05-06-2016 16:55
326,38,12:55 PM,68,66.2,94,29.77,5,SSE,5.8,-,,,Overcast,150,05-06-2016 17:00
327,39,1:00 PM,68,66.2,94,29.76,6,SE,3.5,-,,,Overcast,140,05-06-2016 17:35
328,40,1:35 PM,68,66.2,94,29.76,7,South,5.8,-,,,Overcast,170,05-06-2016 17:55
329,41,1:55 PM,68,66.2,94,29.74,7,Calm,Calm,-,,,Overcast,0,05-06-2016 18:00
330,42,2:00 PM,69.8,68,94,29.72,9,SE,3.5,-,,,Overcast,140,05-06-2016 18:35
331,43,2:35 PM,71.6,69.8,94,29.71,10,NNE,3.5,-,,,Overcast,20,05-06-2016 18:55
332,44,2:55 PM,71.6,69.8,94,29.7,10,East,5.8,-,,,Overcast,90,05-06-2016 19:00
333,45,3:00 PM,71.6,68,88,29.69,10,East,4.6,-,,,Mostly Cloudy,90,05-06-2016 19:35
334,46,3:35 PM,73.4,68,83,29.68,10,ESE,3.5,-,,,Overcast,110,05-06-2016 19:55
335,47,3:55 PM,71.6,68,88,29.67,10,SE,4.6,-,,,Overcast,130,05-06-2016 20:00
336,48,4:00 PM,71.6,68,88,29.66,10,SE,6.9,-,,,Overcast,130,05-06-2016 20:35
337,49,4:35 PM,71.6,68,88,29.65,10,ESE,4.6,-,,,Mostly Cloudy,110,05-06-2016 20:55
338,50,4:55 PM,71.6,68,88,29.64,10,ESE,3.5,-,,,Scattered Clouds,120,05-06-2016 21:00
339,51,5:00 PM,71.6,66.2,83,29.63,10,Calm,Calm,-,,,Clear,0,05-06-2016 21:35
340,52,5:35 PM,71.6,68,88,29.62,10,Calm,Calm,-,,,Partly Cloudy,0,05-06-2016 21:55
341,53,5:55 PM,73.4,68,83,29.62,10,Calm,Calm,-,,,Mostly Cloudy,0,05-06-2016 22:00
342,54,6:00 PM,73.4,69.8,88,29.63,10,West,8.1,-,,,Mostly Cloudy,280,05-06-2016 22:35
343,55,6:35 PM,73.4,69.8,88,29.66,10,West,17.3,29.9,,,Overcast,270,05-06-2016 22:55
344,56,6:55 PM,68,66.2,94,29.67,3,WSW,12.7,-,0.31,,Overcast,250,05-06-2016 23:00
345,57,7:00 PM,68,64.4,88,29.64,10,WSW,5.8,-,0.02,,Overcast,240,05-06-2016 23:35
346,58,7:35 PM,68,64.4,88,29.63,10,SW,4.6,-,0.03,,Overcast,220,05-06-2016 23:55
347,59,7:55 PM,66.2,64.4,94,29.66,10,SW,3.5,-,0.06,,Overcast,230,06-06-2016 00:00
348,60,8:00 PM,68,66.2,94,29.66,10,West,6.9,-,0.01,,Scattered Clouds,270,06-06-2016 00:35
349,61,8:35 PM,68,66.2,94,29.66,10,WSW,6.9,-,0.01,,Clear,250,06-06-2016 00:55
350,62,8:55 PM,68,66.2,94,29.66,10,West,4.6,-,0.01,,Clear,260,06-06-2016 01:00
351,63,9:00 PM,68,66.2,94,29.66,10,West,4.6,-,,,Partly Cloudy,280,06-06-2016 01:35
352,64,9:35 PM,68,66.2,94,29.66,10,West,5.8,-,,,Mostly Cloudy,270,06-06-2016 01:55
353,65,9:55 PM,66.2,66.2,100,29.66,10,West,6.9,-,,,Scattered Clouds,270,06-06-2016 02:00
354,66,10:00 PM,66.2,66.2,100,29.66,10,West,6.9,-,,,Clear,270,06-06-2016 02:35
355,67,10:35 PM,66.2,66.2,100,29.66,10,West,5.8,-,,,Clear,270,06-06-2016 02:55
356,68,10:55 PM,66.2,66.2,100,29.67,10,West,6.9,-,,,Clear,260,06-06-2016 03:00
357,69,11:00 PM,66.2,66.2,100,29.67,10,West,8.1,-,,,Clear,270,06-06-2016 03:35
358,70,11:35 PM,66.2,66.2,100,29.67,10,West,4.6,-,,,Partly Cloudy,270,06-06-2016 03:55
359,71,11:55 PM,66.2,64.4,94,29.67,10,West,4.6,-,,,Mostly Cloudy,270,06-06-2016 04:00
360,0,12:00 AM,66.2,64.4,94,29.67,10,West,4.6,-,,,Mostly Cloudy,270,06-06-2016 04:35
361,1,12:35 AM,66.2,66.2,100,29.67,10,West,5.8,-,,,Mostly Cloudy,260,06-06-2016 04:55
362,2,12:55 AM,66.2,66.2,100,29.66,10,West,4.6,-,,,Overcast,270,06-06-2016 05:00
363,3,1:00 AM,66.2,66.2,100,29.66,10,West,4.6,-,,,Overcast,270,06-06-2016 05:35
364,4,1:35 AM,66.2,66.2,100,29.66,10,West,6.9,-,,,Overcast,260,06-06-2016 05:55
365,5,1:55 AM,66.2,66.2,100,29.66,10,West,6.9,-,,,Overcast,270,06-06-2016 06:00
366,6,2:00 AM,66.2,66.2,100,29.66,10,West,5.8,-,,,Overcast,270,06-06-2016 06:35
367,7,2:35 AM,68,66.2,94,29.66,10,West,6.9,-,,,Overcast,270,06-06-2016 06:55
368,8,2:55 AM,68,66.2,94,29.65,10,West,5.8,-,,,Overcast,270,06-06-2016 07:00
369,9,3:00 AM,68,66.2,94,29.65,10,West,5.8,-,,,Overcast,260,06-06-2016 07:35
370,10,3:35 AM,68,66.2,94,29.66,10,West,4.6,-,,,Overcast,270,06-06-2016 07:55
371,11,3:55 AM,66.2,66.2,100,29.66,10,West,5.8,-,,,Overcast,270,06-06-2016 08:00
372,12,4:00 AM,66.2,66.2,100,29.66,10,West,4.6,-,,,Overcast,270,06-06-2016 08:35
373,13,4:35 AM,66.2,66.2,100,29.66,10,West,5.8,-,,,Overcast,260,06-06-2016 08:55
374,14,4:55 AM,66.2,66.2,100,29.66,10,West,4.6,-,,,Overcast,260,06-06-2016 09:00
375,15,5:00 AM,66.2,66.2,100,29.66,10,West,4.6,-,,,Overcast,270,06-06-2016 09:35
376,16,5:35 AM,66.2,66.2,100,29.67,10,West,3.5,-,,,Overcast,280,06-06-2016 09:55
377,17,5:55 AM,66.2,66.2,100,29.67,10,West,4.6,-,,,Overcast,260,06-06-2016 10:00
378,18,6:00 AM,66.2,66.2,100,29.67,10,West,6.9,-,,,Scattered Clouds,270,06-06-2016 10:35
379,19,6:35 AM,66.2,66.2,100,29.67,10,West,8.1,-,,,Scattered Clouds,260,06-06-2016 10:55
380,20,6:55 AM,68,66.2,94,29.68,10,West,9.2,-,,,Mostly Cloudy,270,06-06-2016 11:00
381,21,7:00 AM,68,66.2,94,29.68,10,West,10.4,-,,,Overcast,270,06-06-2016 11:35
382,22,7:35 AM,68,66.2,94,29.69,10,West,10.4,44.9,,,Overcast,270,06-06-2016 11:55
383,23,7:55 AM,68,66.2,94,29.69,10,West,13.8,44.9,,,Mostly Cloudy,260,06-06-2016 12:00
384,24,8:00 AM,68,66.2,94,29.69,10,WSW,8.1,32.2,,,Scattered Clouds,240,06-06-2016 12:35
385,25,8:35 AM,69.8,66.2,88,29.69,10,WSW,8.1,-,,,Scattered Clouds,240,06-06-2016 12:55
386,26,8:55 AM,69.8,64.4,83,29.7,10,West,10.4,-,,,Partly Cloudy,260,06-06-2016 13:00
387,27,9:00 AM,71.6,64.4,78,29.7,10,West,10.4,20.7,,,Scattered Clouds,270,06-06-2016 13:35
388,28,9:35 AM,71.6,64.4,78,29.7,9,West,10.4,18.4,,,Mostly Cloudy,260,06-06-2016 13:55
389,29,9:55 AM,71.6,64.4,78,29.7,10,West,15,21.9,,,Mostly Cloudy,260,06-06-2016 14:00
390,30,10:00 AM,73.4,62.6,69,29.7,10,West,11.5,20.7,,,Mostly Cloudy,260,06-06-2016 14:35
391,31,10:35 AM,75.2,60.8,61,29.7,10,West,11.5,24.2,,,Mostly Cloudy,270,06-06-2016 14:55
392,32,10:55 AM,78.8,60.8,54,29.69,10,West,10.4,16.1,,,Partly Cloudy,260,06-06-2016 15:00
393,33,11:00 AM,78.8,60.8,54,29.7,10,West,12.7,-,,,Scattered Clouds,260,06-06-2016 15:35
394,34,11:35 AM,78.8,59,51,29.7,10,West,11.5,26.5,,,Partly Cloudy,260,06-06-2016 15:55
395,35,11:55 AM,80.6,57.2,45,29.7,10,WSW,11.5,20.7,,,Clear,250,06-06-2016 16:00
396,36,12:00 PM,80.6,57.2,45,29.7,-9999,West,10.4,18.4,,,Clear,260,06-06-2016 16:35
397,37,12:35 PM,80.6,57.2,45,29.69,10,WSW,6.9,49.5,0.01,,Clear,240,06-06-2016 16:55
398,38,12:55 PM,80.6,55.4,42,29.69,10,WSW,8.1,-,0.01,,Clear,250,06-06-2016 17:00
399,39,1:00 PM,80.6,55.4,42,29.68,10,West,21.9,57.5,,,Clear,260,06-06-2016 17:35
400,40,1:35 PM,82.4,53.6,37,29.68,10,West,11.5,23,,,Partly Cloudy,260,06-06-2016 17:55
401,41,1:55 PM,82.4,55.4,39,29.68,10,West,8.1,-,,,Scattered Clouds,260,06-06-2016 18:00
402,42,2:00 PM,82.4,53.6,37,29.67,10,West,10.4,31.1,,,Partly Cloudy,260,06-06-2016 18:35
403,43,2:35 PM,82.4,53.6,37,29.67,10,West,12.7,49.5,,,Clear,280,06-06-2016 18:55
404,44,2:55 PM,82.4,53.6,37,29.67,10,West,15,46,,,Partly Cloudy,260,06-06-2016 19:00
405,45,3:00 PM,82.4,53.6,37,29.67,10,West,10.4,20.7,,,Mostly Cloudy,260,06-06-2016 19:35
406,46,3:35 PM,82.4,55.4,39,29.67,10,West,13.8,19.6,,,Overcast,270,06-06-2016 19:55
407,47,3:55 PM,82.4,55.4,39,29.66,10,West,10.4,21.9,,,Mostly Cloudy,270,06-06-2016 20:00
408,48,4:00 PM,82.4,55.4,39,29.66,10,West,11.5,20.7,,,Mostly Cloudy,270,06-06-2016 20:35
409,49,4:35 PM,82.4,55.4,39,29.66,10,West,11.5,46,,,Mostly Cloudy,260,06-06-2016 20:55
410,50,4:55 PM,82.4,55.4,39,29.65,10,West,11.5,23,,,Mostly Cloudy,270,06-06-2016 21:00
411,51,5:00 PM,82.4,55.4,39,29.64,10,West,17.3,47.2,,,Scattered Clouds,270,06-06-2016 21:35
412,52,5:35 PM,82.4,55.4,39,29.64,10,West,15,48.3,,,Mostly Cloudy,270,06-06-2016 21:55
413,53,5:55 PM,82.4,57.2,42,29.65,10,West,9.2,17.3,,,Mostly Cloudy,270,06-06-2016 22:00
414,54,6:00 PM,82.4,57.2,42,29.64,10,West,12.7,19.6,,,Mostly Cloudy,270,06-06-2016 22:35
415,55,6:35 PM,82.4,57.2,42,29.64,10,West,10.4,-,,,Mostly Cloudy,260,06-06-2016 22:55
416,56,6:55 PM,80.6,57.2,45,29.65,10,West,12.7,17.3,,,Partly Cloudy,270,06-06-2016 23:00
417,57,7:00 PM,80.6,57.2,45,29.65,10,West,13.8,-,,,Clear,270,06-06-2016 23:35
418,58,7:35 PM,80.6,57.2,45,29.65,10,West,10.4,-,,,Clear,260,06-06-2016 23:55
419,59,7:55 PM,80.6,57.2,45,29.66,10,West,10.4,-,,,Clear,260,07-06-2016 00:00
420,60,8:00 PM,78.8,59,51,29.66,10,West,8.1,-,,,Clear,270,07-06-2016 00:35
421,61,8:35 PM,78.8,57.2,47,29.65,10,West,5.8,-,,,Partly Cloudy,260,07-06-2016 00:55
422,62,8:55 PM,78.8,60.8,54,29.66,10,WSW,8.1,-,,,Scattered Clouds,250,07-06-2016 01:00
423,63,9:00 PM,78.8,60.8,54,29.66,10,West,6.9,-,,,Partly Cloudy,260,07-06-2016 01:35
424,64,9:35 PM,78.8,62.6,57,29.66,10,West,6.9,-,,,Mostly Cloudy,260,07-06-2016 01:55
425,65,9:55 PM,78.8,62.6,57,29.66,10,West,6.9,-,,,Partly Cloudy,260,07-06-2016 02:00
426,66,10:00 PM,77,62.6,61,29.66,10,WSW,9.2,-,,,Clear,250,07-06-2016 02:35
427,67,10:35 PM,77,62.6,61,29.66,10,WSW,8.1,-,,,Scattered Clouds,250,07-06-2016 02:55
428,68,10:55 PM,77,62.6,61,29.66,10,West,9.2,-,,,Overcast,260,07-06-2016 03:00
429,69,11:00 PM,77,62.6,61,29.66,10,West,6.9,-,,,Overcast,260,07-06-2016 03:35
430,70,11:35 PM,75.2,62.6,65,29.65,10,West,8.1,-,,,Overcast,280,07-06-2016 03:55
431,71,11:55 PM,75.2,62.6,65,29.64,10,West,9.2,-,,,Scattered Clouds,270,07-06-2016 04:00
432,0,12:00 AM,75.2,62.6,65,29.64,10,West,8.1,-,,,Clear,270,07-06-2016 04:35
433,1,12:35 AM,75.2,62.6,65,29.64,10,West,9.2,-,,,Scattered Clouds,280,07-06-2016 04:55
434,2,12:55 AM,73.4,62.6,69,29.63,10,West,3.5,-,,,Mostly Cloudy,270,07-06-2016 05:00
435,3,1:00 AM,73.4,62.6,69,29.63,10,West,5.8,-,,,Partly Cloudy,280,07-06-2016 05:35
436,4,1:35 AM,73.4,62.6,69,29.62,10,West,6.9,-,,,Clear,270,07-06-2016 05:55
437,5,1:55 AM,73.4,64.4,73,29.62,10,West,6.9,-,,,Clear,280,07-06-2016 06:00
438,6,2:00 AM,73.4,64.4,73,29.62,10,West,3.5,-,,,Clear,270,07-06-2016 06:35
439,7,2:35 AM,73.4,64.4,73,29.61,10,West,3.5,-,,,Clear,270,07-06-2016 06:55
440,8,2:55 AM,73.4,64.4,73,29.6,10,West,4.6,-,,,Clear,280,07-06-2016 07:00
441,9,3:00 AM,73.4,64.4,73,29.6,10,West,3.5,-,,,Clear,260,07-06-2016 07:35
442,10,3:35 AM,73.4,64.4,73,29.59,10,West,4.6,-,,,Clear,280,07-06-2016 07:55
443,11,3:55 AM,73.4,64.4,73,29.58,10,West,3.5,-,,,Clear,280,07-06-2016 08:00
444,12,4:00 AM,71.6,64.4,78,29.58,10,West,4.6,-,,,Clear,260,07-06-2016 08:35
445,13,4:35 AM,71.6,64.4,78,29.59,10,West,4.6,-,,,Clear,280,07-06-2016 08:55
446,14,4:55 AM,71.6,64.4,78,29.59,10,West,4.6,-,,,Clear,280,07-06-2016 09:00
447,15,5:00 AM,71.6,64.4,78,29.58,10,West,4.6,-,,,Clear,270,07-06-2016 09:35
448,16,5:35 AM,71.6,64.4,78,29.58,10,WSW,4.6,-,,,Clear,250,07-06-2016 09:55
449,17,5:55 AM,71.6,64.4,78,29.58,10,West,5.8,-,,,Clear,260,07-06-2016 10:00
450,18,6:00 AM,71.6,64.4,78,29.58,10,SW,3.5,-,,,Clear,230,07-06-2016 10:35
451,19,6:35 AM,71.6,64.4,78,29.58,10,WSW,4.6,-,,,Clear,240,07-06-2016 10:55
452,20,6:55 AM,69.8,64.4,83,29.58,10,South,4.6,-,,,Clear,190,07-06-2016 11:00
453,21,7:00 AM,69.8,64.4,83,29.57,10,SW,3.5,-,,,Clear,230,07-06-2016 11:35
454,22,7:35 AM,69.8,64.4,83,29.58,10,WSW,5.8,-,,,Clear,240,07-06-2016 11:55
455,23,7:55 AM,69.8,64.4,83,29.57,10,WSW,6.9,-,,,Clear,240,07-06-2016 12:00
456,24,8:00 AM,71.6,62.6,73,29.57,10,West,9.2,-,,,Clear,260,07-06-2016 12:35
457,25,8:35 AM,71.6,62.6,73,29.57,10,WSW,6.9,-,,,Clear,240,07-06-2016 12:55
458,26,8:55 AM,73.4,60.8,65,29.57,10,WSW,6.9,-,,,Clear,250,07-06-2016 13:00
459,27,9:00 AM,73.4,62.6,69,29.56,10,WSW,5.8,-,,,Clear,250,07-06-2016 13:35
460,28,9:35 AM,75.2,62.6,65,29.56,6,WSW,6.9,-,,,Clear,240,07-06-2016 13:55
461,29,9:55 AM,75.2,62.6,65,29.55,10,WSW,6.9,-,,,Partly Cloudy,250,07-06-2016 14:00
462,30,10:00 AM,78.8,62.6,57,29.54,10,West,10.4,17.3,,,Clear,270,07-06-2016 14:35
463,31,10:35 AM,80.6,60.8,51,29.53,10,West,11.5,-,,,Clear,260,07-06-2016 14:55
464,32,10:55 AM,80.6,60.8,51,29.53,10,WSW,5.8,18.4,,,Clear,240,07-06-2016 15:00
465,33,11:00 AM,80.6,60.8,51,29.54,10,WSW,9.2,-,,,Clear,250,07-06-2016 15:35
466,34,11:35 AM,82.4,59,45,29.54,10,West,10.4,21.9,,,Clear,260,07-06-2016 15:55
467,35,11:55 AM,82.4,59,45,29.54,10,West,8.1,-,,,Clear,260,07-06-2016 16:00
468,36,12:00 PM,80.6,55.4,42,29.54,10,West,10.4,17.3,,,Clear,260,07-06-2016 16:35
469,37,12:35 PM,82.4,59,45,29.53,10,WSW,4.6,-,,,Clear,250,07-06-2016 16:55
470,38,12:55 PM,82.4,53.6,37,29.52,10,West,9.2,16.1,,,Clear,260,07-06-2016 17:00
471,39,1:00 PM,84.2,50,30,29.51,10,West,8.1,-,,,Clear,270,07-06-2016 17:35
472,40,1:35 PM,84.2,51.8,33,29.5,7,WSW,10.4,18.4,,,Clear,250,07-06-2016 17:55
473,41,1:55 PM,86,51.8,31,29.48,10,West,10.4,24.2,,,Clear,260,07-06-2016 18:00
474,42,2:00 PM,86,48.2,27,29.47,10,West,12.7,19.6,,,Clear,270,07-06-2016 18:35
475,43,2:35 PM,84.2,48.2,29,29.47,10,West,10.4,20.7,,,Clear,260,07-06-2016 18:55
476,44,2:55 PM,86,48.2,27,29.46,10,West,13.8,21.9,,,Clear,260,07-06-2016 19:00
477,45,3:00 PM,84.2,50,30,29.47,10,NNE,3.5,-,,,Scattered Clouds,20,07-06-2016 19:35
478,46,3:35 PM,82.4,48.2,30,29.46,10,Calm,Calm,-,,,Mostly Cloudy,0,07-06-2016 19:55
479,47,3:55 PM,78.8,55.4,44,29.47,10,NNW,6.9,-,,,Overcast,330,07-06-2016 20:00
480,48,4:00 PM,73.4,57.2,57,29.48,9,North,4.6,-,0.01,,Overcast,10,07-06-2016 20:35
481,49,4:35 PM,73.4,57.2,57,29.46,10,WNW,3.5,-,0.01,,Scattered Clouds,290,07-06-2016 20:55
482,50,4:55 PM,75.2,55.4,50,29.46,10,NW,18.4,52.9,0.02,,Clear,310,07-06-2016 21:00
483,51,5:00 PM,75.2,55.4,50,29.47,10,West,9.2,-,,,Clear,270,07-06-2016 21:35
484,52,5:35 PM,75.2,55.4,50,29.47,10,West,11.5,17.3,,,Clear,270,07-06-2016 21:55
485,53,5:55 PM,75.2,57.2,53,29.47,10,West,9.2,-,,,Scattered Clouds,260,07-06-2016 22:00
486,54,6:00 PM,75.2,51.8,44,29.47,10,West,3.5,-,,,Scattered Clouds,270,07-06-2016 22:35
487,55,6:35 PM,75.2,53.6,47,29.47,10,West,6.9,-,,,Partly Cloudy,270,07-06-2016 22:55
488,56,6:55 PM,75.2,53.6,47,29.48,10,Calm,Calm,-,,,Partly Cloudy,0,07-06-2016 23:00
489,57,7:00 PM,75.2,53.6,47,29.48,10,Calm,Calm,-,,,Clear,0,07-06-2016 23:35
490,58,7:35 PM,75.2,53.6,47,29.49,10,Calm,Calm,-,,,Clear,0,07-06-2016 23:55
491,59,7:55 PM,75.2,53.6,47,29.5,10,Calm,Calm,-,,,Clear,0,08-06-2016 00:00
492,60,8:00 PM,73.4,53.6,50,29.5,10,Calm,Calm,-,,,Clear,0,08-06-2016 00:35
493,61,8:35 PM,73.4,55.4,53,29.51,10,Calm,Calm,-,,,Clear,0,08-06-2016 00:55
494,62,8:55 PM,73.4,53.6,50,29.52,10,Calm,Calm,-,,,Clear,0,08-06-2016 01:00
495,63,9:00 PM,71.6,53.6,53,29.53,10,West,3.5,-,,,Clear,260,08-06-2016 01:35
496,64,9:35 PM,71.6,53.6,53,29.54,10,West,3.5,-,,,Clear,270,08-06-2016 01:55
497,65,9:55 PM,71.6,53.6,53,29.54,10,SW,3.5,-,,,Clear,230,08-06-2016 02:00
498,66,10:00 PM,69.8,55.4,60,29.55,10,Calm,Calm,-,,,Partly Cloudy,0,08-06-2016 02:35
499,67,10:35 PM,69.8,55.4,60,29.57,10,NW,3.5,-,,,Mostly Cloudy,320,08-06-2016 02:55
500,68,10:55 PM,69.8,51.8,53,29.58,10,Calm,Calm,-,,,Mostly Cloudy,0,08-06-2016 03:00
501,69,11:00 PM,68,51.8,56,29.58,10,South,4.6,-,,,Scattered Clouds,180,08-06-2016 03:35
502,70,11:35 PM,68,51.8,56,29.59,10,Calm,Calm,-,,,Clear,0,08-06-2016 03:55
503,71,11:55 PM,66.2,51.8,60,29.59,10,Calm,Calm,-,,,Clear,0,08-06-2016 04:00
504,0,12:00 AM,66.2,51.8,60,29.59,10,Calm,Calm,-,,,Clear,0,08-06-2016 04:35
505,1,12:35 AM,66.2,51.8,60,29.59,10,Calm,Calm,-,,,Clear,0,08-06-2016 04:55
506,2,12:55 AM,66.2,51.8,60,29.59,10,Calm,Calm,-,,,Clear,0,08-06-2016 05:00
507,3,1:00 AM,66.2,51.8,60,29.59,10,West,3.5,-,,,Clear,260,08-06-2016 05:35
508,4,1:35 AM,66.2,53.6,64,29.59,10,NW,3.5,-,,,Clear,310,08-06-2016 05:55
509,5,1:55 AM,64.4,53.6,68,29.59,10,Calm,Calm,-,,,Clear,0,08-06-2016 06:00
510,6,2:00 AM,64.4,51.8,64,29.6,10,NNW,3.5,-,,,Clear,340,08-06-2016 06:35
511,7,2:35 AM,64.4,51.8,64,29.6,10,NW,3.5,-,,,Clear,320,08-06-2016 06:55
512,8,2:55 AM,64.4,51.8,64,29.6,10,West,3.5,-,,,Clear,280,08-06-2016 07:00
513,9,3:00 AM,64.4,51.8,64,29.6,10,Calm,Calm,-,,,Clear,0,08-06-2016 07:35
514,10,3:35 AM,64.4,51.8,64,29.61,10,Calm,Calm,-,,,Clear,0,08-06-2016 07:55
515,11,3:55 AM,64.4,51.8,64,29.61,10,Calm,Calm,-,,,Clear,0,08-06-2016 08:00
516,12,4:00 AM,62.6,51.8,68,29.62,10,Calm,Calm,-,,,Clear,0,08-06-2016 08:35
517,13,4:35 AM,62.6,50,63,29.62,10,Calm,Calm,-,,,Clear,0,08-06-2016 08:55
518,14,4:55 AM,62.6,51.8,68,29.63,10,WSW,5.8,-,,,Clear,250,08-06-2016 09:00
519,15,5:00 AM,62.6,50,63,29.63,10,West,3.5,-,,,Clear,260,08-06-2016 09:35
520,16,5:35 AM,62.6,51.8,68,29.63,10,Calm,Calm,-,,,Clear,0,08-06-2016 09:55
521,17,5:55 AM,62.6,51.8,68,29.63,10,WSW,4.6,-,,,Clear,250,08-06-2016 10:00
522,18,6:00 AM,62.6,50,63,29.64,10,West,3.5,-,,,Clear,260,08-06-2016 10:35
523,19,6:35 AM,62.6,50,63,29.64,10,West,8.1,-,,,Clear,260,08-06-2016 10:55
524,20,6:55 AM,62.6,50,63,29.64,10,WSW,5.8,-,,,Clear,240,08-06-2016 11:00
525,21,7:00 AM,62.6,50,63,29.64,10,WSW,3.5,-,,,Clear,250,08-06-2016 11:35
526,22,7:35 AM,62.6,50,63,29.64,10,WSW,8.1,-,,,Clear,250,08-06-2016 11:55
527,23,7:55 AM,62.6,50,63,29.63,10,West,6.9,-,,,Clear,260,08-06-2016 12:00
528,24,8:00 AM,62.6,50,63,29.63,10,WSW,8.1,-,,,Clear,250,08-06-2016 12:35
529,25,8:35 AM,64.4,50,59,29.63,10,WSW,4.6,-,,,Clear,250,08-06-2016 12:55
530,26,8:55 AM,64.4,50,59,29.63,10,West,10.4,-,,,Clear,260,08-06-2016 13:00
531,27,9:00 AM,66.2,51.8,60,29.64,10,WSW,12.7,-,,,Clear,250,08-06-2016 13:35
532,28,9:35 AM,66.2,51.8,60,29.64,10,West,9.2,18.4,,,Clear,260,08-06-2016 13:55
533,29,9:55 AM,69.8,50,49,29.63,10,WSW,11.5,-,,,Clear,250,08-06-2016 14:00
534,30,10:00 AM,69.8,48.2,46,29.63,10,WSW,10.4,17.3,,,Clear,250,08-06-2016 14:35
535,31,10:35 AM,69.8,48.2,46,29.62,10,WSW,9.2,27.6,,,Scattered Clouds,250,08-06-2016 14:55
536,32,10:55 AM,69.8,50,49,29.61,10,WSW,12.7,-,,,Mostly Cloudy,250,08-06-2016 15:00
537,33,11:00 AM,68,50,52,29.6,10,West,10.4,16.1,,,Overcast,270,08-06-2016 15:35
538,34,11:35 AM,66.2,50,56,29.6,10,West,9.2,-,,,Overcast,270,08-06-2016 15:55
539,35,11:55 AM,66.2,50,56,29.6,8,SW,6.9,-,,,Overcast,230,08-06-2016 16:00
540,36,12:00 PM,66.2,48.2,52,29.59,9,West,9.2,-,,Thunderstorm,Overcast,260,08-06-2016 16:35
541,37,12:35 PM,64.4,53.6,68,29.6,7,Calm,Calm,-,0.02,Thunderstorm,Thunderstorm,0,08-06-2016 16:55
542,38,12:55 PM,60.8,57.2,88,29.63,4,West,4.6,20.7,0.12,Thunderstorm,Mostly Cloudy,280,08-06-2016 17:00
543,39,1:00 PM,60.8,57.2,88,29.64,5,West,3.5,-,0.12,Thunderstorm,Overcast,270,08-06-2016 17:35
544,40,1:35 PM,59,55.4,88,29.65,5,WNW,3.5,-,0.25,,Overcast,290,08-06-2016 17:55
545,41,1:55 PM,57.2,53.6,88,29.66,6,NW,5.8,-,0.32,Thunderstorm,Thunderstorm,320,08-06-2016 18:00
546,42,2:00 PM,57.2,53.6,88,29.68,9,NW,5.8,-,0.05,,Overcast,310,08-06-2016 18:35
547,43,2:35 PM,55.4,51.8,88,29.67,10,West,4.6,-,0.07,,Overcast,270,08-06-2016 18:55
548,44,2:55 PM,55.4,51.8,88,29.66,10,West,3.5,-,0.09,,Overcast,280,08-06-2016 19:00
549,45,3:00 PM,55.4,51.8,88,29.67,10,WSW,5.8,-,0.01,,Overcast,250,08-06-2016 19:35
550,46,3:35 PM,57.2,51.8,82,29.67,10,WSW,4.6,-,0.01,,Overcast,250,08-06-2016 19:55
551,47,3:55 PM,57.2,53.6,88,29.67,10,West,11.5,19.6,0.01,,Overcast,260,08-06-2016 20:00
552,48,4:00 PM,57.2,53.6,88,29.67,10,West,8.1,31.1,0.01,,Overcast,260,08-06-2016 20:35
553,49,4:35 PM,57.2,53.6,88,29.67,10,West,9.2,17.3,0.01,,Overcast,260,08-06-2016 20:55
554,50,4:55 PM,57.2,51.8,82,29.67,10,West,3.5,-,0.01,,Mostly Cloudy,270,08-06-2016 21:00
555,51,5:00 PM,60.8,51.8,72,29.67,10,NW,4.6,-,,,Clear,320,08-06-2016 21:35
556,52,5:35 PM,60.8,50,68,29.68,10,NNW,3.5,-,,,Clear,330,08-06-2016 21:55
557,53,5:55 PM,62.6,50,63,29.68,10,West,3.5,-,,,Clear,270,08-06-2016 22:00
558,54,6:00 PM,64.4,48.2,56,29.69,10,NW,3.5,-,,,Clear,310,08-06-2016 22:35
559,55,6:35 PM,64.4,48.2,56,29.7,10,Calm,Calm,-,,,Clear,0,08-06-2016 22:55
560,56,6:55 PM,64.4,48.2,56,29.71,10,West,3.5,-,,,Clear,260,08-06-2016 23:00
561,57,7:00 PM,64.4,48.2,56,29.72,10,NNW,4.6,-,,,Clear,330,08-06-2016 23:35
562,58,7:35 PM,64.4,44.6,49,29.72,10,West,3.5,-,,,Clear,280,08-06-2016 23:55
563,59,7:55 PM,64.4,44.6,49,29.73,10,Calm,Calm,-,,,Clear,0,09-06-2016 00:00
564,60,8:00 PM,62.6,44.6,52,29.74,10,Calm,Calm,-,,,Clear,0,09-06-2016 00:35
565,61,8:35 PM,62.6,46.4,55,29.74,10,NNW,3.5,-,,,Scattered Clouds,340,09-06-2016 00:55
566,62,8:55 PM,62.6,46.4,55,29.75,10,Calm,Calm,-,,,Mostly Cloudy,0,09-06-2016 01:00
567,63,9:00 PM,62.6,46.4,55,29.76,10,West,4.6,-,,,Partly Cloudy,280,09-06-2016 01:35
568,64,9:35 PM,62.6,44.6,52,29.76,10,NNE,6.9,-,,,Clear,20,09-06-2016 01:55
569,65,9:55 PM,62.6,46.4,55,29.78,10,Calm,Calm,-,,,Mostly Cloudy,0,09-06-2016 02:00
570,66,10:00 PM,62.6,46.4,55,29.78,10,Calm,Calm,-,,,Overcast,0,09-06-2016 02:35
571,67,10:35 PM,62.6,48.2,59,29.79,9,Calm,Calm,-,,,Overcast,0,09-06-2016 02:55
572,68,10:55 PM,62.6,46.4,55,29.79,10,Calm,Calm,-,,,Overcast,0,09-06-2016 03:00
573,69,11:00 PM,62.6,46.4,55,29.8,10,West,5.8,-,,,Overcast,260,09-06-2016 03:35
574,70,11:35 PM,60.8,46.4,59,29.8,10,Calm,Calm,-,,,Overcast,0,09-06-2016 03:55
575,71,11:55 PM,60.8,46.4,59,29.81,10,WSW,4.6,-,,,Overcast,250,09-06-2016 04:00
576,0,12:00 AM,60.8,46.4,59,29.81,10,NW,3.5,-,,,Overcast,320,09-06-2016 04:35
577,1,12:35 AM,60.8,46.4,59,29.81,10,WSW,4.6,-,,,Overcast,240,09-06-2016 04:55
578,2,12:55 AM,60.8,46.4,59,29.81,10,Calm,Calm,-,,,Overcast,0,09-06-2016 05:00
579,3,1:00 AM,60.8,46.4,59,29.81,10,Calm,Calm,-,,,Overcast,0,09-06-2016 05:35
580,4,1:35 AM,60.8,48.2,63,29.81,10,WSW,3.5,-,,,Overcast,250,09-06-2016 05:55
581,5,1:55 AM,60.8,48.2,63,29.81,10,Calm,Calm,-,,,Mostly Cloudy,0,09-06-2016 06:00
582,6,2:00 AM,60.8,46.4,59,29.81,10,WNW,3.5,-,,,Scattered Clouds,300,09-06-2016 06:35
583,7,2:35 AM,59,46.4,63,29.82,10,WNW,3.5,-,,,Clear,290,09-06-2016 06:55
584,8,2:55 AM,59,46.4,63,29.82,10,West,9.2,-,,,Clear,260,09-06-2016 07:00
585,9,3:00 AM,59,46.4,63,29.82,10,West,5.8,-,,,Clear,260,09-06-2016 07:35
586,10,3:35 AM,57.2,46.4,67,29.81,10,NNW,3.5,-,,,Clear,340,09-06-2016 07:55
587,11,3:55 AM,57.2,46.4,67,29.82,10,WNW,3.5,-,,,Clear,290,09-06-2016 08:00
588,12,4:00 AM,57.2,46.4,67,29.82,10,West,5.8,-,,,Clear,280,09-06-2016 08:35
589,13,4:35 AM,57.2,46.4,67,29.83,10,West,8.1,-,,,Clear,270,09-06-2016 08:55
590,14,4:55 AM,57.2,44.6,63,29.83,10,West,8.1,-,,,Clear,270,09-06-2016 09:00
591,15,5:00 AM,55.4,44.6,67,29.84,10,West,10.4,18.4,,,Clear,270,09-06-2016 09:35
592,16,5:35 AM,55.4,44.6,67,29.84,10,West,5.8,-,,,Clear,270,09-06-2016 09:55
593,17,5:55 AM,55.4,44.6,67,29.84,10,West,10.4,-,,,Clear,260,09-06-2016 10:00
594,18,6:00 AM,55.4,44.6,67,29.84,10,West,8.1,-,,,Clear,260,09-06-2016 10:35
595,19,6:35 AM,55.4,44.6,67,29.84,10,West,4.6,-,,,Clear,280,09-06-2016 10:55
596,20,6:55 AM,55.4,44.6,67,29.84,10,Calm,Calm,-,,,Clear,0,09-06-2016 11:00
597,21,7:00 AM,55.4,44.6,67,29.85,10,Calm,Calm,-,,,Clear,0,09-06-2016 11:35
598,22,7:35 AM,57.2,44.6,63,29.85,10,WNW,3.5,-,,,Clear,290,09-06-2016 11:55
599,23,7:55 AM,57.2,44.6,63,29.86,10,Calm,Calm,-,,,Clear,0,09-06-2016 12:00
600,24,8:00 AM,57.2,44.6,63,29.86,10,West,3.5,-,,,Clear,260,09-06-2016 12:35
601,25,8:35 AM,57.2,42.8,59,29.87,10,WNW,3.5,-,,,Clear,290,09-06-2016 12:55
602,26,8:55 AM,59,44.6,59,29.86,10,West,4.6,-,,,Clear,270,09-06-2016 13:00
603,27,9:00 AM,60.8,42.8,52,29.86,10,West,5.8,-,,,Clear,260,09-06-2016 13:35
604,28,9:35 AM,62.6,42.8,48,29.85,10,North,4.6,-,,,Clear,350,09-06-2016 13:55
605,29,9:55 AM,64.4,42.8,45,29.85,10,West,4.6,-,,,Clear,280,09-06-2016 14:00
606,30,10:00 AM,64.4,42.8,45,29.85,10,West,3.5,-,,,Clear,280,09-06-2016 14:35
607,31,10:35 AM,66.2,42.8,43,29.85,10,SE,4.6,-,,,Clear,140,09-06-2016 14:55
608,32,10:55 AM,66.2,44.6,46,29.85,10,NW,3.5,-,,,Partly Cloudy,310,09-06-2016 15:00
609,33,11:00 AM,68,42.8,40,29.84,10,NNW,4.6,-,,,Clear,330,09-06-2016 15:35
610,34,11:35 AM,69.8,42.8,38,29.84,10,WNW,5.8,18.4,,,Clear,300,09-06-2016 15:55
611,35,11:55 AM,69.8,42.8,38,29.84,10,West,8.1,20.7,,,Clear,270,09-06-2016 16:00
612,36,12:00 PM,69.8,41,35,29.84,10,NW,3.5,19.6,,,Clear,320,09-06-2016 16:35
613,37,12:35 PM,71.6,41,33,29.83,10,NNW,10.4,44.9,,,Clear,330,09-06-2016 16:55
614,38,12:55 PM,71.6,41,33,29.83,10,NW,5.8,16.1,,,Clear,320,09-06-2016 17:00
615,39,1:00 PM,71.6,42.8,35,29.82,10,WNW,6.9,24.2,,,Clear,290,09-06-2016 17:35
616,40,1:35 PM,71.6,41,33,29.82,10,WNW,9.2,-,,,Clear,290,09-06-2016 17:55
617,41,1:55 PM,73.4,39.2,29,29.81,10,WNW,5.8,-,,,Clear,290,09-06-2016 18:00
618,42,2:00 PM,73.4,41,31,29.81,10,WNW,5.8,-,,,Clear,300,09-06-2016 18:35
619,43,2:35 PM,73.4,39.2,29,29.81,10,West,4.6,-,,,Clear,270,09-06-2016 18:55
620,44,2:55 PM,73.4,41,31,29.81,10,WNW,5.8,-,,,Clear,300,09-06-2016 19:00
621,45,3:00 PM,73.4,39.2,29,29.8,10,ESE,4.6,17.3,,,Clear,120,09-06-2016 19:35
622,46,3:35 PM,73.4,39.2,29,29.8,10,NNW,4.6,-,,,Clear,340,09-06-2016 19:55
623,47,3:55 PM,75.2,37.4,25,29.8,10,NNW,5.8,18.4,,,Clear,330,09-06-2016 20:00
624,48,4:00 PM,75.2,37.4,25,29.8,10,WNW,4.6,33.4,,,Clear,300,09-06-2016 20:35
625,49,4:35 PM,75.2,37.4,25,29.8,10,North,4.6,-,,,Clear,360,09-06-2016 20:55
626,50,4:55 PM,75.2,37.4,25,29.8,10,West,8.1,-,,,Clear,270,09-06-2016 21:00
627,51,5:00 PM,75.2,35.6,24,29.8,10,West,6.9,-,,,Clear,280,09-06-2016 21:35
628,52,5:35 PM,75.2,37.4,25,29.8,10,NNW,5.8,36.8,,,Clear,330,09-06-2016 21:55
629,53,5:55 PM,75.2,37.4,25,29.8,10,NW,3.5,-,,,Clear,310,09-06-2016 22:00
630,54,6:00 PM,75.2,37.4,25,29.8,10,Calm,Calm,-,,,Clear,0,09-06-2016 22:35
631,55,6:35 PM,73.4,35.6,25,29.8,10,West,4.6,-,,,Clear,270,09-06-2016 22:55
632,56,6:55 PM,71.6,37.4,29,29.8,10,WNW,3.5,-,,,Clear,300,09-06-2016 23:00
633,57,7:00 PM,71.6,35.6,27,29.81,10,NNW,3.5,-,,,Clear,330,09-06-2016 23:35
634,58,7:35 PM,71.6,37.4,29,29.82,10,NNW,5.8,-,,,Clear,340,09-06-2016 23:55
635,59,7:55 PM,69.8,37.4,31,29.83,10,NW,3.5,-,,,Clear,310,10-06-2016 00:00
636,60,8:00 PM,69.8,37.4,31,29.83,10,Calm,Calm,-,,,Clear,0,10-06-2016 00:35
637,61,8:35 PM,69.8,37.4,31,29.84,10,WNW,3.5,-,,,Clear,290,10-06-2016 00:55
638,62,8:55 PM,69.8,39.2,33,29.85,10,North,4.6,-,,,Clear,350,10-06-2016 01:00
639,63,9:00 PM,69.8,37.4,31,29.86,10,North,4.6,-,,,Clear,360,10-06-2016 01:35
640,64,9:35 PM,68,39.2,35,29.87,10,Calm,Calm,-,,,Clear,0,10-06-2016 01:55
641,65,9:55 PM,68,39.2,35,29.88,10,Calm,Calm,-,,,Clear,0,10-06-2016 02:00
642,66,10:00 PM,66.2,39.2,37,29.89,10,Calm,Calm,-,,,Clear,0,10-06-2016 02:35
643,67,10:35 PM,66.2,39.2,37,29.9,10,WNW,3.5,-,,,Clear,290,10-06-2016 02:55
644,68,10:55 PM,66.2,37.4,35,29.91,10,Calm,Calm,-,,,Clear,0,10-06-2016 03:00
645,69,11:00 PM,66.2,39.2,37,29.92,10,Calm,Calm,-,,,Clear,0,10-06-2016 03:35
646,70,11:35 PM,66.2,39.2,37,29.92,10,Calm,Calm,-,,,Clear,0,10-06-2016 03:55
647,71,11:55 PM,64.4,37.4,37,29.93,10,Calm,Calm,-,,,Clear,0,10-06-2016 04:00
648,0,12:00 AM,64.4,37.4,37,29.93,10,Calm,Calm,-,,,Clear,0,10-06-2016 04:35
649,1,12:35 AM,64.4,37.4,37,29.93,10,Calm,Calm,-,,,Partly Cloudy,0,10-06-2016 04:55
650,2,12:55 AM,64.4,37.4,37,29.94,10,Calm,Calm,-,,,Partly Cloudy,0,10-06-2016 05:00
651,3,1:00 AM,64.4,37.4,37,29.93,10,West,3.5,-,,,Scattered Clouds,270,10-06-2016 05:35
652,4,1:35 AM,62.6,39.2,42,29.93,10,Calm,Calm,-,,,Scattered Clouds,0,10-06-2016 05:55
653,5,1:55 AM,62.6,39.2,42,29.93,10,Calm,Calm,-,,,Scattered Clouds,0,10-06-2016 06:00
654,6,2:00 AM,62.6,37.4,39,29.93,10,Calm,Calm,-,,,Partly Cloudy,0,10-06-2016 06:35
655,7,2:35 AM,62.6,42.8,48,29.93,10,Calm,Calm,-,,,Clear,0,10-06-2016 06:55
656,8,2:55 AM,62.6,39.2,42,29.93,10,Calm,Calm,-,,,Clear,0,10-06-2016 07:00
657,9,3:00 AM,62.6,41,45,29.94,10,NNW,5.8,-,,,Clear,340,10-06-2016 07:35
658,10,3:35 AM,62.6,39.2,42,29.94,10,Calm,Calm,-,,,Clear,0,10-06-2016 07:55
659,11,3:55 AM,62.6,41,45,29.95,10,Calm,Calm,-,,,Clear,0,10-06-2016 08:00
660,12,4:00 AM,60.8,41,48,29.95,10,NNW,5.8,-,,,Clear,340,10-06-2016 08:35
661,13,4:35 AM,60.8,39.2,45,29.96,10,Calm,Calm,-,,,Clear,0,10-06-2016 08:55
662,14,4:55 AM,60.8,39.2,45,29.96,10,Calm,Calm,-,,,Clear,0,10-06-2016 09:00
663,15,5:00 AM,60.8,41,48,29.97,10,Calm,Calm,-,,,Clear,0,10-06-2016 09:35
664,16,5:35 AM,60.8,41,48,29.97,10,WSW,5.8,-,,,Clear,240,10-06-2016 09:55
665,17,5:55 AM,60.8,41,48,29.98,10,WSW,4.6,-,,,Clear,250,10-06-2016 10:00
666,18,6:00 AM,59,39.2,48,29.99,10,Calm,Calm,-,,,Clear,0,10-06-2016 10:35
667,19,6:35 AM,59,39.2,48,29.99,10,West,4.6,-,,,Clear,260,10-06-2016 10:55
668,20,6:55 AM,59,39.2,48,29.99,10,West,4.6,-,,,Clear,260,10-06-2016 11:00
669,21,7:00 AM,59,39.2,48,29.99,10,West,5.8,-,,,Clear,260,10-06-2016 11:35
670,22,7:35 AM,60.8,39.2,45,29.99,10,West,4.6,-,,,Clear,260,10-06-2016 11:55
671,23,7:55 AM,60.8,39.2,45,29.99,10,West,4.6,-,,,Clear,260,10-06-2016 12:00
672,24,8:00 AM,60.8,39.2,45,29.99,10,Calm,Calm,-,,,Clear,0,10-06-2016 12:35
673,25,8:35 AM,60.8,39.2,45,29.99,10,Calm,Calm,-,,,Clear,0,10-06-2016 12:55
674,26,8:55 AM,62.6,39.2,42,30,10,West,4.6,-,,,Clear,280,10-06-2016 13:00
675,27,9:00 AM,64.4,39.2,40,30,10,Calm,Calm,-,,,Clear,0,10-06-2016 13:35
676,28,9:35 AM,66.2,39.2,37,30,10,Calm,Calm,-,,,Clear,0,10-06-2016 13:55
677,29,9:55 AM,69.8,39.2,33,30.01,10,WNW,3.5,-,,,Clear,290,10-06-2016 14:00
678,30,10:00 AM,69.8,35.6,28,30.01,10,West,6.9,-,,,Clear,270,10-06-2016 14:35
679,31,10:35 AM,71.6,37.4,29,30.01,10,South,3.5,-,,,Clear,180,10-06-2016 14:55
680,32,10:55 AM,71.6,35.6,27,30.02,10,West,3.5,-,,,Clear,280,10-06-2016 15:00
681,33,11:00 AM,71.6,35.6,27,30.02,10,West,5.8,-,,,Clear,260,10-06-2016 15:35
682,34,11:35 AM,71.6,39.2,31,30.02,10,West,4.6,43.7,,,Clear,260,10-06-2016 15:55
683,35,11:55 AM,73.4,39.2,29,30.02,10,West,5.8,-,,,Clear,280,10-06-2016 16:00
684,36,12:00 PM,73.4,37.4,27,30.02,10,West,4.6,-,,,Clear,280,10-06-2016 16:35
685,37,12:35 PM,73.4,37.4,27,30.01,10,South,3.5,-,,,Clear,170,10-06-2016 16:55
686,38,12:55 PM,73.4,37.4,27,30.01,10,SSW,3.5,-,,,Clear,200,10-06-2016 17:00
687,39,1:00 PM,75.2,37.4,25,30,9,Calm,Calm,-,,,Clear,0,10-06-2016 17:35
688,40,1:35 PM,75.2,37.4,25,30,10,SW,9.2,25.3,,,Clear,230,10-06-2016 17:55
689,41,1:55 PM,75.2,37.4,25,29.99,10,West,5.8,-,,,Clear,280,10-06-2016 18:00
690,42,2:00 PM,77,39.2,26,29.99,7,West,6.9,18.4,,,Clear,270,10-06-2016 18:35
691,43,2:35 PM,78.8,37.4,23,29.99,10,NW,4.6,19.6,,,Clear,310,10-06-2016 18:55
692,44,2:55 PM,78.8,37.4,23,29.99,10,WNW,15,61,,,Clear,300,10-06-2016 19:00
693,45,3:00 PM,78.8,37.4,23,29.99,9,WSW,10.4,46,,,Clear,250,10-06-2016 19:35
694,46,3:35 PM,78.8,39.2,24,29.98,10,ENE,3.5,16.1,,,Clear,70,10-06-2016 19:55
695,47,3:55 PM,78.8,37.4,23,29.98,10,West,6.9,-,,,Clear,260,10-06-2016 20:00
696,48,4:00 PM,78.8,39.2,24,29.97,10,Calm,Calm,-,,,Clear,0,10-06-2016 20:35
697,49,4:35 PM,80.6,37.4,21,29.97,10,Calm,Calm,-,,,Clear,0,10-06-2016 20:55
698,50,4:55 PM,80.6,41,24,29.97,10,North,4.6,-,,,Clear,360,10-06-2016 21:00
699,51,5:00 PM,80.6,39.2,23,29.97,10,West,9.2,-,,,Clear,270,10-06-2016 21:35
700,52,5:35 PM,80.6,37.4,21,29.98,10,Calm,Calm,-,,,Clear,0,10-06-2016 21:55
701,53,5:55 PM,80.6,37.4,21,29.98,10,Calm,Calm,-,,,Clear,0,10-06-2016 22:00
702,54,6:00 PM,80.6,37.4,21,29.98,10,Calm,Calm,-,,,Clear,0,10-06-2016 22:35
703,55,6:35 PM,78.8,35.6,21,29.99,10,West,3.5,-,,,Clear,260,10-06-2016 22:55
704,56,6:55 PM,77,39.2,26,29.99,10,West,3.5,-,,,Clear,270,10-06-2016 23:00
705,57,7:00 PM,75.2,37.4,25,30,10,Calm,Calm,-,,,Clear,0,10-06-2016 23:35
706,58,7:35 PM,75.2,39.2,27,30,10,Calm,Calm,-,,,Clear,0,10-06-2016 23:55
707,59,7:55 PM,75.2,39.2,27,30,10,Calm,Calm,-,,,Clear,0,11-06-2016 00:00
708,60,8:00 PM,73.4,37.4,27,30.01,10,West,3.5,-,,,Clear,280,11-06-2016 00:35
709,61,8:35 PM,73.4,39.2,29,30.01,10,Calm,Calm,-,,,Clear,0,11-06-2016 00:55
710,62,8:55 PM,73.4,39.2,29,30.01,10,Calm,Calm,-,,,Clear,0,11-06-2016 01:00
711,63,9:00 PM,73.4,39.2,29,30.02,10,Calm,Calm,-,,,Clear,0,11-06-2016 01:35
712,64,9:35 PM,71.6,39.2,31,30.02,10,Calm,Calm,-,,,Clear,0,11-06-2016 01:55
713,65,9:55 PM,71.6,41,33,30.03,10,Calm,Calm,-,,,Clear,0,11-06-2016 02:00
714,66,10:00 PM,71.6,39.2,31,30.03,10,Calm,Calm,-,,,Clear,0,11-06-2016 02:35
715,67,10:35 PM,71.6,41,33,30.03,10,Calm,Calm,-,,,Clear,0,11-06-2016 02:55
716,68,10:55 PM,71.6,39.2,31,30.04,10,Calm,Calm,-,,,Clear,0,11-06-2016 03:00
717,69,11:00 PM,69.8,41,35,30.04,10,Calm,Calm,-,,,Clear,0,11-06-2016 03:35
718,70,11:35 PM,69.8,39.2,33,30.04,10,Calm,Calm,-,,,Clear,0,11-06-2016 03:55
719,71,11:55 PM,69.8,44.6,40,30.04,10,ENE,5.8,-,,,Clear,60,11-06-2016 04:00
720,0,12:00 AM,69.8,44.6,40,30.04,10,NE,3.5,-,,,Clear,40,11-06-2016 04:35
721,1,12:35 AM,69.8,39.2,33,30.04,10,ENE,3.5,-,,,Clear,70,11-06-2016 04:55
722,2,12:55 AM,68,46.4,46,30.05,10,ENE,5.8,-,,,Clear,60,11-06-2016 05:00
723,3,1:00 AM,68,42.8,40,30.04,10,West,3.5,-,,,Clear,270,11-06-2016 05:35
724,4,1:35 AM,66.2,46.4,49,30.05,10,West,5.8,-,,,Clear,270,11-06-2016 05:55
725,5,1:55 AM,66.2,44.6,46,30.05,10,West,4.6,-,,,Clear,280,11-06-2016 06:00
726,6,2:00 AM,64.4,46.4,52,30.04,10,WSW,4.6,-,,,Clear,240,11-06-2016 06:35
727,7,2:35 AM,64.4,51.8,64,30.04,10,West,3.5,-,,,Clear,260,11-06-2016 06:55
728,8,2:55 AM,64.4,53.6,68,30.04,10,West,4.6,-,,,Clear,270,11-06-2016 07:00
729,9,3:00 AM,64.4,48.2,56,30.05,10,West,5.8,-,,,Clear,260,11-06-2016 07:35
730,10,3:35 AM,64.4,48.2,56,30.05,10,West,5.8,-,,,Clear,280,11-06-2016 07:55
731,11,3:55 AM,62.6,48.2,59,30.05,10,SW,3.5,-,,,Clear,230,11-06-2016 08:00
732,12,4:00 AM,62.6,48.2,59,30.04,10,WSW,3.5,-,,,Clear,250,11-06-2016 08:35
733,13,4:35 AM,62.6,48.2,59,30.04,10,West,4.6,-,,,Clear,260,11-06-2016 08:55
734,14,4:55 AM,62.6,48.2,59,30.04,10,West,4.6,-,,,Clear,280,11-06-2016 09:00
735,15,5:00 AM,62.6,50,63,30.04,10,West,5.8,-,,,Clear,260,11-06-2016 09:35
736,16,5:35 AM,62.6,48.2,59,30.04,10,West,4.6,-,,,Clear,280,11-06-2016 09:55
737,17,5:55 AM,62.6,48.2,59,30.03,10,SW,3.5,-,,,Clear,220,11-06-2016 10:00
738,18,6:00 AM,62.6,46.4,55,30.02,10,West,4.6,-,,,Clear,260,11-06-2016 10:35
739,19,6:35 AM,62.6,48.2,59,30.02,10,Calm,Calm,-,,,Clear,0,11-06-2016 10:55
740,20,6:55 AM,62.6,48.2,59,30.01,10,WSW,3.5,-,,,Clear,240,11-06-2016 11:00
741,21,7:00 AM,64.4,44.6,49,30.02,10,WSW,4.6,-,,,Mostly Cloudy,240,11-06-2016 11:35
742,22,7:35 AM,64.4,44.6,49,30.02,10,WSW,3.5,-,,,Mostly Cloudy,240,11-06-2016 11:55
743,23,7:55 AM,66.2,42.8,43,30.01,10,West,3.5,-,,,Mostly Cloudy,280,11-06-2016 12:00
744,24,8:00 AM,66.2,44.6,46,30,10,West,3.5,-,,,Partly Cloudy,270,11-06-2016 12:35
745,25,8:35 AM,68,44.6,43,30,10,WNW,3.5,-,,,Clear,290,11-06-2016 12:55
746,26,8:55 AM,69.8,46.4,43,29.99,10,SW,3.5,-,,,Clear,230,11-06-2016 13:00
747,27,9:00 AM,71.6,48.2,43,29.99,10,WSW,8.1,-,,,Clear,240,11-06-2016 13:35
748,28,9:35 AM,71.6,50,46,29.97,10,SW,6.9,-,,,Clear,230,11-06-2016 13:55
749,29,9:55 AM,71.6,53.6,53,29.97,10,SW,6.9,-,,,Partly Cloudy,220,11-06-2016 14:00
750,30,10:00 AM,73.4,51.8,47,29.95,10,SW,4.6,17.3,,,Partly Cloudy,220,11-06-2016 14:35
751,31,10:35 AM,75.2,51.8,44,29.94,10,WSW,6.9,-,,,Clear,250,11-06-2016 14:55
752,32,10:55 AM,75.2,53.6,47,29.94,10,West,9.2,-,,,Clear,260,11-06-2016 15:00
753,33,11:00 AM,75.2,55.4,50,29.92,10,WSW,5.8,-,,,Clear,250,11-06-2016 15:35
754,34,11:35 AM,78.8,57.2,47,29.9,10,SSW,5.8,-,,,Partly Cloudy,210,11-06-2016 15:55
755,35,11:55 AM,78.8,57.2,47,29.88,9,SSW,9.2,-,,,Mostly Cloudy,210,11-06-2016 16:00
756,36,12:00 PM,78.8,57.2,47,29.87,9,SW,8.1,-,,,Partly Cloudy,230,11-06-2016 16:35
757,37,12:35 PM,78.8,60.8,54,29.86,9,WSW,8.1,18.4,,,Clear,240,11-06-2016 16:55
758,38,12:55 PM,78.8,60.8,54,29.85,10,WSW,9.2,25.3,,,Partly Cloudy,240,11-06-2016 17:00
759,39,1:00 PM,78.8,62.6,57,29.83,10,West,10.4,19.6,,,Mostly Cloudy,270,11-06-2016 17:35
760,40,1:35 PM,78.8,62.6,57,29.82,10,West,11.5,19.6,,,Mostly Cloudy,260,11-06-2016 17:55
761,41,1:55 PM,80.6,64.4,58,29.82,10,West,12.7,-,,,Partly Cloudy,270,11-06-2016 18:00
762,42,2:00 PM,82.4,64.4,54,29.81,10,West,13.8,28.8,,,Partly Cloudy,270,11-06-2016 18:35
763,43,2:35 PM,80.6,64.4,58,29.8,10,West,11.5,20.7,,,Scattered Clouds,270,11-06-2016 18:55
764,44,2:55 PM,82.4,64.4,54,29.79,10,West,10.4,24.2,,,Scattered Clouds,270,11-06-2016 19:00
765,45,3:00 PM,82.4,64.4,54,29.79,10,West,11.5,-,,,Scattered Clouds,270,11-06-2016 19:35
766,46,3:35 PM,84.2,64.4,51,29.78,10,West,16.1,24.2,,,Partly Cloudy,270,11-06-2016 19:55
767,47,3:55 PM,84.2,64.4,51,29.78,10,West,13.8,19.6,,,Scattered Clouds,270,11-06-2016 20:00
768,48,4:00 PM,84.2,64.4,51,29.76,10,West,12.7,16.1,,,Mostly Cloudy,280,11-06-2016 20:55
769,49,4:55 PM,87.8,64.4,46,29.74,10,West,12.7,19.6,,,Clear,270,11-06-2016 21:00
770,50,5:00 PM,87.8,64.4,46,29.73,10,West,12.7,24.2,,,Clear,270,11-06-2016 21:35
771,51,5:35 PM,87.8,64.4,46,29.72,10,West,12.7,-,,,Mostly Cloudy,270,11-06-2016 21:55
772,52,5:55 PM,87.8,64.4,46,29.71,10,West,12.7,-,,,Mostly Cloudy,270,11-06-2016 22:00
773,53,6:00 PM,87.8,64.4,46,29.71,10,West,17.3,25.3,,,Mostly Cloudy,280,11-06-2016 22:35
774,54,6:35 PM,87.8,66.2,49,29.71,10,West,13.8,23,,,Scattered Clouds,270,11-06-2016 22:55
775,55,6:55 PM,87.8,66.2,49,29.71,10,West,11.5,-,,,Clear,270,11-06-2016 23:00
776,56,7:00 PM,86,66.2,51,29.71,10,West,12.7,-,,,Clear,270,11-06-2016 23:35
777,57,7:35 PM,86,66.2,51,29.71,10,West,13.8,-,,,Mostly Cloudy,280,11-06-2016 23:55
778,58,7:55 PM,86,66.2,51,29.71,10,West,12.7,-,,,Mostly Cloudy,280,12-06-2016 00:00
779,59,8:00 PM,86,66.2,51,29.71,10,West,10.4,16.1,,,Clear,270,12-06-2016 00:35
780,60,8:35 PM,86,66.2,51,29.71,10,West,8.1,-,,,Mostly Cloudy,270,12-06-2016 00:55
781,61,8:55 PM,84.2,66.2,55,29.71,10,West,8.1,-,,,Mostly Cloudy,270,12-06-2016 01:00
782,62,9:00 PM,84.2,66.2,55,29.71,10,West,4.6,-,,,Mostly Cloudy,280,12-06-2016 01:35
783,63,9:35 PM,84.2,66.2,55,29.71,10,West,5.8,-,,,Scattered Clouds,270,12-06-2016 01:55
784,64,9:55 PM,84.2,64.4,51,29.72,10,West,9.2,-,,,Scattered Clouds,270,12-06-2016 02:00
785,65,10:00 PM,84.2,66.2,55,29.72,10,West,8.1,-,,,Scattered Clouds,270,12-06-2016 02:35
786,66,10:35 PM,84.2,66.2,55,29.73,10,WNW,3.5,-,,,Clear,290,12-06-2016 02:55
787,67,10:55 PM,82.4,66.2,58,29.73,10,NNW,3.5,-,,,Clear,340,12-06-2016 03:00
788,68,11:00 PM,84.2,66.2,55,29.73,10,Calm,Calm,-,,,Mostly Cloudy,0,12-06-2016 03:35
789,69,11:35 PM,82.4,66.2,58,29.73,10,West,4.6,-,,,Scattered Clouds,260,12-06-2016 03:55
790,70,11:55 PM,82.4,66.2,58,29.73,10,West,3.5,-,,,Scattered Clouds,270,12-06-2016 04:00
791,0,12:00 AM,82.4,66.2,58,29.74,10,West,4.6,-,,,Scattered Clouds,260,12-06-2016 04:35
792,1,12:35 AM,82.4,66.2,58,29.73,10,West,4.6,-,,,Partly Cloudy,270,12-06-2016 04:55
793,2,12:55 AM,80.6,66.2,61,29.73,10,West,5.8,-,,,Clear,260,12-06-2016 05:00
794,3,1:00 AM,80.6,66.2,61,29.72,10,West,4.6,-,,,Clear,270,12-06-2016 05:35
795,4,1:35 AM,80.6,66.2,61,29.72,10,West,6.9,-,,,Clear,270,12-06-2016 05:55
796,5,1:55 AM,80.6,64.4,58,29.71,10,SW,6.9,-,,,Clear,220,12-06-2016 06:00
797,6,2:00 AM,78.8,64.4,61,29.7,10,WSW,4.6,-,,,Clear,250,12-06-2016 06:35
798,7,2:35 AM,78.8,66.2,65,29.7,10,WSW,5.8,-,,,Clear,250,12-06-2016 06:55
799,8,2:55 AM,78.8,66.2,65,29.69,10,West,6.9,-,,,Clear,280,12-06-2016 07:00
800,9,3:00 AM,78.8,66.2,65,29.68,10,West,5.8,-,,,Clear,270,12-06-2016 07:35
801,10,3:35 AM,78.8,66.2,65,29.67,10,West,9.2,-,,,Clear,280,12-06-2016 07:55
802,11,3:55 AM,78.8,66.2,65,29.67,10,West,10.4,-,,,Clear,280,12-06-2016 08:00
803,12,4:00 AM,78.8,66.2,65,29.66,10,West,9.2,-,,,Clear,270,12-06-2016 08:35
804,13,4:35 AM,78.8,66.2,65,29.65,10,West,8.1,-,,,Clear,270,12-06-2016 08:55
805,14,4:55 AM,77,66.2,69,29.65,10,West,10.4,-,,,Clear,270,12-06-2016 09:00
806,15,5:00 AM,77,66.2,69,29.65,10,West,11.5,-,,,Clear,280,12-06-2016 09:35
807,16,5:35 AM,77,66.2,69,29.65,10,West,11.5,18.4,,,Clear,270,12-06-2016 09:55
808,17,5:55 AM,78.8,66.2,65,29.65,10,West,10.4,18.4,,,Clear,270,12-06-2016 10:00
809,18,6:00 AM,77,66.2,69,29.65,10,West,10.4,16.1,,,Clear,270,12-06-2016 10:35
810,19,6:35 AM,77,66.2,69,29.65,10,West,9.2,16.1,,,Clear,260,12-06-2016 10:55
811,20,6:55 AM,78.8,66.2,65,29.65,10,West,10.4,21.9,,,Clear,270,12-06-2016 11:00
812,21,7:00 AM,78.8,66.2,65,29.65,10,West,9.2,18.4,,,Clear,270,12-06-2016 11:35
813,22,7:35 AM,78.8,66.2,65,29.65,10,West,11.5,19.6,,,Clear,270,12-06-2016 11:55
814,23,7:55 AM,78.8,66.2,65,29.65,10,West,11.5,20.7,,,Clear,270,12-06-2016 12:00
815,24,8:00 AM,80.6,66.2,61,29.64,10,West,12.7,21.9,,,Clear,270,12-06-2016 12:35
816,25,8:35 AM,80.6,64.4,58,29.63,10,West,16.1,24.2,,,Clear,270,12-06-2016 12:55
817,26,8:55 AM,80.6,64.4,58,29.62,10,West,17.3,26.5,,,Partly Cloudy,270,12-06-2016 13:00
818,27,9:00 AM,82.4,62.6,51,29.62,10,West,5.8,20.7,,,Mostly Cloudy,280,12-06-2016 13:35
819,28,9:35 AM,82.4,59,45,29.62,10,Calm,Calm,-,,,Mostly Cloudy,0,12-06-2016 13:55
820,29,9:55 AM,84.2,57.2,40,29.62,10,WNW,5.8,-,,,Partly Cloudy,290,12-06-2016 14:00
821,30,10:00 AM,84.2,51.8,33,29.62,10,NW,5.8,-,,,Clear,310,12-06-2016 14:35
822,31,10:35 AM,86,50,29,29.62,10,North,4.6,-,,,Clear,350,12-06-2016 14:55
823,32,10:55 AM,86,46.4,25,29.62,10,NW,4.6,-,,,Clear,320,12-06-2016 15:00
824,33,11:00 AM,86,35.6,17,29.62,10,NNW,4.6,-,,,Clear,330,12-06-2016 15:35
825,34,11:35 AM,87.8,37.4,17,29.62,10,NNW,6.9,-,,,Clear,330,12-06-2016 15:55
826,35,11:55 AM,86,39.2,19,29.62,10,North,4.6,-,,,Clear,360,12-06-2016 16:00
827,36,12:00 PM,86,39.2,19,29.63,10,West,5.8,-,,,Clear,260,12-06-2016 16:35
828,37,12:35 PM,84.2,41,22,29.62,10,NW,4.6,18.4,,,Clear,310,12-06-2016 16:55
829,38,12:55 PM,84.2,42.8,23,29.62,10,NNW,3.5,-,,,Clear,330,12-06-2016 17:00
830,39,1:00 PM,84.2,41,22,29.61,10,Calm,Calm,-,,,Clear,0,12-06-2016 17:35
831,40,1:35 PM,84.2,39.2,20,29.61,10,West,6.9,-,,,Clear,270,12-06-2016 17:55
832,41,1:55 PM,84.2,42.8,23,29.61,10,Calm,Calm,-,,,Clear,0,12-06-2016 18:00
833,42,2:00 PM,84.2,42.8,23,29.62,10,WNW,3.5,-,,,Clear,290,12-06-2016 18:35
834,43,2:35 PM,84.2,42.8,23,29.63,10,North,6.9,42.6,,,Clear,360,12-06-2016 18:55
835,44,2:55 PM,84.2,46.4,27,29.62,10,WSW,3.5,-,,,Clear,240,12-06-2016 19:00
836,45,3:00 PM,84.2,44.6,25,29.63,10,NW,3.5,-,,,Clear,310,12-06-2016 19:35
837,46,3:35 PM,84.2,46.4,27,29.64,10,NW,3.5,-,,,Clear,320,12-06-2016 19:55
838,47,3:55 PM,82.4,44.6,26,29.65,10,NNW,6.9,-,,,Clear,330,12-06-2016 20:00
839,48,4:00 PM,82.4,46.4,28,29.66,10,WNW,3.5,-,,,Clear,290,12-06-2016 20:35
840,49,4:35 PM,82.4,46.4,28,29.66,10,WSW,3.5,-,,,Clear,250,12-06-2016 20:55
841,50,4:55 PM,82.4,46.4,28,29.67,10,WSW,4.6,-,,,Partly Cloudy,250,12-06-2016 21:00
842,51,5:00 PM,80.6,46.4,30,29.67,10,Calm,Calm,-,,,Mostly Cloudy,0,12-06-2016 21:35
843,52,5:35 PM,80.6,48.2,32,29.68,10,SSE,3.5,-,,,Partly Cloudy,150,12-06-2016 21:55
844,53,5:55 PM,80.6,46.4,30,29.69,10,SW,3.5,-,,,Clear,230,12-06-2016 22:00
845,54,6:00 PM,78.8,46.4,32,29.71,10,South,5.8,-,,,Clear,170,12-06-2016 22:35
846,55,6:35 PM,77,46.4,34,29.72,10,Calm,Calm,-,,,Clear,0,12-06-2016 22:55
847,56,6:55 PM,75.2,48.2,38,29.73,10,ESE,5.8,-,,,Clear,110,12-06-2016 23:00
848,57,7:00 PM,73.4,48.2,41,29.74,10,Calm,Calm,-,,,Clear,0,12-06-2016 23:35
849,58,7:35 PM,71.6,46.4,41,29.74,10,South,3.5,-,,,Partly Cloudy,180,12-06-2016 23:55
850,59,7:55 PM,71.6,46.4,41,29.75,10,SE,4.6,-,,,Partly Cloudy,130,13-06-2016 00:00
851,60,8:00 PM,69.8,46.4,43,29.75,10,South,3.5,-,,,Clear,170,13-06-2016 00:35
852,61,8:35 PM,69.8,46.4,43,29.75,10,East,4.6,-,,,Clear,80,13-06-2016 00:55
853,62,8:55 PM,68,46.4,46,29.77,10,Calm,Calm,-,,,Clear,0,13-06-2016 01:00
854,63,9:00 PM,68,46.4,46,29.77,10,SSE,6.9,-,,,Clear,150,13-06-2016 01:35
855,64,9:35 PM,68,48.2,49,29.78,10,ESE,5.8,-,,,Partly Cloudy,120,13-06-2016 01:55
856,65,9:55 PM,66.2,46.4,49,29.78,10,SSW,3.5,-,,,Scattered Clouds,200,13-06-2016 02:00
857,66,10:00 PM,66.2,46.4,49,29.79,10,SW,4.6,-,,,Mostly Cloudy,220,13-06-2016 02:35
858,67,10:35 PM,66.2,46.4,49,29.79,10,South,6.9,-,,,Scattered Clouds,180,13-06-2016 02:55
859,68,10:55 PM,64.4,48.2,56,29.8,10,NNE,3.5,-,,,Clear,30,13-06-2016 03:00
860,69,11:00 PM,64.4,46.4,52,29.8,10,West,3.5,-,,,Scattered Clouds,260,13-06-2016 03:35
861,70,11:35 PM,64.4,46.4,52,29.81,10,Calm,Calm,-,,,Scattered Clouds,0,13-06-2016 03:55
862,71,11:55 PM,64.4,48.2,56,29.8,10,SSE,3.5,-,,,Mostly Cloudy,160,13-06-2016 04:00
863,0,12:00 AM,64.4,48.2,56,29.8,10,West,3.5,-,,,Mostly Cloudy,280,13-06-2016 04:35
864,1,12:35 AM,64.4,48.2,56,29.8,10,NNW,4.6,-,,,Mostly Cloudy,330,13-06-2016 04:55
865,2,12:55 AM,64.4,48.2,56,29.8,10,West,4.6,-,,,Mostly Cloudy,270,13-06-2016 05:00
866,3,1:00 AM,64.4,48.2,56,29.8,10,West,4.6,-,,,Mostly Cloudy,270,13-06-2016 05:35
867,4,1:35 AM,64.4,48.2,56,29.8,10,SW,3.5,-,,,Partly Cloudy,220,13-06-2016 05:55
868,5,1:55 AM,62.6,48.2,59,29.8,10,Calm,Calm,-,,,Clear,0,13-06-2016 06:00
869,6,2:00 AM,62.6,48.2,59,29.8,10,West,3.5,-,,,Clear,270,13-06-2016 06:35
870,7,2:35 AM,62.6,46.4,55,29.81,10,NW,4.6,-,,,Clear,310,13-06-2016 06:55
871,8,2:55 AM,62.6,46.4,55,29.81,10,Calm,Calm,-,,,Scattered Clouds,0,13-06-2016 07:00
872,9,3:00 AM,60.8,46.4,59,29.81,10,NW,4.6,-,,,Scattered Clouds,310,13-06-2016 07:35
873,10,3:35 AM,60.8,46.4,59,29.82,10,Calm,Calm,-,,,Scattered Clouds,0,13-06-2016 07:55
874,11,3:55 AM,60.8,46.4,59,29.82,10,North,3.5,-,,,Scattered Clouds,350,13-06-2016 08:00
875,12,4:00 AM,60.8,46.4,59,29.82,10,Calm,Calm,-,,,Partly Cloudy,0,13-06-2016 08:35
876,13,4:35 AM,60.8,48.2,63,29.83,10,WNW,3.5,-,,,Partly Cloudy,300,13-06-2016 08:55
877,14,4:55 AM,60.8,46.4,59,29.83,10,Calm,Calm,-,,,Partly Cloudy,0,13-06-2016 09:00
878,15,5:00 AM,60.8,46.4,59,29.84,10,Calm,Calm,-,,,Clear,0,13-06-2016 09:35
879,16,5:35 AM,59,46.4,63,29.85,10,West,4.6,-,,,Partly Cloudy,260,13-06-2016 09:55
880,17,5:55 AM,60.8,48.2,63,29.86,10,SW,3.5,-,,,Scattered Clouds,220,13-06-2016 10:00
881,18,6:00 AM,60.8,48.2,63,29.86,10,North,3.5,-,,,Scattered Clouds,10,13-06-2016 10:35
882,19,6:35 AM,59,46.4,63,29.86,10,Calm,Calm,-,,,Scattered Clouds,0,13-06-2016 10:55
883,20,6:55 AM,60.8,48.2,63,29.86,10,Calm,Calm,-,,,Partly Cloudy,0,13-06-2016 11:00
884,21,7:00 AM,60.8,48.2,63,29.85,10,South,4.6,39.1,,,Partly Cloudy,190,13-06-2016 11:35
885,22,7:35 AM,60.8,46.4,59,29.86,10,NW,6.9,55.2,,,Partly Cloudy,320,13-06-2016 11:55
886,23,7:55 AM,60.8,48.2,63,29.86,10,NE,3.5,-,,,Clear,50,13-06-2016 12:00
887,24,8:00 AM,60.8,46.4,59,29.87,10,SSW,5.8,-,,,Partly Cloudy,200,13-06-2016 12:35
888,25,8:35 AM,62.6,48.2,59,29.88,10,SW,4.6,-,,,Clear,220,13-06-2016 12:55
889,26,8:55 AM,62.6,48.2,59,29.88,10,WNW,3.5,-,,,Clear,290,13-06-2016 13:00
890,27,9:00 AM,64.4,48.2,56,29.89,10,WSW,4.6,-,,,Clear,240,13-06-2016 13:35
891,28,9:35 AM,64.4,48.2,56,29.89,10,WSW,4.6,-,,,Partly Cloudy,240,13-06-2016 13:55
892,29,9:55 AM,66.2,48.2,52,29.89,10,WSW,6.9,-,,,Clear,240,13-06-2016 14:00
893,30,10:00 AM,69.8,48.2,46,29.88,10,WNW,3.5,-,,,Clear,290,13-06-2016 14:35
894,31,10:35 AM,69.8,48.2,46,29.88,10,West,4.6,-,,,Clear,270,13-06-2016 14:55
895,32,10:55 AM,69.8,48.2,46,29.87,10,NW,3.5,-,,,Clear,310,13-06-2016 15:00
896,33,11:00 AM,71.6,48.2,43,29.87,10,West,5.8,-,,,Clear,280,13-06-2016 15:35
897,34,11:35 AM,71.6,48.2,43,29.86,10,West,6.9,-,,,Clear,280,13-06-2016 15:55
898,35,11:55 AM,71.6,48.2,43,29.85,10,Calm,Calm,-,,,Clear,0,13-06-2016 16:00
899,36,12:00 PM,71.6,48.2,43,29.84,10,SSE,4.6,-,,,Clear,160,13-06-2016 16:35
900,37,12:35 PM,73.4,48.2,41,29.84,10,West,5.8,-,,,Clear,270,13-06-2016 16:55
901,38,12:55 PM,73.4,48.2,41,29.84,10,WNW,6.9,-,,,Clear,290,13-06-2016 17:00
902,39,1:00 PM,75.2,48.2,38,29.83,10,SW,3.5,-,,,Clear,220,13-06-2016 17:35
903,40,1:35 PM,75.2,48.2,38,29.83,10,NW,4.6,-,,,Clear,310,13-06-2016 17:55
904,41,1:55 PM,75.2,48.2,38,29.82,10,West,5.8,-,,,Clear,260,13-06-2016 18:00
905,42,2:00 PM,75.2,48.2,38,29.81,10,SW,4.6,-,,,Clear,220,13-06-2016 18:35
906,43,2:35 PM,75.2,48.2,38,29.8,10,WNW,6.9,-,,,Clear,300,13-06-2016 18:55
907,44,2:55 PM,75.2,50,41,29.79,10,West,4.6,-,,,Clear,280,13-06-2016 19:00
908,45,3:00 PM,75.2,48.2,38,29.79,10,WNW,9.2,49.5,,,Clear,300,13-06-2016 19:35
909,46,3:35 PM,77,48.2,36,29.8,10,WNW,5.8,46,,,Clear,290,13-06-2016 19:55
910,47,3:55 PM,75.2,48.2,38,29.8,10,North,3.5,-,,,Clear,10,13-06-2016 20:00
911,48,4:00 PM,75.2,48.2,38,29.79,10,North,8.1,-,,,Clear,350,13-06-2016 20:35
912,49,4:35 PM,75.2,48.2,38,29.8,10,NNW,3.5,-,,,Clear,340,13-06-2016 20:55
913,50,4:55 PM,73.4,50,44,29.8,10,WNW,4.6,-,,,Clear,290,13-06-2016 21:00
914,51,5:00 PM,73.4,50,44,29.79,10,West,4.6,-,,,Clear,270,13-06-2016 21:35
915,52,5:35 PM,73.4,51.8,47,29.78,10,WSW,5.8,-,,,Clear,240,13-06-2016 21:55
916,53,5:55 PM,73.4,51.8,47,29.79,10,WSW,5.8,-,,,Clear,250,13-06-2016 22:00
917,54,6:00 PM,73.4,51.8,47,29.79,10,NW,4.6,-,,,Clear,320,13-06-2016 22:35
918,55,6:35 PM,71.6,50,46,29.8,10,WNW,3.5,-,,,Clear,290,13-06-2016 22:55
919,56,6:55 PM,71.6,50,46,29.8,10,Calm,Calm,-,,,Clear,0,13-06-2016 23:00
920,57,7:00 PM,71.6,50,46,29.8,10,Calm,Calm,-,,,Clear,0,13-06-2016 23:35
921,58,7:35 PM,69.8,50,49,29.8,10,WNW,3.5,-,,,Clear,290,13-06-2016 23:55
922,59,7:55 PM,69.8,51.8,53,29.81,10,Calm,Calm,-,,,Clear,0,14-06-2016 00:00
923,60,8:00 PM,69.8,51.8,53,29.81,10,Calm,Calm,-,,,Clear,0,14-06-2016 00:35
924,61,8:35 PM,68,51.8,56,29.81,10,Calm,Calm,-,,,Clear,0,14-06-2016 00:55
925,62,8:55 PM,68,51.8,56,29.81,10,Calm,Calm,-,,,Scattered Clouds,0,14-06-2016 01:00
926,63,9:00 PM,68,51.8,56,29.82,10,Calm,Calm,-,,,Scattered Clouds,0,14-06-2016 01:35
927,64,9:35 PM,68,50,52,29.82,10,Calm,Calm,-,,,Mostly Cloudy,0,14-06-2016 01:55
928,65,9:55 PM,68,51.8,56,29.83,10,West,3.5,-,,,Overcast,280,14-06-2016 02:00
929,66,10:00 PM,66.2,51.8,60,29.83,10,SW,3.5,-,,,Overcast,220,14-06-2016 02:35
930,67,10:35 PM,66.2,51.8,60,29.83,10,SE,3.5,-,,,Overcast,130,14-06-2016 02:55
931,68,10:55 PM,66.2,51.8,60,29.84,10,Calm,Calm,-,,,Overcast,0,14-06-2016 03:00
932,69,11:00 PM,66.2,50,56,29.83,10,Calm,Calm,-,,,Overcast,0,14-06-2016 03:35
933,70,11:35 PM,66.2,50,56,29.84,10,West,6.9,-,,,Overcast,260,14-06-2016 03:55
934,71,11:55 PM,66.2,50,56,29.84,10,WSW,4.6,-,,,Overcast,250,14-06-2016 04:00
935,0,12:00 AM,66.2,50,56,29.85,10,SSE,3.5,-,,,Overcast,160,14-06-2016 04:35
936,1,12:35 AM,66.2,50,56,29.85,10,NW,3.5,-,,,Overcast,310,14-06-2016 04:55
937,2,12:55 AM,66.2,51.8,60,29.85,10,Calm,Calm,-,,,Overcast,0,14-06-2016 05:00
938,3,1:00 AM,66.2,51.8,60,29.86,10,West,8.1,34.5,,,Overcast,270,14-06-2016 05:35
939,4,1:35 AM,66.2,51.8,60,29.87,10,Calm,Calm,-,,,Overcast,0,14-06-2016 05:55
940,5,1:55 AM,64.4,50,59,29.86,10,Calm,Calm,-,,,Overcast,0,14-06-2016 06:00
941,6,2:00 AM,64.4,50,59,29.86,10,Calm,Calm,-,,,Mostly Cloudy,0,14-06-2016 06:35
942,7,2:35 AM,64.4,50,59,29.86,10,Calm,Calm,-,,,Partly Cloudy,0,14-06-2016 06:55
943,8,2:55 AM,64.4,51.8,64,29.86,10,SSW,4.6,-,,,Clear,210,14-06-2016 07:00
944,9,3:00 AM,62.6,50,63,29.86,10,SE,3.5,-,,,Clear,140,14-06-2016 07:35
945,10,3:35 AM,62.6,48.2,59,29.86,10,SW,3.5,-,,,Clear,220,14-06-2016 07:55
946,11,3:55 AM,62.6,50,63,29.87,10,West,3.5,-,,,Clear,260,14-06-2016 08:00
947,12,4:00 AM,62.6,50,63,29.88,10,WSW,3.5,-,,,Clear,250,14-06-2016 08:35
948,13,4:35 AM,62.6,50,63,29.89,10,Calm,Calm,-,,,Clear,0,14-06-2016 08:55
949,14,4:55 AM,60.8,50,68,29.9,10,WSW,3.5,-,,,Clear,250,14-06-2016 09:00
950,15,5:00 AM,60.8,51.8,72,29.91,10,West,3.5,-,,,Clear,260,14-06-2016 09:35
951,16,5:35 AM,60.8,51.8,72,29.92,10,SW,3.5,-,,,Clear,230,14-06-2016 09:55
952,17,5:55 AM,60.8,50,68,29.92,10,Calm,Calm,-,,,Clear,0,14-06-2016 10:00
953,18,6:00 AM,60.8,50,68,29.93,10,SE,3.5,-,,,Clear,140,14-06-2016 10:35
954,19,6:35 AM,60.8,50,68,29.93,10,WSW,5.8,-,,,Clear,250,14-06-2016 10:55
955,20,6:55 AM,60.8,50,68,29.93,10,WSW,5.8,-,,,Clear,250,14-06-2016 11:00
956,21,7:00 AM,60.8,50,68,29.94,10,Calm,Calm,-,,,Clear,0,14-06-2016 11:35
957,22,7:35 AM,60.8,48.2,63,29.94,10,SW,5.8,-,,,Clear,230,14-06-2016 11:55
958,23,7:55 AM,62.6,48.2,59,29.95,10,West,5.8,-,,,Clear,270,14-06-2016 12:00
959,24,8:00 AM,62.6,48.2,59,29.95,10,Calm,Calm,-,,,Clear,0,14-06-2016 12:35
960,25,8:35 AM,62.6,46.4,55,29.95,10,ENE,4.6,-,,,Clear,70,14-06-2016 12:55
961,26,8:55 AM,64.4,48.2,56,29.95,8,Calm,Calm,-,,,Clear,0,14-06-2016 13:00
962,27,9:00 AM,66.2,46.4,49,29.95,10,SW,3.5,-,,,Clear,220,14-06-2016 13:35
963,28,9:35 AM,68,44.6,43,29.95,10,SW,3.5,-,,,Clear,220,14-06-2016 13:55
964,29,9:55 AM,69.8,39.2,33,29.95,10,WNW,3.5,-,,,Clear,290,14-06-2016 14:00
965,30,10:00 AM,71.6,42.8,35,29.95,10,NE,3.5,-,,,Clear,50,14-06-2016 14:35
966,31,10:35 AM,71.6,41,33,29.95,10,WNW,4.6,-,,,Clear,300,14-06-2016 14:55
967,32,10:55 AM,73.4,41,31,29.94,10,WSW,4.6,-,,,Clear,250,14-06-2016 15:00
968,33,11:00 AM,73.4,39.2,29,29.95,10,WSW,3.5,-,,,Clear,250,14-06-2016 15:35
969,34,11:35 AM,73.4,39.2,29,29.94,10,Calm,Calm,-,,,Clear,0,14-06-2016 15:55
970,35,11:55 AM,73.4,41,31,29.94,10,NW,4.6,-,,,Clear,310,14-06-2016 16:00
971,36,12:00 PM,75.2,41,29,29.94,10,SW,8.1,-,,,Clear,230,14-06-2016 16:35
972,37,12:35 PM,75.2,39.2,27,29.94,10,WNW,3.5,-,,,Clear,290,14-06-2016 16:55
973,38,12:55 PM,75.2,41,29,29.93,10,Calm,Calm,-,,,Clear,0,14-06-2016 17:00
974,39,1:00 PM,77,42.8,29,29.93,10,NNW,3.5,-,,,Clear,330,14-06-2016 17:35
975,40,1:35 PM,78.8,42.8,28,29.92,10,West,4.6,34.5,,,Clear,260,14-06-2016 17:55
976,41,1:55 PM,78.8,41,26,29.92,10,WSW,6.9,-,,,Clear,250,14-06-2016 18:00
977,42,2:00 PM,78.8,42.8,28,29.92,10,West,10.4,18.4,,,Clear,260,14-06-2016 18:35
978,43,2:35 PM,80.6,42.8,26,29.91,10,WSW,6.9,-,,,Clear,250,14-06-2016 18:55
979,44,2:55 PM,80.6,44.6,28,29.92,10,West,9.2,-,,,Clear,260,14-06-2016 19:00
980,45,3:00 PM,80.6,44.6,28,29.91,10,WSW,10.4,-,,,Clear,250,14-06-2016 19:35
981,46,3:35 PM,80.6,44.6,28,29.91,10,WSW,8.1,-,,,Clear,250,14-06-2016 19:55
982,47,3:55 PM,80.6,44.6,28,29.91,10,WSW,5.8,-,,,Clear,250,14-06-2016 20:00
983,48,4:00 PM,80.6,44.6,28,29.9,10,WSW,6.9,47.2,,,Clear,240,14-06-2016 20:35
984,49,4:35 PM,80.6,44.6,28,29.9,10,West,5.8,-,,,Clear,260,14-06-2016 20:55
985,50,4:55 PM,80.6,44.6,28,29.9,10,WSW,5.8,17.3,,,Clear,240,14-06-2016 21:00
986,51,5:00 PM,82.4,44.6,26,29.89,10,WNW,5.8,-,,,Clear,290,14-06-2016 21:35
987,52,5:35 PM,82.4,42.8,25,29.89,10,West,8.1,-,,,Clear,260,14-06-2016 21:55
988,53,5:55 PM,82.4,44.6,26,29.9,10,West,10.4,-,,,Clear,260,14-06-2016 22:00
989,54,6:00 PM,80.6,44.6,28,29.9,10,West,8.1,-,,,Clear,260,14-06-2016 22:35
990,55,6:35 PM,80.6,44.6,28,29.9,10,West,6.9,-,,,Clear,260,14-06-2016 22:55
991,56,6:55 PM,78.8,44.6,30,29.91,10,West,8.1,-,,,Clear,260,14-06-2016 23:00
992,57,7:00 PM,78.8,44.6,30,29.91,10,NW,3.5,-,,,Clear,310,14-06-2016 23:35
993,58,7:35 PM,77,44.6,32,29.91,10,Calm,Calm,-,,,Clear,0,14-06-2016 23:55
994,59,7:55 PM,77,44.6,32,29.92,10,West,3.5,-,,,Clear,270,15-06-2016 00:00
995,60,8:00 PM,75.2,44.6,34,29.92,10,Calm,Calm,-,,,Clear,0,15-06-2016 00:35
996,61,8:35 PM,75.2,44.6,34,29.92,10,Calm,Calm,-,,,Clear,0,15-06-2016 00:55
997,62,8:55 PM,75.2,44.6,34,29.93,10,Calm,Calm,-,,,Clear,0,15-06-2016 01:00
998,63,9:00 PM,75.2,44.6,34,29.93,10,Calm,Calm,-,,,Clear,0,15-06-2016 01:35
999,64,9:35 PM,75.2,44.6,34,29.94,10,Calm,Calm,-,,,Clear,0,15-06-2016 01:55
1000,65,9:55 PM,75.2,44.6,34,29.95,10,Calm,Calm,-,,,Clear,0,15-06-2016 02:00
1001,66,10:00 PM,73.4,44.6,36,29.95,10,WSW,3.5,-,,,Clear,250,15-06-2016 02:35
1002,67,10:35 PM,73.4,44.6,36,29.96,10,Calm,Calm,-,,,Clear,0,15-06-2016 02:55
1003,68,10:55 PM,73.4,46.4,38,29.96,10,Calm,Calm,-,,,Clear,0,15-06-2016 03:00
1004,69,11:00 PM,73.4,46.4,38,29.97,10,Calm,Calm,-,,,Clear,0,15-06-2016 03:35
1005,70,11:35 PM,71.6,48.2,43,29.97,10,Calm,Calm,-,,,Clear,0,15-06-2016 03:55
1006,71,11:55 PM,71.6,48.2,43,29.98,10,Calm,Calm,-,,,Clear,0,15-06-2016 04:35
1007,0,12:35 AM,71.6,48.2,43,29.98,10,Calm,Calm,-,,,Clear,0,15-06-2016 04:55
1008,1,12:55 AM,71.6,48.2,43,29.98,10,Calm,Calm,-,,,Clear,0,15-06-2016 05:00
1009,2,1:00 AM,69.8,46.4,43,29.98,10,WSW,5.8,-,,,Clear,250,15-06-2016 05:35
1010,3,1:35 AM,69.8,48.2,46,29.98,10,West,3.5,-,,,Clear,260,15-06-2016 05:55
1011,4,1:55 AM,69.8,48.2,46,29.98,10,Calm,Calm,-,,,Clear,0,15-06-2016 06:00
1012,5,2:00 AM,69.8,46.4,43,29.97,10,Calm,Calm,-,,,Clear,0,15-06-2016 06:35
1013,6,2:35 AM,69.8,48.2,46,29.96,10,NE,5.8,-,,,Clear,50,15-06-2016 06:55
1014,7,2:55 AM,69.8,51.8,53,29.96,10,ENE,3.5,-,,,Clear,60,15-06-2016 07:00
1015,8,3:00 AM,69.8,50,49,29.96,10,Calm,Calm,-,,,Clear,0,15-06-2016 07:35
1016,9,3:35 AM,68,48.2,49,29.96,10,West,3.5,-,,,Clear,270,15-06-2016 07:55
1017,10,3:55 AM,66.2,53.6,64,29.97,10,West,5.8,-,,,Clear,270,15-06-2016 08:00
1018,11,4:00 AM,66.2,51.8,60,29.97,10,West,4.6,-,,,Clear,270,15-06-2016 08:35
1019,12,4:35 AM,66.2,51.8,60,29.96,10,West,5.8,-,,,Clear,260,15-06-2016 08:55
1020,13,4:55 AM,66.2,50,56,29.97,10,Calm,Calm,-,,,Clear,0,15-06-2016 09:00
1021,14,5:00 AM,66.2,48.2,52,29.97,10,West,3.5,-,,,Clear,280,15-06-2016 09:35
1022,15,5:35 AM,66.2,48.2,52,29.97,10,West,3.5,-,,,Clear,270,15-06-2016 09:55
1023,16,5:55 AM,66.2,48.2,52,29.97,10,West,3.5,-,,,Clear,270,15-06-2016 10:00
1024,17,6:00 AM,66.2,50,56,29.98,10,West,5.8,-,,,Clear,270,15-06-2016 10:35
1025,18,6:35 AM,66.2,51.8,60,29.98,10,West,4.6,-,,,Clear,270,15-06-2016 10:55
1026,19,6:55 AM,66.2,51.8,60,29.98,10,WSW,4.6,-,,,Clear,250,15-06-2016 11:00
1027,20,7:00 AM,66.2,51.8,60,29.99,10,WSW,6.9,-,,,Clear,250,15-06-2016 11:35
1028,21,7:35 AM,66.2,53.6,64,30,10,WSW,5.8,-,,,Clear,240,15-06-2016 11:55
1029,22,7:55 AM,66.2,55.4,68,30,10,SW,4.6,-,,,Clear,230,15-06-2016 12:00
1030,23,8:00 AM,66.2,53.6,64,30,10,SW,5.8,-,,,Clear,230,15-06-2016 12:35
1031,24,8:35 AM,66.2,53.6,64,30,10,SW,4.6,-,,,Clear,230,15-06-2016 12:55
1032,25,8:55 AM,69.8,51.8,53,30,10,Calm,Calm,-,,,Clear,0,15-06-2016 13:00
1033,26,9:00 AM,71.6,48.2,43,30,10,West,5.8,-,,,Clear,260,15-06-2016 13:35
1034,27,9:35 AM,75.2,46.4,36,29.99,10,West,4.6,-,,,Clear,280,15-06-2016 13:55
1035,28,9:55 AM,75.2,46.4,36,29.99,10,WSW,3.5,-,,,Clear,240,15-06-2016 14:00
1036,29,10:00 AM,75.2,48.2,38,29.98,10,SW,4.6,-,,,Clear,220,15-06-2016 14:35
1037,30,10:35 AM,75.2,46.4,36,29.98,10,WSW,4.6,-,,,Clear,240,15-06-2016 14:55
1038,31,10:55 AM,78.8,46.4,32,29.98,10,SW,4.6,-,,,Clear,230,15-06-2016 15:00
1039,32,11:00 AM,77,48.2,36,29.97,10,West,12.7,33.4,,,Clear,280,15-06-2016 15:35
1040,33,11:35 AM,80.6,42.8,26,29.96,10,Calm,Calm,-,,,Clear,0,15-06-2016 15:55
1041,34,11:55 AM,80.6,42.8,26,29.96,10,Calm,Calm,-,,,Clear,0,15-06-2016 16:00
1042,35,12:00 PM,80.6,42.8,26,29.95,10,SSW,4.6,-,,,Clear,210,15-06-2016 16:35
1043,36,12:35 PM,80.6,41,24,29.95,10,Calm,Calm,-,,,Clear,0,15-06-2016 16:55
1044,37,12:55 PM,82.4,42.8,25,29.94,10,West,3.5,-,,,Clear,260,15-06-2016 17:00
1045,38,1:00 PM,82.4,42.8,25,29.94,10,SW,4.6,-,,,Clear,220,15-06-2016 17:35
1046,39,1:35 PM,82.4,44.6,26,29.93,10,SW,6.9,-,,,Clear,220,15-06-2016 17:55
1047,40,1:55 PM,84.2,42.8,23,29.92,10,SW,3.5,-,,,Clear,230,15-06-2016 18:00
1048,41,2:00 PM,84.2,44.6,25,29.91,10,SSW,3.5,-,,,Clear,210,15-06-2016 18:35
1049,42,2:35 PM,82.4,48.2,30,29.9,10,SSW,5.8,-,,,Clear,210,15-06-2016 18:55
1050,43,2:55 PM,84.2,44.6,25,29.89,10,SSW,6.9,-,,,Clear,210,15-06-2016 19:00
1051,44,3:00 PM,84.2,46.4,27,29.89,10,SW,5.8,-,,,Clear,220,15-06-2016 19:35
1052,45,3:35 PM,84.2,50,30,29.88,10,SW,8.1,-,,,Clear,220,15-06-2016 19:55
1053,46,3:55 PM,82.4,51.8,35,29.88,10,SSW,9.2,-,,,Clear,210,15-06-2016 20:00
1054,47,4:00 PM,82.4,53.6,37,29.87,10,SSW,5.8,-,,,Clear,210,15-06-2016 20:35
1055,48,4:35 PM,80.6,51.8,37,29.87,10,South,6.9,-,,,Clear,180,15-06-2016 20:55
1056,49,4:55 PM,80.6,53.6,39,29.86,10,South,6.9,-,,,Clear,180,15-06-2016 21:00
1057,50,5:00 PM,80.6,53.6,39,29.86,10,SSW,3.5,-,,,Clear,210,15-06-2016 21:35
1058,51,5:35 PM,80.6,53.6,39,29.85,10,South,6.9,-,,,Clear,180,15-06-2016 21:55
1059,52,5:55 PM,80.6,53.6,39,29.85,10,South,4.6,-,,,Clear,180,15-06-2016 22:00
1060,53,6:00 PM,78.8,55.4,44,29.84,10,South,8.1,25.3,,,Clear,170,15-06-2016 22:35
1061,54,6:35 PM,78.8,55.4,44,29.84,10,South,4.6,-,,,Clear,180,15-06-2016 22:55
1062,55,6:55 PM,78.8,57.2,47,29.84,10,Calm,Calm,-,,,Clear,0,15-06-2016 23:00
1063,56,7:00 PM,77,57.2,50,29.84,10,Calm,Calm,-,,,Clear,0,15-06-2016 23:35
1064,57,7:35 PM,77,57.2,50,29.84,10,Calm,Calm,-,,,Clear,0,15-06-2016 23:55
1065,58,7:55 PM,75.2,57.2,53,29.84,10,Calm,Calm,-,,,Clear,0,16-06-2016 00:00
1066,59,8:00 PM,77,57.2,50,29.84,10,Calm,Calm,-,,,Clear,0,16-06-2016 00:35
1067,60,8:35 PM,75.2,57.2,53,29.84,10,Calm,Calm,-,,,Clear,0,16-06-2016 00:55
1068,61,8:55 PM,75.2,59,57,29.84,10,Calm,Calm,-,,,Clear,0,16-06-2016 01:00
1069,62,9:00 PM,75.2,59,57,29.85,10,West,3.5,-,,,Clear,280,16-06-2016 01:35
1070,63,9:35 PM,75.2,59,57,29.86,10,West,5.8,-,,,Mostly Cloudy,270,16-06-2016 01:55
1071,64,9:55 PM,75.2,57.2,53,29.86,10,West,3.5,-,,,Overcast,260,16-06-2016 02:00
1072,65,10:00 PM,75.2,55.4,50,29.87,10,West,4.6,-,,,Mostly Cloudy,260,16-06-2016 02:35
1073,66,10:35 PM,75.2,55.4,50,29.87,10,West,5.8,-,,,Partly Cloudy,270,16-06-2016 02:55
1074,67,10:55 PM,75.2,57.2,53,29.86,10,West,4.6,-,,,Partly Cloudy,270,16-06-2016 03:00
1075,68,11:00 PM,73.4,59,61,29.86,10,West,4.6,-,,,Mostly Cloudy,280,16-06-2016 03:35
1076,69,11:35 PM,73.4,60.8,65,29.86,10,West,3.5,-,,,Scattered Clouds,270,16-06-2016 03:55
1077,70,11:55 PM,73.4,59,61,29.86,10,West,4.6,-,,,Clear,280,16-06-2016 04:00
1078,0,12:00 AM,73.4,59,61,29.85,10,West,3.5,-,,,Scattered Clouds,260,16-06-2016 04:35
1079,1,12:35 AM,73.4,59,61,29.85,10,West,3.5,-,,,Mostly Cloudy,280,16-06-2016 04:55
1080,2,12:55 AM,73.4,59,61,29.84,10,Calm,Calm,-,,,Mostly Cloudy,0,16-06-2016 05:00
1081,3,1:00 AM,73.4,60.8,65,29.83,10,West,4.6,-,,,Partly Cloudy,270,16-06-2016 05:35
1082,4,1:35 AM,73.4,60.8,65,29.83,10,WSW,4.6,-,,,Partly Cloudy,250,16-06-2016 05:55
1083,5,1:55 AM,71.6,60.8,69,29.83,10,West,3.5,-,,,Mostly Cloudy,280,16-06-2016 06:00
1084,6,2:00 AM,71.6,62.6,73,29.82,10,West,3.5,-,,,Mostly Cloudy,260,16-06-2016 06:35
1085,7,2:35 AM,71.6,62.6,73,29.81,10,Calm,Calm,-,,,Scattered Clouds,0,16-06-2016 06:55
1086,8,2:55 AM,71.6,62.6,73,29.8,10,Calm,Calm,-,,,Overcast,0,16-06-2016 07:00
1087,9,3:00 AM,71.6,62.6,73,29.8,10,WSW,3.5,-,,,Overcast,250,16-06-2016 07:35
1088,10,3:35 AM,71.6,62.6,73,29.8,10,Calm,Calm,-,,,Overcast,0,16-06-2016 07:55
1089,11,3:55 AM,69.8,62.6,78,29.79,10,Calm,Calm,-,,,Overcast,0,16-06-2016 08:00
1090,12,4:00 AM,69.8,62.6,78,29.79,10,Calm,Calm,-,,,Overcast,0,16-06-2016 08:35
1091,13,4:35 AM,69.8,62.6,78,29.79,10,Calm,Calm,-,0.02,,Overcast,0,16-06-2016 08:55
1092,14,4:55 AM,69.8,62.6,78,29.79,10,Calm,Calm,-,0.02,,Overcast,0,16-06-2016 09:00
1093,15,5:00 AM,69.8,62.6,78,29.79,10,Calm,Calm,-,,,Overcast,0,16-06-2016 09:35
1094,16,5:35 AM,69.8,62.6,78,29.79,10,Calm,Calm,-,,,Overcast,0,16-06-2016 09:55
1095,17,5:55 AM,68,62.6,83,29.79,9,Calm,Calm,-,0.01,,Overcast,0,16-06-2016 10:00
1096,18,6:00 AM,66.2,60.8,83,29.8,10,Calm,Calm,-,,,Overcast,0,16-06-2016 10:35
1097,19,6:35 AM,66.2,59,78,29.8,10,Calm,Calm,-,,,Overcast,0,16-06-2016 10:55
1098,20,6:55 AM,66.2,60.8,83,29.8,10,Calm,Calm,-,,,Overcast,0,16-06-2016 11:00
1099,21,7:00 AM,66.2,60.8,83,29.81,10,NE,3.5,-,0.01,,Overcast,50,16-06-2016 11:35
1100,22,7:35 AM,68,62.6,83,29.8,10,ENE,9.2,-,0.01,,Overcast,60,16-06-2016 11:55
1101,23,7:55 AM,68,62.6,83,29.81,10,NNE,5.8,-,0.01,,Overcast,30,16-06-2016 12:00
1102,24,8:00 AM,68,62.6,83,29.81,10,NNE,5.8,-,,,Overcast,30,16-06-2016 12:35
1103,25,8:35 AM,68,62.6,83,29.81,10,NE,8.1,-,,,Overcast,50,16-06-2016 12:55
1104,26,8:55 AM,68,62.6,83,29.8,10,East,3.5,-,,,Overcast,80,16-06-2016 13:00
1105,27,9:00 AM,68,62.6,83,29.79,10,ENE,4.6,-,,,Overcast,60,16-06-2016 13:35
1106,28,9:35 AM,68,62.6,83,29.79,10,Calm,Calm,-,,,Overcast,0,16-06-2016 13:55
1107,29,9:55 AM,68,60.8,78,29.78,10,Calm,Calm,-,,,Overcast,0,16-06-2016 14:00
1108,30,10:00 AM,69.8,60.8,73,29.79,10,Calm,Calm,-,,,Overcast,0,16-06-2016 14:35
1109,31,10:35 AM,69.8,60.8,73,29.79,10,ENE,4.6,-,,,Overcast,60,16-06-2016 14:55
1110,32,10:55 AM,69.8,60.8,73,29.79,10,NE,3.5,-,,,Overcast,50,16-06-2016 15:00
1111,33,11:00 AM,71.6,60.8,69,29.79,10,ENE,4.6,-,,,Overcast,60,16-06-2016 15:35
1112,34,11:35 AM,71.6,60.8,69,29.8,10,NE,4.6,-,,,Overcast,50,16-06-2016 15:55
1113,35,11:55 AM,71.6,60.8,69,29.79,10,NE,5.8,-,,,Overcast,50,16-06-2016 16:00
1114,36,12:00 PM,71.6,60.8,69,29.79,10,NE,6.9,-,,,Overcast,50,16-06-2016 16:35
1115,37,12:35 PM,71.6,60.8,69,29.79,10,Calm,Calm,-,,,Overcast,0,16-06-2016 16:55
1116,38,12:55 PM,73.4,59,61,29.8,10,Calm,Calm,-,,,Overcast,0,16-06-2016 17:00
1117,39,1:00 PM,73.4,55.4,53,29.8,10,Calm,Calm,-,,,Overcast,0,16-06-2016 17:35
1118,40,1:35 PM,73.4,55.4,53,29.8,10,SSE,5.8,-,,,Overcast,150,16-06-2016 17:55
1119,41,1:55 PM,71.6,55.4,57,29.81,10,SW,3.5,-,,,Overcast,220,16-06-2016 18:00
1120,42,2:00 PM,71.6,53.6,53,29.8,10,SW,3.5,-,,,Overcast,220,16-06-2016 18:35
1121,43,2:35 PM,71.6,55.4,57,29.8,9,SW,3.5,-,,,Overcast,220,16-06-2016 18:55
1122,44,2:55 PM,71.6,57.2,60,29.8,9,West,5.8,34.5,,,Overcast,270,16-06-2016 19:00
1123,45,3:00 PM,71.6,60.8,69,29.79,10,WSW,3.5,-,,,Overcast,250,16-06-2016 19:35
1124,46,3:35 PM,71.6,60.8,69,29.79,10,West,3.5,-,,,Overcast,260,16-06-2016 19:55
1125,47,3:55 PM,71.6,59,64,29.78,9,Calm,Calm,-,,,Overcast,0,16-06-2016 20:00
1126,48,4:00 PM,71.6,57.2,60,29.77,10,Calm,Calm,-,,,Overcast,0,16-06-2016 20:35
1127,49,4:35 PM,71.6,55.4,57,29.76,9,Calm,Calm,-,,,Scattered Clouds,0,16-06-2016 20:55
1128,50,4:55 PM,73.4,55.4,53,29.76,10,West,3.5,-,,,Mostly Cloudy,260,16-06-2016 21:00
1129,51,5:00 PM,73.4,55.4,53,29.75,10,WSW,3.5,-,,,Overcast,250,16-06-2016 21:35
1130,52,5:35 PM,73.4,57.2,57,29.74,9,West,4.6,-,,,Overcast,270,16-06-2016 21:55
1131,53,5:55 PM,73.4,57.2,57,29.74,10,Calm,Calm,-,,,Overcast,0,16-06-2016 22:00
1132,54,6:00 PM,73.4,57.2,57,29.74,10,Calm,Calm,-,,,Overcast,0,16-06-2016 22:35
1133,55,6:35 PM,71.6,60.8,69,29.73,10,Calm,Calm,-,,,Overcast,0,16-06-2016 22:55
1134,56,6:55 PM,73.4,59,61,29.73,10,Calm,Calm,-,,,Overcast,0,16-06-2016 23:00
1135,57,7:00 PM,71.6,59,64,29.74,10,Calm,Calm,-,,,Overcast,0,16-06-2016 23:35
1136,58,7:35 PM,71.6,59,64,29.75,10,Calm,Calm,-,,,Overcast,0,16-06-2016 23:55
1137,59,7:55 PM,69.8,60.8,73,29.76,10,WSW,4.6,48.3,,,Overcast,240,17-06-2016 00:00
1138,60,8:00 PM,69.8,60.8,73,29.76,10,Calm,Calm,-,,,Overcast,0,17-06-2016 00:35
1139,61,8:35 PM,69.8,60.8,73,29.76,10,WSW,3.5,-,,,Overcast,250,17-06-2016 00:55
1140,62,8:55 PM,69.8,59,68,29.76,10,WSW,3.5,-,,,Overcast,250,17-06-2016 01:00
1141,63,9:00 PM,69.8,60.8,73,29.76,10,WSW,4.6,-,,,Overcast,250,17-06-2016 01:35
1142,64,9:35 PM,68,60.8,78,29.76,10,Calm,Calm,-,,,Overcast,0,17-06-2016 01:55
1143,65,9:55 PM,68,60.8,78,29.76,10,Calm,Calm,-,,,Overcast,0,17-06-2016 02:00
1144,66,10:00 PM,68,60.8,78,29.77,10,Calm,Calm,-,,,Overcast,0,17-06-2016 02:35
1145,67,10:35 PM,68,60.8,78,29.78,10,Calm,Calm,-,,,Overcast,0,17-06-2016 02:55
1146,68,10:55 PM,68,59,73,29.78,10,WSW,3.5,-,,,Overcast,250,17-06-2016 03:00
1147,69,11:00 PM,68,60.8,78,29.79,10,WSW,3.5,-,,,Scattered Clouds,250,17-06-2016 03:35
1148,70,11:35 PM,68,60.8,78,29.78,10,Calm,Calm,-,,,Clear,0,17-06-2016 03:55
1149,71,11:55 PM,66.2,60.8,83,29.78,10,West,3.5,-,,,Clear,260,17-06-2016 04:00
1150,0,12:00 AM,66.2,60.8,83,29.78,10,Calm,Calm,-,,,Clear,0,17-06-2016 04:35
1151,1,12:35 AM,66.2,60.8,83,29.79,10,Calm,Calm,-,,,Mostly Cloudy,0,17-06-2016 04:55
1152,2,12:55 AM,66.2,60.8,83,29.8,10,Calm,Calm,-,,,Overcast,0,17-06-2016 05:00
1153,3,1:00 AM,66.2,60.8,83,29.8,10,West,4.6,-,,,Overcast,280,17-06-2016 05:35
1154,4,1:35 AM,66.2,59,78,29.81,10,Calm,Calm,-,,,Overcast,0,17-06-2016 05:55
1155,5,1:55 AM,66.2,57.2,73,29.8,10,Calm,Calm,-,,,Mostly Cloudy,0,17-06-2016 06:00
1156,6,2:00 AM,66.2,57.2,73,29.8,10,Calm,Calm,-,,,Scattered Clouds,0,17-06-2016 06:35
1157,7,2:35 AM,66.2,57.2,73,29.8,10,Calm,Calm,-,,,Scattered Clouds,0,17-06-2016 06:55
1158,8,2:55 AM,66.2,59,78,29.8,10,Calm,Calm,-,,,Overcast,0,17-06-2016 07:00
1159,9,3:00 AM,66.2,59,78,29.8,10,Calm,Calm,-,,,Overcast,0,17-06-2016 07:35
1160,10,3:35 AM,66.2,59,78,29.8,10,Calm,Calm,-,,,Mostly Cloudy,0,17-06-2016 07:55
1161,11,3:55 AM,66.2,59,78,29.8,10,Calm,Calm,-,,,Clear,0,17-06-2016 08:00
1162,12,4:00 AM,66.2,60.8,83,29.8,10,Calm,Calm,-,,,Clear,0,17-06-2016 08:35
1163,13,4:35 AM,66.2,60.8,83,29.8,10,Calm,Calm,-,,,Clear,0,17-06-2016 08:55
1164,14,4:55 AM,66.2,60.8,83,29.81,10,Calm,Calm,-,,,Clear,0,17-06-2016 09:00
1165,15,5:00 AM,66.2,62.6,88,29.81,10,Calm,Calm,-,,,Clear,0,17-06-2016 09:35
1166,16,5:35 AM,66.2,62.6,88,29.82,10,Calm,Calm,-,,,Clear,0,17-06-2016 09:55
1167,17,5:55 AM,64.4,62.6,94,29.83,10,Calm,Calm,-,,,Clear,0,17-06-2016 10:00
1168,18,6:00 AM,66.2,60.8,83,29.83,10,Calm,Calm,-,,,Clear,0,17-06-2016 10:35
1169,19,6:35 AM,66.2,62.6,88,29.84,10,Calm,Calm,-,,,Clear,0,17-06-2016 10:55
1170,20,6:55 AM,66.2,62.6,88,29.85,10,SSE,3.5,-,,,Partly Cloudy,150,17-06-2016 11:00
1171,21,7:00 AM,66.2,62.6,88,29.85,9,Calm,Calm,-,,,Partly Cloudy,0,17-06-2016 11:35
1172,22,7:35 AM,66.2,60.8,83,29.85,10,ENE,4.6,-,,,Clear,70,17-06-2016 11:55
1173,23,7:55 AM,68,59,73,29.87,10,ENE,8.1,-,,,Clear,60,17-06-2016 12:00
1174,24,8:00 AM,69.8,57.2,64,29.88,10,NNE,10.4,-,,,Clear,30,17-06-2016 12:35
1175,25,8:35 AM,69.8,57.2,64,29.88,10,NE,9.2,17.3,,,Clear,50,17-06-2016 12:55
1176,26,8:55 AM,69.8,57.2,64,29.89,10,ENE,10.4,-,,,Clear,70,17-06-2016 13:00
1177,27,9:00 AM,69.8,57.2,64,29.89,10,ENE,11.5,-,,,Clear,60,17-06-2016 13:35
1178,28,9:35 AM,71.6,57.2,60,29.9,10,ENE,11.5,-,,,Clear,70,17-06-2016 13:55
1179,29,9:55 AM,71.6,57.2,60,29.91,10,ENE,12.7,-,,,Clear,60,17-06-2016 14:00
1180,30,10:00 AM,73.4,59,61,29.92,10,ENE,11.5,17.3,,,Partly Cloudy,60,17-06-2016 14:35
1181,31,10:35 AM,73.4,59,61,29.92,10,NE,12.7,-,,,Partly Cloudy,50,17-06-2016 14:55
1182,32,10:55 AM,73.4,60.8,65,29.93,10,ENE,10.4,-,,,Clear,70,17-06-2016 15:00
1183,33,11:00 AM,73.4,60.8,65,29.94,10,ENE,13.8,18.4,,,Clear,60,17-06-2016 15:35
1184,34,11:35 AM,73.4,60.8,65,29.95,10,ENE,16.1,21.9,,,Clear,60,17-06-2016 15:55
1185,35,11:55 AM,73.4,60.8,65,29.95,10,NE,10.4,-,,,Partly Cloudy,50,17-06-2016 16:00
1186,36,12:00 PM,75.2,60.8,61,29.96,10,ENE,9.2,-,,,Clear,70,17-06-2016 16:35
1187,37,12:35 PM,75.2,60.8,61,29.96,10,NE,11.5,27.6,,,Scattered Clouds,50,17-06-2016 16:55
1188,38,12:55 PM,75.2,60.8,61,29.97,10,NE,8.1,-,,,Scattered Clouds,50,17-06-2016 17:00
1189,39,1:00 PM,73.4,57.2,57,29.98,10,SE,4.6,-,,,Overcast,130,17-06-2016 17:35
1190,40,1:35 PM,71.6,60.8,69,29.98,10,ENE,11.5,-,,,Overcast,60,17-06-2016 17:55
1191,41,1:55 PM,73.4,57.2,57,29.99,10,NE,5.8,-,,,Scattered Clouds,40,17-06-2016 18:00
1192,42,2:00 PM,75.2,48.2,38,29.99,10,SE,11.5,18.4,,,Clear,140,17-06-2016 18:35
1193,43,2:35 PM,75.2,48.2,38,30,10,East,4.6,19.6,,,Clear,80,17-06-2016 18:55
1194,44,2:55 PM,75.2,46.4,36,30,10,SE,10.4,18.4,,,Clear,130,17-06-2016 19:00
1195,45,3:00 PM,77,46.4,34,30.01,9,SE,11.5,18.4,,,Clear,140,17-06-2016 19:35
1196,46,3:35 PM,77,46.4,34,30.01,10,SE,12.7,17.3,,,Clear,130,17-06-2016 19:55
1197,47,3:55 PM,75.2,46.4,36,30.01,10,SE,11.5,18.4,,,Clear,130,17-06-2016 20:00
1198,48,4:00 PM,75.2,44.6,34,30.02,10,SSE,15,18.4,,,Clear,150,17-06-2016 20:35
1199,49,4:35 PM,75.2,42.8,31,30.02,10,SE,13.8,20.7,,,Clear,140,17-06-2016 20:55
1200,50,4:55 PM,75.2,42.8,31,30.02,10,ESE,10.4,16.1,,,Clear,110,17-06-2016 21:00
1201,51,5:00 PM,75.2,41,29,30.02,10,East,9.2,19.6,,,Clear,100,17-06-2016 21:35
1202,52,5:35 PM,75.2,44.6,34,30.02,10,SE,9.2,-,,,Clear,130,17-06-2016 21:55
1203,53,5:55 PM,73.4,42.8,33,30.02,10,SE,8.1,-,,,Clear,130,17-06-2016 22:00
1204,54,6:00 PM,73.4,46.4,38,30.03,10,SE,6.9,-,,,Clear,140,17-06-2016 22:35
1205,55,6:35 PM,73.4,44.6,36,30.04,10,SE,4.6,-,,,Clear,140,17-06-2016 22:55
1206,56,6:55 PM,71.6,48.2,43,30.04,10,ESE,4.6,-,,,Clear,120,17-06-2016 23:00
1207,57,7:00 PM,69.8,50,49,30.04,10,ESE,5.8,-,,,Clear,120,17-06-2016 23:35
1208,58,7:35 PM,69.8,48.2,46,30.05,10,SE,5.8,-,,,Clear,130,17-06-2016 23:55
1209,59,7:55 PM,69.8,48.2,46,30.06,10,SSE,3.5,-,,,Clear,150,18-06-2016 00:00
1210,60,8:00 PM,66.2,48.2,52,30.07,10,SSE,6.9,-,,,Clear,160,18-06-2016 00:35
1211,61,8:35 PM,66.2,48.2,52,30.07,10,South,6.9,-,,,Clear,170,18-06-2016 00:55
1212,62,8:55 PM,66.2,48.2,52,30.08,10,SSE,4.6,-,,,Clear,150,18-06-2016 01:00
1213,63,9:00 PM,66.2,51.8,60,30.09,10,Calm,Calm,-,,,Clear,0,18-06-2016 01:35
1214,64,9:35 PM,66.2,50,56,30.11,10,South,6.9,-,,,Clear,180,18-06-2016 01:55
1215,65,9:55 PM,66.2,51.8,60,30.12,10,South,3.5,-,,,Clear,170,18-06-2016 02:00
1216,66,10:00 PM,66.2,51.8,60,30.12,10,SSE,3.5,-,,,Clear,160,18-06-2016 02:35
1217,67,10:35 PM,64.4,51.8,64,30.13,10,Calm,Calm,-,,,Clear,0,18-06-2016 02:55
1218,68,10:55 PM,64.4,51.8,64,30.12,10,SSW,3.5,-,,,Clear,200,18-06-2016 03:00
1219,69,11:00 PM,64.4,51.8,64,30.13,10,Calm,Calm,-,,,Clear,0,18-06-2016 03:35
1220,70,11:35 PM,64.4,51.8,64,30.14,10,West,3.5,-,,,Clear,260,18-06-2016 03:55
1221,71,11:55 PM,64.4,53.6,68,30.14,10,West,4.6,-,,,Clear,280,18-06-2016 04:00
1222,0,12:00 AM,64.4,55.4,73,30.13,10,West,3.5,-,,,Clear,280,18-06-2016 04:35
1223,1,12:35 AM,64.4,55.4,73,30.13,10,West,3.5,-,,,Clear,270,18-06-2016 04:55
1224,2,12:55 AM,64.4,55.4,73,30.14,10,West,3.5,-,,,Clear,270,18-06-2016 05:00
1225,3,1:00 AM,64.4,53.6,68,30.14,10,West,3.5,-,,,Clear,270,18-06-2016 05:35
1226,4,1:35 AM,64.4,53.6,68,30.14,10,West,3.5,-,,,Clear,260,18-06-2016 05:55
1227,5,1:55 AM,64.4,53.6,68,30.14,10,West,4.6,-,,,Clear,270,18-06-2016 06:00
1228,6,2:00 AM,64.4,51.8,64,30.14,10,West,5.8,-,,,Clear,260,18-06-2016 06:35
1229,7,2:35 AM,64.4,51.8,64,30.13,10,West,4.6,-,,,Clear,270,18-06-2016 06:55
1230,8,2:55 AM,64.4,51.8,64,30.13,10,West,4.6,-,,,Clear,270,18-06-2016 07:00
1231,9,3:00 AM,64.4,50,59,30.13,10,West,4.6,-,,,Clear,270,18-06-2016 07:35
1232,10,3:35 AM,64.4,50,59,30.13,10,West,5.8,-,,,Clear,260,18-06-2016 07:55
1233,11,3:55 AM,64.4,51.8,64,30.14,10,WSW,4.6,-,,,Clear,250,18-06-2016 08:00
1234,12,4:00 AM,64.4,51.8,64,30.14,10,WSW,4.6,-,,,Clear,250,18-06-2016 08:35
1235,13,4:35 AM,64.4,51.8,64,30.14,10,WSW,4.6,-,,,Clear,250,18-06-2016 08:55
1236,14,4:55 AM,64.4,51.8,64,30.15,10,WSW,5.8,-,,,Clear,250,18-06-2016 09:00
1237,15,5:00 AM,62.6,53.6,72,30.16,10,West,4.6,-,,,Clear,260,18-06-2016 09:35
1238,16,5:35 AM,62.6,53.6,72,30.17,10,WSW,5.8,-,,,Clear,250,18-06-2016 09:55
1239,17,5:55 AM,62.6,53.6,72,30.18,10,SW,3.5,-,,,Clear,220,18-06-2016 10:00
1240,18,6:00 AM,62.6,53.6,72,30.19,10,West,3.5,-,,,Clear,260,18-06-2016 10:35
1241,19,6:35 AM,62.6,53.6,72,30.2,10,West,4.6,-,,,Clear,260,18-06-2016 10:55
1242,20,6:55 AM,62.6,53.6,72,30.2,10,West,5.8,-,,,Clear,260,18-06-2016 11:00
1243,21,7:00 AM,62.6,53.6,72,30.2,10,West,3.5,-,,,Clear,260,18-06-2016 11:35
1244,22,7:35 AM,64.4,51.8,64,30.21,10,West,4.6,-,,,Clear,260,18-06-2016 11:55
1245,23,7:55 AM,64.4,55.4,73,30.21,10,WSW,4.6,-,,,Clear,240,18-06-2016 12:00
1246,24,8:00 AM,64.4,53.6,68,30.22,10,Calm,Calm,-,,,Clear,0,18-06-2016 12:35
1247,25,8:35 AM,64.4,53.6,68,30.22,10,West,3.5,-,,,Clear,260,18-06-2016 12:55
1248,26,8:55 AM,66.2,53.6,64,30.22,10,West,3.5,-,,,Clear,270,18-06-2016 13:00
1249,27,9:00 AM,68,53.6,60,30.23,10,WSW,3.5,-,,,Clear,250,18-06-2016 13:35
1250,28,9:35 AM,69.8,51.8,53,30.23,10,Calm,Calm,-,,,Clear,0,18-06-2016 13:55
1251,29,9:55 AM,73.4,51.8,47,30.23,10,WSW,4.6,-,,,Clear,240,18-06-2016 14:00
1252,30,10:00 AM,73.4,51.8,47,30.23,10,West,4.6,-,,,Clear,260,18-06-2016 14:35
1253,31,10:35 AM,75.2,50,41,30.24,10,SSE,3.5,-,,,Clear,160,18-06-2016 14:55
1254,32,10:55 AM,77,50,39,30.24,10,WSW,4.6,-,,,Clear,240,18-06-2016 15:00
1255,33,11:00 AM,78.8,51.8,39,30.25,10,West,5.8,-,,,Clear,270,18-06-2016 15:35
1256,34,11:35 AM,78.8,53.6,42,30.25,10,WNW,13.8,46,,,Clear,290,18-06-2016 15:55
1257,35,11:55 AM,78.8,53.6,42,30.25,10,WSW,4.6,-,,,Clear,250,18-06-2016 16:00
1258,36,12:00 PM,78.8,53.6,42,30.24,10,Calm,Calm,-,,,Clear,0,18-06-2016 16:35
1259,37,12:35 PM,80.6,53.6,39,30.24,10,West,3.5,-,,,Clear,260,18-06-2016 16:55
1260,38,12:55 PM,80.6,53.6,39,30.24,10,West,5.8,-,,,Clear,260,18-06-2016 17:00
1261,39,1:00 PM,82.4,53.6,37,30.24,10,West,3.5,-,,,Clear,260,18-06-2016 17:35
1262,40,1:35 PM,82.4,53.6,37,30.24,10,WSW,3.5,-,,,Clear,240,18-06-2016 17:55
1263,41,1:55 PM,84.2,51.8,33,30.23,10,West,5.8,-,,,Clear,270,18-06-2016 18:00
1264,42,2:00 PM,84.2,51.8,33,30.23,10,West,6.9,-,,,Clear,270,18-06-2016 18:35
1265,43,2:35 PM,84.2,51.8,33,30.22,10,WSW,3.5,-,,,Clear,250,18-06-2016 18:55
1266,44,2:55 PM,82.4,53.6,37,30.21,10,SW,9.2,-,,,Scattered Clouds,220,18-06-2016 19:00
1267,45,3:00 PM,82.4,51.8,35,30.22,9,SW,6.9,-,,,Mostly Cloudy,230,18-06-2016 19:35
1268,46,3:35 PM,84.2,51.8,33,30.22,10,SSW,4.6,-,,,Scattered Clouds,200,18-06-2016 19:55
1269,47,3:55 PM,84.2,51.8,33,30.22,9,SW,4.6,-,,,Clear,230,18-06-2016 20:00
1270,48,4:00 PM,84.2,51.8,33,30.22,10,South,6.9,-,,,Clear,170,18-06-2016 20:35
1271,49,4:35 PM,84.2,51.8,33,30.22,10,South,6.9,-,,,Clear,180,18-06-2016 20:55
1272,50,4:55 PM,82.4,51.8,35,30.22,10,South,4.6,-,,,Clear,190,18-06-2016 21:00
1273,51,5:00 PM,84.2,48.2,29,30.22,10,South,8.1,-,,,Clear,170,18-06-2016 21:35
1274,52,5:35 PM,80.6,48.2,32,30.22,10,SSE,6.9,-,,,Clear,150,18-06-2016 21:55
1275,53,5:55 PM,80.6,50,34,30.22,10,Calm,Calm,-,,,Partly Cloudy,0,18-06-2016 22:00
1276,54,6:00 PM,80.6,48.2,32,30.22,10,South,6.9,-,,,Clear,190,18-06-2016 22:35
1277,55,6:35 PM,77,53.6,44,30.23,10,South,9.2,-,,,Clear,180,18-06-2016 22:55
1278,56,6:55 PM,75.2,51.8,44,30.23,10,South,10.4,-,,,Clear,180,18-06-2016 23:00
1279,57,7:00 PM,77,48.2,36,30.24,10,SSE,5.8,-,,,Clear,160,18-06-2016 23:35
1280,58,7:35 PM,75.2,51.8,44,30.24,10,Calm,Calm,-,,,Clear,0,18-06-2016 23:55
1281,59,7:55 PM,75.2,48.2,38,30.24,10,SSE,8.1,-,,,Clear,160,19-06-2016 00:00
1282,60,8:00 PM,75.2,51.8,44,30.25,10,South,3.5,-,,,Clear,190,19-06-2016 00:35
1283,61,8:35 PM,75.2,50,41,30.25,10,Calm,Calm,-,,,Clear,0,19-06-2016 00:55
1284,62,8:55 PM,73.4,51.8,47,30.26,10,Calm,Calm,-,,,Clear,0,19-06-2016 01:00
1285,63,9:00 PM,73.4,51.8,47,30.26,10,Calm,Calm,-,,,Clear,0,19-06-2016 01:35
1286,64,9:35 PM,73.4,51.8,47,30.27,10,Calm,Calm,-,,,Clear,0,19-06-2016 01:55
1287,65,9:55 PM,73.4,51.8,47,30.28,10,Calm,Calm,-,,,Clear,0,19-06-2016 02:00
1288,66,10:00 PM,73.4,53.6,50,30.29,10,Calm,Calm,-,,,Partly Cloudy,0,19-06-2016 02:35
1289,67,10:35 PM,73.4,53.6,50,30.29,10,Calm,Calm,-,,,Mostly Cloudy,0,19-06-2016 02:55
1290,68,10:55 PM,73.4,53.6,50,30.29,10,Calm,Calm,-,,,Partly Cloudy,0,19-06-2016 03:00
1291,69,11:00 PM,73.4,53.6,50,30.3,10,Calm,Calm,-,,,Mostly Cloudy,0,19-06-2016 03:35
1292,70,11:35 PM,73.4,53.6,50,30.3,10,West,3.5,-,,,Mostly Cloudy,280,19-06-2016 03:55
1293,71,11:55 PM,73.4,53.6,50,30.3,10,WNW,4.6,-,,,Mostly Cloudy,290,19-06-2016 04:00
1294,0,12:00 AM,71.6,51.8,50,30.3,10,WNW,4.6,-,,,Mostly Cloudy,290,19-06-2016 04:35
1295,1,12:35 AM,71.6,51.8,50,30.3,10,West,3.5,-,,,Mostly Cloudy,280,19-06-2016 04:55
1296,2,12:55 AM,71.6,51.8,50,30.3,10,WNW,4.6,-,,,Mostly Cloudy,300,19-06-2016 05:00
1297,3,1:00 AM,71.6,50,46,30.3,10,West,3.5,-,,,Mostly Cloudy,270,19-06-2016 05:35
1298,4,1:35 AM,71.6,48.2,43,30.3,10,West,3.5,-,,,Mostly Cloudy,270,19-06-2016 05:55
1299,5,1:55 AM,71.6,50,46,30.3,10,WSW,4.6,-,,,Partly Cloudy,250,19-06-2016 06:00
1300,6,2:00 AM,69.8,51.8,53,30.3,10,Calm,Calm,-,,,Clear,0,19-06-2016 06:35
1301,7,2:35 AM,69.8,50,49,30.3,10,West,3.5,-,,,Partly Cloudy,260,19-06-2016 06:55
1302,8,2:55 AM,69.8,51.8,53,30.3,10,Calm,Calm,-,,,Partly Cloudy,0,19-06-2016 07:00
1303,9,3:00 AM,69.8,51.8,53,30.3,10,West,3.5,-,,,Clear,270,19-06-2016 07:35
1304,10,3:35 AM,69.8,51.8,53,30.3,10,Calm,Calm,-,,,Partly Cloudy,0,19-06-2016 07:55
1305,11,3:55 AM,69.8,51.8,53,30.3,10,West,3.5,-,,,Mostly Cloudy,280,19-06-2016 08:00
1306,12,4:00 AM,69.8,51.8,53,30.3,10,West,4.6,-,,,Overcast,280,19-06-2016 08:35
1307,13,4:35 AM,69.8,53.6,56,30.3,10,West,4.6,-,,,Overcast,280,19-06-2016 08:55
1308,14,4:55 AM,68,53.6,60,30.3,10,West,3.5,-,,,Mostly Cloudy,270,19-06-2016 09:00
1309,15,5:00 AM,68,53.6,60,30.3,10,WSW,3.5,-,,,Mostly Cloudy,250,19-06-2016 09:35
1310,16,5:35 AM,66.2,55.4,68,30.3,10,WSW,3.5,-,,,Scattered Clouds,240,19-06-2016 09:55
1311,17,5:55 AM,66.2,55.4,68,30.31,10,WSW,3.5,-,,,Partly Cloudy,240,19-06-2016 10:00
1312,18,6:00 AM,66.2,55.4,68,30.3,10,SW,3.5,-,,,Clear,230,19-06-2016 10:35
1313,19,6:35 AM,66.2,55.4,68,30.31,10,West,3.5,-,,,Clear,260,19-06-2016 10:55
1314,20,6:55 AM,66.2,55.4,68,30.31,10,WSW,3.5,-,,,Clear,250,19-06-2016 11:00
1315,21,7:00 AM,66.2,55.4,68,30.31,10,West,4.6,-,,,Clear,260,19-06-2016 11:35
1316,22,7:35 AM,66.2,57.2,73,30.31,10,WSW,3.5,-,,,Clear,250,19-06-2016 11:55
1317,23,7:55 AM,66.2,55.4,68,30.32,10,WSW,5.8,-,,,Clear,240,19-06-2016 12:00
1318,24,8:00 AM,66.2,55.4,68,30.31,10,WSW,4.6,40.3,,,Clear,250,19-06-2016 12:35
1319,25,8:35 AM,68,55.4,64,30.31,10,West,5.8,-,,,Clear,260,19-06-2016 12:55
1320,26,8:55 AM,68,55.4,64,30.31,10,WSW,4.6,-,,,Clear,250,19-06-2016 13:00
1321,27,9:00 AM,69.8,55.4,60,30.31,10,WSW,4.6,-,,,Clear,250,19-06-2016 13:35
1322,28,9:35 AM,73.4,57.2,57,30.31,10,Calm,Calm,-,,,Clear,0,19-06-2016 13:55
1323,29,9:55 AM,73.4,55.4,53,30.31,10,Calm,Calm,-,,,Clear,0,19-06-2016 14:00
1324,30,10:00 AM,75.2,57.2,53,30.31,10,Calm,Calm,-,,,Clear,0,19-06-2016 14:35
1325,31,10:35 AM,78.8,55.4,44,30.31,10,Calm,Calm,-,,,Clear,0,19-06-2016 14:55
1326,32,10:55 AM,80.6,55.4,42,30.31,10,Calm,Calm,-,,,Clear,0,19-06-2016 15:00
1327,33,11:00 AM,82.4,55.4,39,30.31,10,WSW,5.8,-,,,Clear,250,19-06-2016 15:35
1328,34,11:35 AM,82.4,55.4,39,30.31,10,West,4.6,-,,,Clear,260,19-06-2016 15:55
1329,35,11:55 AM,82.4,55.4,39,30.3,10,West,3.5,-,,,Clear,270,19-06-2016 16:00
1330,36,12:00 PM,84.2,53.6,35,30.29,10,WSW,5.8,-,,,Clear,240,19-06-2016 16:35
1331,37,12:35 PM,84.2,55.4,37,30.29,10,West,3.5,-,,,Clear,270,19-06-2016 16:55
1332,38,12:55 PM,84.2,57.2,40,30.28,10,West,3.5,-,,,Clear,260,19-06-2016 17:00
1333,39,1:00 PM,84.2,57.2,40,30.28,10,SE,9.2,-,,,Clear,140,19-06-2016 17:35
1334,40,1:35 PM,82.4,57.2,42,30.27,10,South,12.7,17.3,,,Clear,170,19-06-2016 17:55
1335,41,1:55 PM,82.4,57.2,42,30.27,10,East,6.9,-,,,Clear,80,19-06-2016 18:00
1336,42,2:00 PM,80.6,57.2,45,30.28,10,SSE,6.9,-,,,Clear,150,19-06-2016 18:35
1337,43,2:35 PM,80.6,57.2,45,30.27,10,East,3.5,-,,,Clear,100,19-06-2016 18:55
1338,44,2:55 PM,80.6,57.2,45,30.27,10,East,6.9,-,,,Clear,100,19-06-2016 19:00
1339,45,3:00 PM,80.6,59,48,30.27,10,SSE,11.5,16.1,,,Clear,150,19-06-2016 19:35
1340,46,3:35 PM,80.6,59,48,30.26,10,SSE,9.2,-,,,Clear,150,19-06-2016 19:55
1341,47,3:55 PM,80.6,60.8,51,30.26,10,East,4.6,-,,,Clear,100,19-06-2016 20:00
1342,48,4:00 PM,78.8,60.8,54,30.26,10,ESE,6.9,-,,,Clear,110,19-06-2016 20:35
1343,49,4:35 PM,78.8,57.2,47,30.26,10,East,9.2,16.1,,,Clear,90,19-06-2016 20:55
1344,50,4:55 PM,78.8,60.8,54,30.26,10,East,5.8,-,,,Clear,100,19-06-2016 21:00
1345,51,5:00 PM,77,60.8,57,30.26,10,SSE,9.2,-,,,Clear,160,19-06-2016 21:35
1346,52,5:35 PM,75.2,60.8,61,30.26,10,SSE,3.5,-,,,Clear,160,19-06-2016 21:55
1347,53,5:55 PM,75.2,60.8,61,30.26,10,South,11.5,17.3,,,Clear,170,19-06-2016 22:00
1348,54,6:00 PM,75.2,60.8,61,30.26,10,SSE,11.5,-,,,Clear,160,19-06-2016 22:35
1349,55,6:35 PM,73.4,60.8,65,30.27,10,ESE,5.8,-,,,Clear,120,19-06-2016 22:55
1350,56,6:55 PM,73.4,60.8,65,30.26,10,SE,8.1,-,,,Clear,130,19-06-2016 23:00
1351,57,7:00 PM,71.6,60.8,69,30.26,10,SE,9.2,-,,,Clear,140,19-06-2016 23:35
1352,58,7:35 PM,71.6,60.8,69,30.27,10,ESE,4.6,-,,,Clear,120,19-06-2016 23:55
1353,59,7:55 PM,71.6,60.8,69,30.27,10,ESE,4.6,-,,,Clear,110,20-06-2016 00:00
1354,60,8:00 PM,69.8,60.8,73,30.27,10,East,5.8,-,,,Clear,100,20-06-2016 00:35
1355,61,8:35 PM,69.8,60.8,73,30.27,10,ESE,3.5,-,,,Clear,110,20-06-2016 00:55
1356,62,8:55 PM,69.8,59,68,30.27,10,Calm,Calm,-,,,Clear,0,20-06-2016 01:00
1357,63,9:00 PM,69.8,59,68,30.28,10,ESE,4.6,-,,,Clear,120,20-06-2016 01:35
1358,64,9:35 PM,69.8,59,68,30.28,10,SE,3.5,-,,,Clear,130,20-06-2016 01:55
1359,65,9:55 PM,69.8,59,68,30.29,10,Calm,Calm,-,,,Clear,0,20-06-2016 02:00
1360,66,10:00 PM,68,59,73,30.29,10,SE,3.5,-,,,Clear,130,20-06-2016 02:35
1361,67,10:35 PM,68,59,73,30.28,10,SE,5.8,-,,,Clear,130,20-06-2016 02:55
1362,68,10:55 PM,68,60.8,78,30.28,10,SE,4.6,-,,,Clear,130,20-06-2016 03:00
1363,69,11:00 PM,68,59,73,30.27,10,SE,4.6,-,,,Clear,130,20-06-2016 03:35
1364,70,11:35 PM,66.2,60.8,83,30.27,10,Calm,Calm,-,,,Clear,0,20-06-2016 03:55
1365,71,11:55 PM,66.2,60.8,83,30.27,10,Calm,Calm,-,,,Clear,0,20-06-2016 04:00
1366,0,12:00 AM,66.2,60.8,83,30.26,10,SSE,4.6,-,,,Clear,150,20-06-2016 04:35
1367,1,12:35 AM,66.2,60.8,83,30.25,10,Calm,Calm,-,,,Clear,0,20-06-2016 04:55
1368,2,12:55 AM,66.2,60.8,83,30.25,10,Calm,Calm,-,,,Clear,0,20-06-2016 05:00
1369,3,1:00 AM,66.2,60.8,83,30.23,10,SSE,3.5,-,,,Clear,160,20-06-2016 05:35
1370,4,1:35 AM,66.2,60.8,83,30.24,10,Calm,Calm,-,,,Clear,0,20-06-2016 05:55
1371,5,1:55 AM,66.2,60.8,83,30.23,10,Calm,Calm,-,,,Clear,0,20-06-2016 06:00
1372,6,2:00 AM,66.2,60.8,83,30.23,10,Calm,Calm,-,,,Clear,0,20-06-2016 06:35
1373,7,2:35 AM,66.2,60.8,83,30.22,10,East,3.5,-,,,Clear,90,20-06-2016 06:55
1374,8,2:55 AM,66.2,60.8,83,30.21,10,SSE,3.5,-,,,Clear,150,20-06-2016 07:00
1375,9,3:00 AM,66.2,60.8,83,30.21,10,Calm,Calm,-,,,Clear,0,20-06-2016 07:35
1376,10,3:35 AM,66.2,60.8,83,30.21,10,Calm,Calm,-,,,Clear,0,20-06-2016 07:55
1377,11,3:55 AM,66.2,60.8,83,30.22,10,Calm,Calm,-,,,Clear,0,20-06-2016 08:00
1378,12,4:00 AM,66.2,62.6,88,30.22,10,Calm,Calm,-,,,Clear,0,20-06-2016 08:35
1379,13,4:35 AM,66.2,62.6,88,30.21,10,NE,4.6,-,,,Clear,40,20-06-2016 08:55
1380,14,4:55 AM,66.2,62.6,88,30.21,10,Calm,Calm,-,,,Clear,0,20-06-2016 09:00
1381,15,5:00 AM,66.2,62.6,88,30.22,10,Calm,Calm,-,,,Clear,0,20-06-2016 09:35
1382,16,5:35 AM,66.2,62.6,88,30.22,10,NE,3.5,-,,,Clear,40,20-06-2016 09:55
1383,17,5:55 AM,66.2,62.6,88,30.21,10,Calm,Calm,-,,,Clear,0,20-06-2016 10:00
1384,18,6:00 AM,66.2,62.6,88,30.21,10,Calm,Calm,-,,,Clear,0,20-06-2016 10:35
1385,19,6:35 AM,66.2,62.6,88,30.21,10,Calm,Calm,-,,,Clear,0,20-06-2016 10:55
1386,20,6:55 AM,66.2,62.6,88,30.21,10,Calm,Calm,-,,,Partly Cloudy,0,20-06-2016 11:00
1387,21,7:00 AM,66.2,62.6,88,30.2,10,Calm,Calm,-,,,Clear,0,20-06-2016 11:35
1388,22,7:35 AM,66.2,62.6,88,30.21,10,WSW,3.5,-,,,Clear,250,20-06-2016 11:55
1389,23,7:55 AM,66.2,62.6,88,30.21,10,West,3.5,-,,,Clear,260,20-06-2016 12:00
1390,24,8:00 AM,66.2,62.6,88,30.2,10,Calm,Calm,-,,,Partly Cloudy,0,20-06-2016 12:35
1391,25,8:35 AM,68,62.6,83,30.2,10,WSW,3.5,-,,,Scattered Clouds,250,20-06-2016 12:55
1392,26,8:55 AM,68,62.6,83,30.21,10,West,3.5,-,,,Partly Cloudy,260,20-06-2016 13:00
1393,27,9:00 AM,69.8,64.4,83,30.2,10,West,3.5,-,,,Clear,260,20-06-2016 13:35
1394,28,9:35 AM,71.6,64.4,78,30.19,8,West,4.6,-,,,Clear,260,20-06-2016 13:55
1395,29,9:55 AM,73.4,64.4,73,30.19,10,West,8.1,-,,,Clear,270,20-06-2016 14:00
1396,30,10:00 AM,73.4,64.4,73,30.18,10,West,8.1,-,,,Clear,280,20-06-2016 14:35
1397,31,10:35 AM,73.4,64.4,73,30.18,10,West,5.8,-,,,Clear,260,20-06-2016 14:55
1398,32,10:55 AM,73.4,64.4,73,30.17,10,West,8.1,-,,,Clear,280,20-06-2016 15:00
1399,33,11:00 AM,75.2,64.4,69,30.17,10,West,3.5,-,,,Clear,270,20-06-2016 15:35
1400,34,11:35 AM,75.2,64.4,69,30.16,8,West,4.6,-,,,Clear,270,20-06-2016 15:55
1401,35,11:55 AM,78.8,64.4,61,30.15,10,Calm,Calm,-,,,Clear,0,20-06-2016 16:00
1402,36,12:00 PM,78.8,64.4,61,30.14,9,South,5.8,-,,,Clear,170,20-06-2016 16:35
1403,37,12:35 PM,78.8,64.4,61,30.14,8,SSE,6.9,-,,,Clear,160,20-06-2016 16:55
1404,38,12:55 PM,80.6,62.6,54,30.13,10,South,3.5,20.7,,,Clear,170,20-06-2016 17:00
1405,39,1:00 PM,80.6,62.6,54,30.11,10,South,3.5,-,,,Clear,170,20-06-2016 17:35
1406,40,1:35 PM,80.6,62.6,54,30.11,10,South,4.6,19.6,,,Clear,190,20-06-2016 17:55
1407,41,1:55 PM,80.6,62.6,54,30.09,8,SE,6.9,-,,,Clear,140,20-06-2016 18:00
1408,42,2:00 PM,80.6,62.6,54,30.09,10,SE,5.8,-,,,Clear,140,20-06-2016 18:35
1409,43,2:35 PM,80.6,62.6,54,30.07,10,South,4.6,-,,,Clear,170,20-06-2016 18:55
1410,44,2:55 PM,80.6,62.6,54,30.06,10,SE,8.1,-,,,Clear,130,20-06-2016 19:00
1411,45,3:00 PM,80.6,62.6,54,30.06,10,SSE,5.8,-,,,Mostly Cloudy,160,20-06-2016 19:35
1412,46,3:35 PM,80.6,64.4,58,30.05,10,SE,9.2,-,,,Partly Cloudy,130,20-06-2016 19:55
1413,47,3:55 PM,78.8,64.4,61,30.04,10,ESE,5.8,-,,,Clear,120,20-06-2016 20:00
1414,48,4:00 PM,78.8,62.6,57,30.03,10,SE,11.5,17.3,,,Clear,130,20-06-2016 20:35
1415,49,4:35 PM,78.8,62.6,57,30.03,10,SE,6.9,18.4,,,Clear,140,20-06-2016 20:55
1416,50,4:55 PM,78.8,62.6,57,30.01,9,SE,6.9,-,,,Clear,130,20-06-2016 21:00
1417,51,5:00 PM,78.8,62.6,57,30,10,SE,5.8,-,,,Partly Cloudy,140,20-06-2016 21:35
1418,52,5:35 PM,78.8,62.6,57,29.99,10,SE,4.6,-,,,Partly Cloudy,140,20-06-2016 21:55
1419,53,5:55 PM,80.6,62.6,54,29.99,10,SE,4.6,-,,,Clear,140,20-06-2016 22:00
1420,54,6:00 PM,80.6,62.6,54,29.98,10,Calm,Calm,-,,,Partly Cloudy,0,20-06-2016 22:35
1421,55,6:35 PM,80.6,62.6,54,29.97,10,Calm,Calm,-,,,Scattered Clouds,0,20-06-2016 22:55
1422,56,6:55 PM,80.6,62.6,54,29.96,10,South,4.6,-,,,Partly Cloudy,180,20-06-2016 23:00
1423,57,7:00 PM,78.8,64.4,61,29.95,10,Calm,Calm,-,,,Clear,0,20-06-2016 23:35
1424,58,7:35 PM,78.8,64.4,61,29.94,10,Calm,Calm,-,,,Clear,0,20-06-2016 23:55
1425,59,7:55 PM,78.8,64.4,61,29.94,10,Calm,Calm,-,,,Clear,0,21-06-2016 00:00
1426,60,8:00 PM,78.8,64.4,61,29.93,10,Calm,Calm,-,,,Clear,0,21-06-2016 00:35
1427,61,8:35 PM,78.8,64.4,61,29.93,10,Calm,Calm,-,,,Clear,0,21-06-2016 00:55
1428,62,8:55 PM,78.8,64.4,61,29.92,10,Calm,Calm,-,,,Clear,0,21-06-2016 01:00
1429,63,9:00 PM,78.8,64.4,61,29.92,10,West,4.6,-,,,Clear,270,21-06-2016 01:35
1430,64,9:35 PM,78.8,64.4,61,29.92,10,WSW,4.6,-,,,Clear,250,21-06-2016 01:55
1431,65,9:55 PM,78.8,64.4,61,29.92,10,West,5.8,-,,,Clear,260,21-06-2016 02:00
1432,66,10:00 PM,78.8,64.4,61,29.92,10,West,6.9,-,,,Clear,260,21-06-2016 02:35
1433,67,10:35 PM,78.8,64.4,61,29.91,10,West,6.9,-,,,Clear,270,21-06-2016 02:55
1434,68,10:55 PM,78.8,62.6,57,29.91,10,West,5.8,-,,,Clear,260,21-06-2016 03:00
1435,69,11:00 PM,78.8,60.8,54,29.9,10,WNW,10.4,-,,,Partly Cloudy,290,21-06-2016 03:35
1436,70,11:35 PM,78.8,57.2,47,29.89,10,West,6.9,-,,,Clear,260,21-06-2016 03:55
1437,71,11:55 PM,78.8,57.2,47,29.88,10,West,5.8,-,,,Partly Cloudy,260,21-06-2016 04:00
1438,0,12:00 AM,77,57.2,50,29.87,10,West,5.8,-,,,Clear,270,21-06-2016 04:35
1439,1,12:35 AM,77,57.2,50,29.86,10,West,6.9,-,,,Mostly Cloudy,270,21-06-2016 04:55
1440,2,12:55 AM,77,57.2,50,29.85,10,West,9.2,-,,,Scattered Clouds,280,21-06-2016 05:00
1441,3,1:00 AM,78.8,55.4,44,29.85,10,West,6.9,-,,,Partly Cloudy,270,21-06-2016 05:35
1442,4,1:35 AM,77,57.2,50,29.84,10,West,9.2,-,,,Partly Cloudy,270,21-06-2016 05:55
1443,5,1:55 AM,77,57.2,50,29.84,10,West,10.4,-,,,Clear,270,21-06-2016 06:00
1444,6,2:00 AM,75.2,57.2,53,29.83,10,West,10.4,-,,,Clear,280,21-06-2016 06:35
1445,7,2:35 AM,75.2,57.2,53,29.82,10,West,9.2,-,,,Clear,280,21-06-2016 06:55
1446,8,2:55 AM,75.2,57.2,53,29.81,10,West,6.9,-,,,Clear,280,21-06-2016 07:00
1447,9,3:00 AM,75.2,59,57,29.81,10,West,4.6,-,,,Clear,260,21-06-2016 07:35
1448,10,3:35 AM,75.2,59,57,29.81,10,West,5.8,-,,,Partly Cloudy,270,21-06-2016 07:55
1449,11,3:55 AM,75.2,60.8,61,29.8,10,West,6.9,-,,,Partly Cloudy,270,21-06-2016 08:00
1450,12,4:00 AM,75.2,60.8,61,29.79,10,West,8.1,-,,,Partly Cloudy,260,21-06-2016 08:35
1451,13,4:35 AM,75.2,60.8,61,29.79,10,West,10.4,-,,,Mostly Cloudy,270,21-06-2016 08:55
1452,14,4:55 AM,77,60.8,57,29.79,10,West,10.4,16.1,,,Overcast,270,21-06-2016 09:00
1453,15,5:00 AM,77,60.8,57,29.79,10,West,9.2,17.3,,,Mostly Cloudy,260,21-06-2016 09:35
1454,16,5:35 AM,75.2,60.8,61,29.79,10,West,9.2,18.4,,,Partly Cloudy,270,21-06-2016 09:55
1455,17,5:55 AM,75.2,60.8,61,29.8,10,West,10.4,17.3,,,Clear,270,21-06-2016 10:00
1456,18,6:00 AM,75.2,62.6,65,29.81,10,West,10.4,19.6,,,Mostly Cloudy,270,21-06-2016 10:35
1457,19,6:35 AM,77,62.6,61,29.82,10,Calm,Calm,-,,,Mostly Cloudy,0,21-06-2016 10:55
1458,20,6:55 AM,77,62.6,61,29.83,10,North,4.6,-,,,Partly Cloudy,350,21-06-2016 11:00
1459,21,7:00 AM,75.2,62.6,65,29.81,10,ESE,4.6,-,,,Clear,120,21-06-2016 11:35
1460,22,7:35 AM,73.4,60.8,65,29.78,10,SE,5.8,-,,,Clear,140,21-06-2016 11:55
1461,23,7:55 AM,73.4,60.8,65,29.77,10,West,5.8,-,,,Clear,260,21-06-2016 12:00
1462,24,8:00 AM,73.4,60.8,65,29.8,10,Calm,Calm,-,,,Clear,0,21-06-2016 12:35
1463,25,8:35 AM,75.2,60.8,61,29.82,10,Calm,Calm,-,,,Clear,0,21-06-2016 12:55
1464,26,8:55 AM,75.2,57.2,53,29.83,10,Calm,Calm,-,,,Clear,0,21-06-2016 13:00
1465,27,9:00 AM,77,55.4,47,29.84,10,South,3.5,-,,,Clear,180,21-06-2016 13:35
1466,28,9:35 AM,78.8,53.6,42,29.84,10,West,4.6,-,,,Clear,270,21-06-2016 13:55
1467,29,9:55 AM,80.6,53.6,39,29.84,10,West,3.5,-,,,Clear,280,21-06-2016 14:00
1468,30,10:00 AM,80.6,53.6,39,29.84,10,West,6.9,-,,,Clear,260,21-06-2016 14:35
1469,31,10:35 AM,82.4,53.6,37,29.84,9,WSW,5.8,-,,,Clear,250,21-06-2016 14:55
1470,32,10:55 AM,82.4,53.6,37,29.85,10,West,10.4,-,,,Clear,270,21-06-2016 15:00
1471,33,11:00 AM,82.4,53.6,37,29.86,10,WSW,8.1,-,,,Clear,250,21-06-2016 15:35
1472,34,11:35 AM,84.2,51.8,33,29.86,10,WSW,6.9,-,,,Clear,250,21-06-2016 15:55
1473,35,11:55 AM,84.2,51.8,33,29.86,10,WSW,4.6,-,,,Clear,250,21-06-2016 16:00
1474,36,12:00 PM,84.2,51.8,33,29.85,10,WSW,5.8,-,,,Clear,250,21-06-2016 16:35
1475,37,12:35 PM,82.4,55.4,39,29.84,10,SSW,6.9,-,,,Clear,200,21-06-2016 16:55
1476,38,12:55 PM,84.2,51.8,33,29.84,10,SW,4.6,-,,,Scattered Clouds,230,21-06-2016 17:00
1477,39,1:00 PM,84.2,51.8,33,29.83,10,West,6.9,-,,,Mostly Cloudy,270,21-06-2016 17:35
1478,40,1:35 PM,84.2,51.8,33,29.82,10,SW,3.5,-,,,Partly Cloudy,230,21-06-2016 17:55
1479,41,1:55 PM,87.8,53.6,31,29.82,10,WSW,5.8,-,,,Clear,250,21-06-2016 18:00
1480,42,2:00 PM,86,53.6,33,29.81,10,WSW,3.5,-,,,Scattered Clouds,250,21-06-2016 18:35
1481,43,2:35 PM,87.8,55.4,33,29.8,10,SW,4.6,-,,,Partly Cloudy,220,21-06-2016 18:55
1482,44,2:55 PM,87.8,55.4,33,29.8,10,WSW,5.8,-,,,Mostly Cloudy,250,21-06-2016 19:00
1483,45,3:00 PM,87.8,55.4,33,29.79,10,West,6.9,-,,,Scattered Clouds,260,21-06-2016 19:35
1484,46,3:35 PM,87.8,55.4,33,29.77,10,SW,4.6,-,,,Partly Cloudy,220,21-06-2016 19:55
1485,47,3:55 PM,87.8,55.4,33,29.77,10,SW,5.8,-,,,Clear,220,21-06-2016 20:00
1486,48,4:00 PM,86,55.4,35,29.77,10,SW,6.9,-,,,Scattered Clouds,220,21-06-2016 20:35
1487,49,4:35 PM,82.4,57.2,42,29.77,10,SSW,5.8,-,,,Scattered Clouds,200,21-06-2016 20:55
1488,50,4:55 PM,82.4,59,45,29.76,10,South,4.6,-,,,Partly Cloudy,190,21-06-2016 21:00
1489,51,5:00 PM,80.6,60.8,51,29.76,10,SSE,5.8,17.3,,,Mostly Cloudy,160,21-06-2016 21:35
1490,52,5:35 PM,80.6,60.8,51,29.76,10,SW,3.5,-,,,Mostly Cloudy,230,21-06-2016 21:55
1491,53,5:55 PM,80.6,64.4,58,29.76,10,Calm,Calm,-,,,Scattered Clouds,0,21-06-2016 22:00
1492,54,6:00 PM,80.6,64.4,58,29.75,10,WNW,3.5,-,,,Partly Cloudy,300,21-06-2016 22:35
1493,55,6:35 PM,80.6,64.4,58,29.75,10,West,3.5,-,,,Clear,270,21-06-2016 22:55
1494,56,6:55 PM,80.6,66.2,61,29.76,10,West,3.5,-,,,Clear,270,21-06-2016 23:00
1495,57,7:00 PM,78.8,66.2,65,29.76,10,Calm,Calm,-,,,Partly Cloudy,0,21-06-2016 23:35
1496,58,7:35 PM,78.8,66.2,65,29.75,10,Calm,Calm,-,,,Scattered Clouds,0,21-06-2016 23:55
1497,59,7:55 PM,78.8,66.2,65,29.76,10,Calm,Calm,-,,,Clear,0,22-06-2016 00:00
1498,60,8:00 PM,78.8,66.2,65,29.76,10,Calm,Calm,-,,,Mostly Cloudy,0,22-06-2016 00:35
1499,61,8:35 PM,78.8,66.2,65,29.77,10,Calm,Calm,-,,,Overcast,0,22-06-2016 00:55
1500,62,8:55 PM,78.8,59,51,29.78,10,Calm,Calm,-,,,Scattered Clouds,0,22-06-2016 01:00
1501,63,9:00 PM,78.8,51.8,39,29.79,10,Calm,Calm,-,,,Clear,0,22-06-2016 01:35
1502,64,9:35 PM,78.8,48.2,34,29.8,10,Calm,Calm,-,,,Scattered Clouds,0,22-06-2016 01:55
1503,65,9:55 PM,78.8,48.2,34,29.8,10,Calm,Calm,-,,,Partly Cloudy,0,22-06-2016 02:00
1504,66,10:00 PM,77,51.8,41,29.8,10,Calm,Calm,-,,,Clear,0,22-06-2016 02:35
1505,67,10:35 PM,77,48.2,36,29.81,10,South,3.5,-,,,Clear,190,22-06-2016 02:55
1506,68,10:55 PM,77,46.4,34,29.8,10,Calm,Calm,-,,,Clear,0,22-06-2016 03:00
1507,69,11:00 PM,77,46.4,34,29.8,10,NE,10.4,-,,,Clear,50,22-06-2016 03:35
1508,70,11:35 PM,75.2,51.8,44,29.81,10,ENE,4.6,-,,,Clear,60,22-06-2016 03:55
1509,71,11:55 PM,75.2,50,41,29.81,10,East,4.6,-,,,Clear,90,22-06-2016 04:00
1510,0,12:00 AM,73.4,50,44,29.82,10,NE,4.6,-,,,Clear,40,22-06-2016 04:35
1511,1,12:35 AM,73.4,51.8,47,29.82,10,NE,5.8,-,,,Partly Cloudy,50,22-06-2016 04:55
1512,2,12:55 AM,73.4,51.8,47,29.82,10,NE,4.6,-,,,Mostly Cloudy,40,22-06-2016 05:00
1513,3,1:00 AM,73.4,50,44,29.82,10,NE,4.6,-,,,Overcast,50,22-06-2016 05:35
1514,4,1:35 AM,73.4,48.2,41,29.81,10,Calm,Calm,-,,,Mostly Cloudy,0,22-06-2016 05:55
1515,5,1:55 AM,73.4,48.2,41,29.81,10,Calm,Calm,-,,,Mostly Cloudy,0,22-06-2016 06:00
1516,6,2:00 AM,71.6,53.6,53,29.81,10,Calm,Calm,-,,,Partly Cloudy,0,22-06-2016 06:35
1517,7,2:35 AM,73.4,46.4,38,29.81,10,Calm,Calm,-,,,Clear,0,22-06-2016 06:55
1518,8,2:55 AM,71.6,55.4,57,29.81,10,Calm,Calm,-,,,Clear,0,22-06-2016 07:00
1519,9,3:00 AM,71.6,50,46,29.81,10,Calm,Calm,-,,,Clear,0,22-06-2016 07:35
1520,10,3:35 AM,71.6,53.6,53,29.81,10,Calm,Calm,-,,,Clear,0,22-06-2016 07:55
1521,11,3:55 AM,71.6,53.6,53,29.81,10,Calm,Calm,-,,,Clear,0,22-06-2016 08:00
1522,12,4:00 AM,71.6,53.6,53,29.81,10,Calm,Calm,-,,,Clear,0,22-06-2016 08:35
1523,13,4:35 AM,69.8,57.2,64,29.81,10,Calm,Calm,-,,,Clear,0,22-06-2016 08:55
1524,14,4:55 AM,71.6,51.8,50,29.81,10,ENE,3.5,-,,,Clear,60,22-06-2016 09:00
1525,15,5:00 AM,73.4,46.4,38,29.81,10,Calm,Calm,-,,,Clear,0,22-06-2016 09:35
1526,16,5:35 AM,69.8,55.4,60,29.81,10,Calm,Calm,-,,,Clear,0,22-06-2016 09:55
1527,17,5:55 AM,69.8,57.2,64,29.81,10,Calm,Calm,-,,,Clear,0,22-06-2016 10:00
1528,18,6:00 AM,69.8,55.4,60,29.81,10,Calm,Calm,-,,,Clear,0,22-06-2016 10:35
1529,19,6:35 AM,69.8,57.2,64,29.81,10,Calm,Calm,-,,,Clear,0,22-06-2016 11:00
1530,20,7:00 AM,71.6,53.6,53,29.81,10,Calm,Calm,-,,,Clear,0,22-06-2016 11:35
1531,21,7:35 AM,71.6,55.4,57,29.81,10,Calm,Calm,-,,,Clear,0,22-06-2016 11:55
1532,22,7:55 AM,71.6,51.8,50,29.81,10,Calm,Calm,-,,,Clear,0,22-06-2016 12:00
1533,23,8:00 AM,73.4,53.6,50,29.81,10,West,3.5,-,,,Partly Cloudy,260,22-06-2016 12:35
1534,24,8:35 AM,73.4,53.6,50,29.8,10,Calm,Calm,-,,,Partly Cloudy,0,22-06-2016 12:55
1535,25,8:55 AM,73.4,55.4,53,29.81,8,West,5.8,-,,,Partly Cloudy,270,22-06-2016 13:00
1536,26,9:00 AM,75.2,55.4,50,29.81,10,West,5.8,-,,,Clear,280,22-06-2016 13:35
1537,27,9:35 AM,75.2,53.6,47,29.81,7,SW,4.6,-,,,Clear,230,22-06-2016 13:55
1538,28,9:55 AM,77,53.6,44,29.82,10,WSW,6.9,-,,,Clear,250,22-06-2016 14:00
1539,29,10:00 AM,78.8,55.4,44,29.83,10,West,5.8,-,,,Clear,270,22-06-2016 14:35
1540,30,10:35 AM,80.6,53.6,39,29.82,10,West,5.8,-,,,Clear,260,22-06-2016 14:55
1541,31,10:55 AM,80.6,55.4,42,29.82,10,SW,5.8,-,,,Clear,230,22-06-2016 15:00
1542,32,11:00 AM,80.6,57.2,45,29.81,8,SSW,5.8,-,,,Partly Cloudy,210,22-06-2016 15:35
1543,33,11:35 AM,82.4,53.6,37,29.81,10,West,10.4,16.1,,,Partly Cloudy,260,22-06-2016 15:55
1544,34,11:55 AM,84.2,51.8,33,29.81,10,West,10.4,16.1,,,Partly Cloudy,280,22-06-2016 16:00
1545,35,12:00 PM,84.2,48.2,29,29.8,10,West,9.2,-,,,Clear,260,22-06-2016 16:35
1546,36,12:35 PM,84.2,48.2,29,29.81,10,NNW,5.8,-,,,Clear,340,22-06-2016 16:55
1547,37,12:55 PM,86,48.2,27,29.81,10,WNW,3.5,-,,,Clear,300,22-06-2016 17:00
1548,38,1:00 PM,86,51.8,31,29.82,10,NW,4.6,-,,,Clear,320,22-06-2016 17:35
1549,39,1:35 PM,87.8,48.2,25,29.82,10,NNW,4.6,19.6,,,Partly Cloudy,330,22-06-2016 17:55
1550,40,1:55 PM,87.8,48.2,25,29.82,10,NW,4.6,-,,,Partly Cloudy,310,22-06-2016 18:00
1551,41,2:00 PM,86,46.4,25,29.82,10,NW,5.8,42.6,,,Partly Cloudy,320,22-06-2016 18:35
1552,42,2:35 PM,86,46.4,25,29.83,10,West,4.6,-,,,Clear,280,22-06-2016 18:55
1553,43,2:55 PM,86,46.4,25,29.82,10,NE,5.8,-,,,Partly Cloudy,50,22-06-2016 19:00
1554,44,3:00 PM,86,46.4,25,29.82,10,North,3.5,-,,,Mostly Cloudy,350,22-06-2016 19:35
1555,45,3:35 PM,86,46.4,25,29.82,10,Calm,Calm,-,,,Partly Cloudy,0,22-06-2016 19:55
1556,46,3:55 PM,87.8,46.4,24,29.83,10,WNW,4.6,-,,,Clear,300,22-06-2016 20:00
1557,47,4:00 PM,87.8,46.4,24,29.83,10,West,8.1,-,,,Clear,270,22-06-2016 20:35
1558,48,4:35 PM,84.2,46.4,27,29.84,10,West,5.8,-,,,Scattered Clouds,270,22-06-2016 20:55
1559,49,4:55 PM,86,46.4,25,29.83,10,WNW,5.8,-,,,Scattered Clouds,290,22-06-2016 21:00
1560,50,5:00 PM,86,48.2,27,29.84,10,WSW,4.6,-,,,Clear,250,22-06-2016 21:35
1561,51,5:35 PM,86,48.2,27,29.84,10,NNE,3.5,-,,,Clear,20,22-06-2016 21:55
1562,52,5:55 PM,84.2,48.2,29,29.83,10,WNW,3.5,-,,,Scattered Clouds,290,22-06-2016 22:00
1563,53,6:00 PM,84.2,48.2,29,29.84,10,Calm,Calm,-,,,Mostly Cloudy,0,22-06-2016 22:35
1564,54,6:35 PM,84.2,48.2,29,29.84,10,Calm,Calm,-,,,Mostly Cloudy,0,22-06-2016 22:55
1565,55,6:55 PM,82.4,50,32,29.85,10,Calm,Calm,-,,,Scattered Clouds,0,22-06-2016 23:00
1566,56,7:00 PM,82.4,50,32,29.85,10,NW,3.5,-,,,Scattered Clouds,310,22-06-2016 23:35
1567,57,7:35 PM,82.4,51.8,35,29.85,10,Calm,Calm,-,,,Partly Cloudy,0,22-06-2016 23:55
1568,58,7:55 PM,80.6,50,34,29.85,10,Calm,Calm,-,,,Partly Cloudy,0,23-06-2016 00:00
1569,59,8:00 PM,80.6,51.8,37,29.86,10,Calm,Calm,-,,,Clear,0,23-06-2016 00:35
1570,60,8:35 PM,80.6,48.2,32,29.87,10,Calm,Calm,-,,,Clear,0,23-06-2016 00:55
1571,61,8:55 PM,80.6,48.2,32,29.88,10,Calm,Calm,-,,,Partly Cloudy,0,23-06-2016 01:00
1572,62,9:00 PM,80.6,48.2,32,29.89,10,Calm,Calm,-,,,Partly Cloudy,0,23-06-2016 01:35
1573,63,9:35 PM,78.8,50,36,29.89,10,Calm,Calm,-,,,Partly Cloudy,0,23-06-2016 01:55
1574,64,9:55 PM,78.8,50,36,29.9,10,Calm,Calm,-,,,Partly Cloudy,0,23-06-2016 02:00
1575,65,10:00 PM,78.8,48.2,34,29.91,10,Calm,Calm,-,,,Clear,0,23-06-2016 02:35
1576,66,10:35 PM,78.8,48.2,34,29.92,10,Calm,Calm,-,,,Clear,0,23-06-2016 02:55
1577,67,10:55 PM,78.8,48.2,34,29.93,10,Calm,Calm,-,,,Clear,0,23-06-2016 03:00
1578,68,11:00 PM,75.2,51.8,44,29.93,10,Calm,Calm,-,,,Scattered Clouds,0,23-06-2016 03:35
1579,69,11:35 PM,75.2,51.8,44,29.93,10,Calm,Calm,-,,,Partly Cloudy,0,23-06-2016 03:55
1580,70,11:55 PM,73.4,57.2,57,29.92,10,Calm,Calm,-,,,Clear,0,23-06-2016 04:00
1581,0,12:00 AM,71.6,57.2,60,29.92,10,SSW,3.5,-,,,Clear,210,23-06-2016 04:35
1582,1,12:35 AM,73.4,53.6,50,29.92,10,Calm,Calm,-,,,Clear,0,23-06-2016 04:55
1583,2,12:55 AM,73.4,50,44,29.91,10,Calm,Calm,-,,,Partly Cloudy,0,23-06-2016 05:00
1584,3,1:00 AM,75.2,51.8,44,29.91,10,Calm,Calm,-,,,Partly Cloudy,0,23-06-2016 05:35
1585,4,1:35 AM,77,51.8,41,29.91,10,Calm,Calm,-,,,Clear,0,23-06-2016 05:55
1586,5,1:55 AM,73.4,57.2,57,29.91,10,Calm,Calm,-,,,Mostly Cloudy,0,23-06-2016 06:00
1587,6,2:00 AM,73.4,55.4,53,29.92,10,West,3.5,-,,,Overcast,280,23-06-2016 06:35
1588,7,2:35 AM,73.4,55.4,53,29.92,10,Calm,Calm,-,,,Mostly Cloudy,0,23-06-2016 06:55
1589,8,2:55 AM,73.4,57.2,57,29.92,10,NE,3.5,-,,,Mostly Cloudy,40,23-06-2016 07:00
1590,9,3:00 AM,71.6,59,64,29.91,10,Calm,Calm,-,,,Mostly Cloudy,0,23-06-2016 07:35
1591,10,3:35 AM,73.4,53.6,50,29.89,10,NE,5.8,-,,,Partly Cloudy,50,23-06-2016 07:55
1592,11,3:55 AM,71.6,55.4,57,29.89,10,ENE,6.9,-,,,Clear,70,23-06-2016 08:00
1593,12,4:00 AM,71.6,55.4,57,29.89,10,NE,5.8,-,,,Clear,40,23-06-2016 08:35
1594,13,4:35 AM,73.4,53.6,50,29.88,10,NE,6.9,-,,,Clear,50,23-06-2016 08:55
1595,14,4:55 AM,73.4,53.6,50,29.89,10,NE,5.8,-,,,Clear,50,23-06-2016 09:00
1596,15,5:00 AM,71.6,55.4,57,29.9,10,ENE,3.5,-,,,Clear,60,23-06-2016 09:35
1597,16,5:35 AM,71.6,55.4,57,29.89,10,Calm,Calm,-,,,Clear,0,23-06-2016 09:55
1598,17,5:55 AM,71.6,55.4,57,29.88,10,Calm,Calm,-,,,Clear,0,23-06-2016 10:00
1599,18,6:00 AM,71.6,55.4,57,29.89,10,Calm,Calm,-,,,Clear,0,23-06-2016 10:35
1600,19,6:35 AM,71.6,55.4,57,29.9,10,West,3.5,-,,,Clear,260,23-06-2016 10:55
1601,20,6:55 AM,71.6,55.4,57,29.9,10,West,5.8,-,,,Clear,270,23-06-2016 11:00
1602,21,7:00 AM,71.6,55.4,57,29.9,10,West,4.6,-,,,Clear,260,23-06-2016 11:35
1603,22,7:35 AM,71.6,57.2,60,29.89,10,SSW,3.5,-,,,Clear,210,23-06-2016 11:55
1604,23,7:55 AM,71.6,57.2,60,29.89,10,Calm,Calm,-,,,Clear,0,23-06-2016 12:00
1605,24,8:00 AM,73.4,55.4,53,29.89,10,WSW,4.6,-,,,Clear,250,23-06-2016 12:35
1606,25,8:35 AM,73.4,55.4,53,29.89,10,WSW,4.6,-,,,Clear,250,23-06-2016 12:55
1607,26,8:55 AM,73.4,55.4,53,29.88,10,West,4.6,-,,,Clear,270,23-06-2016 13:00
1608,27,9:00 AM,75.2,55.4,50,29.88,10,West,5.8,-,,,Scattered Clouds,260,23-06-2016 13:35
1609,28,9:35 AM,75.2,55.4,50,29.89,10,WSW,6.9,-,,,Mostly Cloudy,250,23-06-2016 13:55
1610,29,9:55 AM,73.4,57.2,57,29.89,10,WSW,8.1,-,,,Overcast,240,23-06-2016 14:00
1611,30,10:00 AM,73.4,57.2,57,29.89,10,Calm,Calm,-,,,Overcast,0,23-06-2016 14:35
1612,31,10:35 AM,73.4,57.2,57,29.89,9,SW,3.5,-,,,Overcast,230,23-06-2016 14:55
1613,32,10:55 AM,73.4,57.2,57,29.87,10,Calm,Calm,-,,,Overcast,0,23-06-2016 15:00
1614,33,11:00 AM,75.2,59,57,29.87,10,SW,4.6,-,,,Overcast,230,23-06-2016 15:35
1615,34,11:35 AM,73.4,60.8,65,29.87,10,WSW,3.5,-,,,Mostly Cloudy,250,23-06-2016 15:55
1616,35,11:55 AM,75.2,60.8,61,29.86,10,Calm,Calm,-,,,Overcast,0,23-06-2016 16:00
1617,36,12:00 PM,73.4,60.8,65,29.85,9,Calm,Calm,-,,,Overcast,0,23-06-2016 16:35
1618,37,12:35 PM,75.2,60.8,61,29.85,9,Calm,Calm,-,,,Overcast,0,23-06-2016 16:55
1619,38,12:55 PM,75.2,59,57,29.84,10,Calm,Calm,-,,,Overcast,0,23-06-2016 17:00
1620,39,1:00 PM,75.2,59,57,29.84,10,WNW,3.5,-,,,Overcast,300,23-06-2016 17:35
1621,40,1:35 PM,75.2,60.8,61,29.83,10,Calm,Calm,-,,,Overcast,0,23-06-2016 17:55
1622,41,1:55 PM,77,60.8,57,29.83,10,West,4.6,-,,,Mostly Cloudy,260,23-06-2016 18:00
1623,42,2:00 PM,78.8,60.8,54,29.82,10,West,4.6,-,,,Mostly Cloudy,270,23-06-2016 18:35
1624,43,2:35 PM,78.8,60.8,54,29.82,10,West,5.8,-,,,Overcast,260,23-06-2016 18:55
1625,44,2:55 PM,77,62.6,61,29.83,10,West,6.9,-,,,Overcast,280,23-06-2016 19:00
1626,45,3:00 PM,78.8,60.8,54,29.83,10,WNW,6.9,-,,,Overcast,290,23-06-2016 19:35
1627,46,3:35 PM,78.8,57.2,47,29.83,10,West,4.6,-,,,Mostly Cloudy,280,23-06-2016 19:55
1628,47,3:55 PM,78.8,59,51,29.83,10,Calm,Calm,-,,,Mostly Cloudy,0,23-06-2016 20:00
1629,48,4:00 PM,80.6,57.2,45,29.82,10,Calm,Calm,-,,,Overcast,0,23-06-2016 20:35
1630,49,4:35 PM,80.6,57.2,45,29.82,10,Calm,Calm,-,,,Mostly Cloudy,0,23-06-2016 20:55
1631,50,4:55 PM,80.6,60.8,51,29.82,10,Calm,Calm,-,,,Overcast,0,23-06-2016 21:00
1632,51,5:00 PM,78.8,60.8,54,29.82,10,East,5.8,-,,,Overcast,90,23-06-2016 21:35
1633,52,5:35 PM,78.8,60.8,54,29.82,10,SSE,8.1,-,,,Overcast,150,23-06-2016 21:55
1634,53,5:55 PM,77,62.6,61,29.82,10,SE,3.5,-,,,Overcast,140,23-06-2016 22:00
1635,54,6:00 PM,77,64.4,65,29.82,10,SE,4.6,-,,,Overcast,130,23-06-2016 22:35
1636,55,6:35 PM,75.2,64.4,69,29.82,10,Calm,Calm,-,,,Overcast,0,23-06-2016 22:55
1637,56,6:55 PM,75.2,66.2,73,29.82,10,SSE,4.6,-,,,Overcast,160,23-06-2016 23:00
1638,57,7:00 PM,75.2,66.2,73,29.83,10,SSE,6.9,-,,,Overcast,160,23-06-2016 23:35
1639,58,7:35 PM,75.2,66.2,73,29.83,10,Calm,Calm,-,,,Overcast,0,23-06-2016 23:55
1640,59,7:55 PM,75.2,66.2,73,29.83,10,Calm,Calm,-,,,Mostly Cloudy,0,24-06-2016 00:00
1641,60,8:00 PM,73.4,66.2,78,29.84,10,SE,5.8,-,,,Mostly Cloudy,140,24-06-2016 00:35
1642,61,8:35 PM,73.4,66.2,78,29.84,10,South,4.6,-,,,Overcast,170,24-06-2016 00:55
1643,62,8:55 PM,73.4,66.2,78,29.85,10,SE,4.6,-,,,Overcast,140,24-06-2016 01:00
1644,63,9:00 PM,73.4,66.2,78,29.85,10,Calm,Calm,-,,,Scattered Clouds,0,24-06-2016 01:35
1645,64,9:35 PM,73.4,64.4,73,29.86,10,Calm,Calm,-,,,Clear,0,24-06-2016 01:55
1646,65,9:55 PM,73.4,64.4,73,29.86,10,Calm,Calm,-,,,Clear,0,24-06-2016 02:00
1647,66,10:00 PM,73.4,64.4,73,29.87,10,Calm,Calm,-,,,Clear,0,24-06-2016 02:35
1648,67,10:35 PM,71.6,64.4,78,29.87,10,Calm,Calm,-,,,Clear,0,24-06-2016 02:55
1649,68,10:55 PM,71.6,66.2,83,29.88,10,Calm,Calm,-,,,Clear,0,24-06-2016 03:00
1650,69,11:00 PM,71.6,66.2,83,29.88,10,Calm,Calm,-,,,Clear,0,24-06-2016 03:35
1651,70,11:35 PM,69.8,66.2,88,29.88,10,Calm,Calm,-,,,Clear,0,24-06-2016 03:55
1652,71,11:55 PM,69.8,66.2,88,29.88,10,Calm,Calm,-,,,Clear,0,24-06-2016 04:00
1653,0,12:00 AM,69.8,66.2,88,29.88,10,Calm,Calm,-,,,Clear,0,24-06-2016 04:35
1654,1,12:35 AM,69.8,66.2,88,29.88,10,Calm,Calm,-,,,Clear,0,24-06-2016 04:55
1655,2,12:55 AM,69.8,66.2,88,29.88,10,Calm,Calm,-,,,Clear,0,24-06-2016 05:00
1656,3,1:00 AM,69.8,66.2,88,29.89,10,Calm,Calm,-,,,Clear,0,24-06-2016 05:35
1657,4,1:35 AM,69.8,64.4,83,29.89,9,Calm,Calm,-,,,Clear,0,24-06-2016 05:55
1658,5,1:55 AM,71.6,66.2,83,29.89,10,Calm,Calm,-,,,Clear,0,24-06-2016 06:00
1659,6,2:00 AM,69.8,66.2,88,29.9,8,Calm,Calm,-,,,Clear,0,24-06-2016 06:35
1660,7,2:35 AM,69.8,66.2,88,29.91,9,Calm,Calm,-,,,Clear,0,24-06-2016 06:55
1661,8,2:55 AM,69.8,66.2,88,29.91,9,NE,4.6,-,,,Clear,40,24-06-2016 07:00
1662,9,3:00 AM,69.8,66.2,88,29.91,10,ENE,3.5,-,,,Clear,70,24-06-2016 07:35
1663,10,3:35 AM,69.8,66.2,88,29.91,10,NNE,3.5,-,,,Clear,30,24-06-2016 07:55
1664,11,3:55 AM,69.8,66.2,88,29.92,10,Calm,Calm,-,,,Clear,0,24-06-2016 08:00
1665,12,4:00 AM,69.8,66.2,88,29.92,10,NE,5.8,-,,,Clear,40,24-06-2016 08:35
1666,13,4:35 AM,69.8,66.2,88,29.93,10,ENE,6.9,-,,,Clear,60,24-06-2016 08:55
1667,14,4:55 AM,69.8,66.2,88,29.93,10,ENE,6.9,-,,,Clear,70,24-06-2016 09:00
1668,15,5:00 AM,69.8,64.4,83,29.94,10,NE,8.1,-,,,Clear,50,24-06-2016 09:35
1669,16,5:35 AM,69.8,60.8,73,29.95,10,NE,9.2,-,,,Clear,50,24-06-2016 09:55
1670,17,5:55 AM,71.6,59,64,29.96,10,ENE,8.1,-,,,Clear,60,24-06-2016 10:00
1671,18,6:00 AM,71.6,57.2,60,29.96,10,NE,10.4,-,,,Clear,50,24-06-2016 10:35
1672,19,6:35 AM,71.6,55.4,57,29.96,10,NE,13.8,18.4,,,Clear,40,24-06-2016 10:55
1673,20,6:55 AM,71.6,53.6,53,29.97,10,NNE,11.5,-,,,Clear,30,24-06-2016 11:00
1674,21,7:00 AM,71.6,57.2,60,29.98,10,ENE,13.8,-,,,Clear,60,24-06-2016 11:35
1675,22,7:35 AM,69.8,60.8,73,29.99,10,ENE,13.8,-,,,Clear,60,24-06-2016 11:55
1676,23,7:55 AM,69.8,59,68,30,10,ENE,13.8,-,,,Clear,60,24-06-2016 12:00
1677,24,8:00 AM,71.6,55.4,57,30,10,ENE,13.8,-,,,Clear,60,24-06-2016 12:35
1678,25,8:35 AM,71.6,55.4,57,30.01,10,ENE,16.1,20.7,,,Clear,60,24-06-2016 12:55
1679,26,8:55 AM,71.6,55.4,57,30.02,10,NE,13.8,-,,,Clear,50,24-06-2016 13:00
1680,27,9:00 AM,73.4,57.2,57,30.02,10,NE,16.1,19.6,,,Clear,40,24-06-2016 13:35
1681,28,9:35 AM,73.4,57.2,57,30.03,10,NE,12.7,-,,,Clear,40,24-06-2016 13:55
1682,29,9:55 AM,75.2,57.2,53,30.03,10,NNE,11.5,28.8,,,Clear,30,24-06-2016 14:00
1683,30,10:00 AM,77,57.2,50,30.03,10,NE,13.8,17.3,,,Clear,50,24-06-2016 14:35
1684,31,10:35 AM,78.8,57.2,47,30.04,10,NE,12.7,18.4,,,Clear,50,24-06-2016 14:55
1685,32,10:55 AM,78.8,55.4,44,30.05,10,NE,13.8,18.4,,,Clear,50,24-06-2016 15:00
1686,33,11:00 AM,80.6,55.4,42,30.05,10,ENE,10.4,18.4,,,Clear,60,24-06-2016 15:35
1687,34,11:35 AM,80.6,55.4,42,30.05,10,ENE,8.1,18.4,,,Clear,60,24-06-2016 15:55
1688,35,11:55 AM,80.6,53.6,39,30.05,10,ENE,6.9,-,,,Clear,60,24-06-2016 16:00
1689,36,12:00 PM,82.4,53.6,37,30.05,10,NNE,8.1,18.4,,,Clear,20,24-06-2016 16:35
1690,37,12:35 PM,82.4,53.6,37,30.05,9,East,3.5,-,,,Clear,80,24-06-2016 16:55
1691,38,12:55 PM,82.4,55.4,39,30.05,10,ENE,9.2,-,,,Clear,70,24-06-2016 17:00
1692,39,1:00 PM,82.4,53.6,37,30.06,9,South,13.8,-,,,Clear,170,24-06-2016 17:35
1693,40,1:35 PM,80.6,53.6,39,30.05,10,SE,10.4,16.1,,,Clear,130,24-06-2016 17:55
1694,41,1:55 PM,80.6,53.6,39,30.06,10,SSE,13.8,-,,,Clear,150,24-06-2016 18:00
1695,42,2:00 PM,78.8,55.4,44,30.06,10,SE,9.2,18.4,,,Clear,130,24-06-2016 18:35
1696,43,2:35 PM,78.8,55.4,44,30.07,10,SE,12.7,-,,,Clear,130,24-06-2016 18:55
1697,44,2:55 PM,78.8,55.4,44,30.07,10,ESE,10.4,20.7,,,Clear,110,24-06-2016 19:00
1698,45,3:00 PM,80.6,55.4,42,30.07,10,SE,12.7,16.1,,,Clear,140,24-06-2016 19:35
1699,46,3:35 PM,78.8,57.2,47,30.08,10,SE,11.5,19.6,,,Clear,140,24-06-2016 19:55
1700,47,3:55 PM,78.8,59,51,30.08,10,SE,16.1,20.7,,,Clear,130,24-06-2016 20:00
1701,48,4:00 PM,78.8,59,51,30.08,10,ESE,11.5,19.6,,,Partly Cloudy,110,24-06-2016 20:35
1702,49,4:35 PM,78.8,60.8,54,30.07,10,ESE,10.4,-,,,Clear,110,24-06-2016 20:55
1703,50,4:55 PM,78.8,62.6,57,30.07,10,SE,10.4,-,,,Clear,140,24-06-2016 21:00
1704,51,5:00 PM,78.8,62.6,57,30.07,10,SE,8.1,17.3,,,Clear,130,24-06-2016 21:35
1705,52,5:35 PM,77,60.8,57,30.07,10,East,4.6,-,,,Clear,100,24-06-2016 21:55
1706,53,5:55 PM,77,60.8,57,30.08,10,ENE,9.2,-,,,Clear,70,24-06-2016 22:00
1707,54,6:00 PM,75.2,60.8,61,30.08,10,East,4.6,-,,,Clear,90,24-06-2016 22:35
1708,55,6:35 PM,75.2,60.8,61,30.08,10,ENE,6.9,-,,,Clear,60,24-06-2016 22:55
1709,56,6:55 PM,75.2,60.8,61,30.08,10,ENE,10.4,-,,,Clear,60,24-06-2016 23:00
1710,57,7:00 PM,73.4,60.8,65,30.09,10,SE,10.4,-,,,Clear,130,24-06-2016 23:35
1711,58,7:35 PM,73.4,60.8,65,30.09,10,ESE,6.9,-,,,Clear,120,24-06-2016 23:55
1712,59,7:55 PM,73.4,60.8,65,30.09,10,ESE,4.6,-,,,Clear,120,25-06-2016 00:00
1713,60,8:00 PM,71.6,62.6,73,30.09,10,SE,4.6,-,,,Clear,140,25-06-2016 00:35
1714,61,8:35 PM,71.6,62.6,73,30.09,10,ESE,4.6,-,,,Clear,110,25-06-2016 00:55
1715,62,8:55 PM,71.6,62.6,73,30.09,10,Calm,Calm,-,,,Clear,0,25-06-2016 01:00
1716,63,9:00 PM,71.6,62.6,73,30.1,10,ENE,3.5,-,,,Clear,70,25-06-2016 01:35
1717,64,9:35 PM,71.6,64.4,78,30.1,10,Calm,Calm,-,,,Clear,0,25-06-2016 01:55
1718,65,9:55 PM,71.6,62.6,73,30.11,10,East,3.5,-,,,Clear,90,25-06-2016 02:00
1719,66,10:00 PM,69.8,64.4,83,30.12,10,Calm,Calm,-,,,Clear,0,25-06-2016 02:35
1720,67,10:35 PM,69.8,64.4,83,30.12,10,Calm,Calm,-,,,Clear,0,25-06-2016 02:55
1721,68,10:55 PM,71.6,62.6,73,30.11,10,ENE,4.6,-,,,Clear,60,25-06-2016 03:00
1722,69,11:00 PM,69.8,62.6,78,30.12,10,NE,5.8,-,,,Clear,50,25-06-2016 03:35
1723,70,11:35 PM,69.8,62.6,78,30.12,10,NE,5.8,-,,,Clear,50,25-06-2016 03:55
1724,71,11:55 PM,69.8,62.6,78,30.11,10,NE,4.6,-,,,Clear,50,25-06-2016 04:00
1725,0,12:00 AM,69.8,62.6,78,30.11,10,NE,5.8,-,,,Clear,50,25-06-2016 04:35
1726,1,12:35 AM,69.8,62.6,78,30.12,10,ENE,5.8,-,,,Clear,70,25-06-2016 04:55
1727,2,12:55 AM,69.8,62.6,78,30.12,10,ENE,6.9,-,,,Clear,60,25-06-2016 05:00
1728,3,1:00 AM,69.8,62.6,78,30.12,10,NE,6.9,-,,,Clear,50,25-06-2016 05:35
1729,4,1:35 AM,69.8,62.6,78,30.13,10,ENE,5.8,-,,,Clear,60,25-06-2016 05:55
1730,5,1:55 AM,69.8,62.6,78,30.13,10,ENE,8.1,-,,,Clear,60,25-06-2016 06:00
1731,6,2:00 AM,68,60.8,78,30.13,10,NE,8.1,-,,,Clear,50,25-06-2016 06:35
1732,7,2:35 AM,68,60.8,78,30.12,10,NE,8.1,-,,,Clear,40,25-06-2016 06:55
1733,8,2:55 AM,68,60.8,78,30.12,10,NE,10.4,-,,,Clear,40,25-06-2016 07:00
1734,9,3:00 AM,68,60.8,78,30.13,10,NE,9.2,-,,,Clear,50,25-06-2016 07:35
1735,10,3:35 AM,66.2,60.8,83,30.13,10,ENE,9.2,-,,,Clear,60,25-06-2016 07:55
1736,11,3:55 AM,66.2,60.8,83,30.13,10,NE,8.1,-,,,Mostly Cloudy,50,25-06-2016 08:00
1737,12,4:00 AM,66.2,62.6,88,30.14,10,NE,8.1,-,,,Mostly Cloudy,50,25-06-2016 08:35
1738,13,4:35 AM,66.2,62.6,88,30.13,10,NE,9.2,-,,,Partly Cloudy,40,25-06-2016 08:55
1739,14,4:55 AM,66.2,62.6,88,30.14,10,NE,9.2,-,,,Clear,50,25-06-2016 09:00
1740,15,5:00 AM,66.2,62.6,88,30.15,10,NE,9.2,-,,,Clear,50,25-06-2016 09:35
1741,16,5:35 AM,66.2,62.6,88,30.15,10,NE,8.1,-,,,Clear,50,25-06-2016 09:55
1742,17,5:55 AM,66.2,62.6,88,30.16,10,NE,4.6,-,,,Clear,40,25-06-2016 10:00
1743,18,6:00 AM,66.2,62.6,88,30.17,10,ENE,9.2,-,,,Clear,60,25-06-2016 10:35
1744,19,6:35 AM,66.2,62.6,88,30.17,10,ENE,8.1,-,,,Clear,60,25-06-2016 10:55
1745,20,6:55 AM,66.2,62.6,88,30.17,10,NE,10.4,-,,,Clear,50,25-06-2016 11:00
1746,21,7:00 AM,66.2,62.6,88,30.18,10,ENE,9.2,-,,,Clear,60,25-06-2016 11:35
1747,22,7:35 AM,68,62.6,83,30.18,10,ENE,11.5,-,,,Clear,60,25-06-2016 11:55
1748,23,7:55 AM,68,60.8,78,30.19,10,NE,8.1,-,,,Clear,50,25-06-2016 12:00
1749,24,8:00 AM,69.8,60.8,73,30.19,10,NE,9.2,-,,,Clear,50,25-06-2016 12:35
1750,25,8:35 AM,69.8,60.8,73,30.19,10,NE,10.4,-,,,Clear,50,25-06-2016 12:55
1751,26,8:55 AM,69.8,60.8,73,30.19,10,ENE,8.1,-,,,Clear,60,25-06-2016 13:00
1752,27,9:00 AM,71.6,60.8,69,30.19,10,NE,6.9,-,,,Clear,50,25-06-2016 13:35
1753,28,9:35 AM,73.4,60.8,65,30.19,10,NE,8.1,-,,,Clear,40,25-06-2016 13:55
1754,29,9:55 AM,75.2,60.8,61,30.19,10,NE,6.9,-,,,Clear,50,25-06-2016 14:00
1755,30,10:00 AM,77,60.8,57,30.2,10,NE,5.8,-,,,Clear,40,25-06-2016 14:35
1756,31,10:35 AM,78.8,60.8,54,30.19,10,ENE,4.6,-,,,Clear,60,25-06-2016 14:55
1757,32,10:55 AM,78.8,59,51,30.19,10,NW,6.9,-,,,Clear,310,25-06-2016 15:00
1758,33,11:00 AM,78.8,60.8,54,30.2,10,NE,6.9,-,,,Clear,40,25-06-2016 15:35
1759,34,11:35 AM,77,62.6,61,30.2,9,SW,6.9,49.5,,,Clear,220,25-06-2016 15:55
1760,35,11:55 AM,78.8,62.6,57,30.2,10,SW,8.1,-,,,Clear,220,25-06-2016 16:00
1761,36,12:00 PM,78.8,62.6,57,30.21,9,SW,6.9,-,,,Clear,220,25-06-2016 16:35
1762,37,12:35 PM,77,64.4,65,30.2,8,WSW,5.8,-,,,Clear,240,25-06-2016 16:55
1763,38,12:55 PM,78.8,64.4,61,30.2,8,SW,6.9,-,,,Clear,230,25-06-2016 17:00
1764,39,1:00 PM,78.8,60.8,54,30.2,7,WSW,4.6,-,,,Partly Cloudy,240,25-06-2016 17:35
1765,40,1:35 PM,78.8,60.8,54,30.21,10,WSW,5.8,-,,,Clear,250,25-06-2016 17:55
1766,41,1:55 PM,78.8,60.8,54,30.2,10,West,9.2,-,,,Scattered Clouds,270,25-06-2016 18:00
1767,42,2:00 PM,80.6,59,48,30.2,8,West,5.8,-,,,Partly Cloudy,270,25-06-2016 18:35
1768,43,2:35 PM,80.6,57.2,45,30.19,10,SE,5.8,-,,,Partly Cloudy,140,25-06-2016 18:55
1769,44,2:55 PM,82.4,53.6,37,30.19,10,South,6.9,-,,,Clear,170,25-06-2016 19:00
1770,45,3:00 PM,80.6,53.6,39,30.18,10,South,6.9,-,,,Clear,180,25-06-2016 19:35
1771,46,3:35 PM,80.6,53.6,39,30.18,10,South,6.9,-,,,Clear,170,25-06-2016 19:55
1772,47,3:55 PM,80.6,51.8,37,30.18,9,South,5.8,-,,,Clear,180,25-06-2016 20:00
1773,48,4:00 PM,80.6,53.6,39,30.18,10,SSE,6.9,-,,,Clear,160,25-06-2016 20:35
1774,49,4:35 PM,80.6,51.8,37,30.19,10,SSE,8.1,-,,,Clear,160,25-06-2016 20:55
1775,50,4:55 PM,80.6,53.6,39,30.19,10,SSE,8.1,-,,,Clear,160,25-06-2016 21:00
1776,51,5:00 PM,80.6,53.6,39,30.19,10,SE,9.2,-,,,Clear,140,25-06-2016 21:35
1777,52,5:35 PM,80.6,51.8,37,30.18,10,SSE,6.9,-,,,Clear,160,25-06-2016 21:55
1778,53,5:55 PM,78.8,51.8,39,30.19,10,SSE,9.2,-,,,Clear,150,25-06-2016 22:00
1779,54,6:00 PM,78.8,51.8,39,30.18,10,ESE,12.7,40.3,,,Clear,120,25-06-2016 22:35
1780,55,6:35 PM,77,51.8,41,30.18,10,SE,6.9,-,,,Clear,130,25-06-2016 22:55
1781,56,6:55 PM,75.2,50,41,30.18,10,SE,5.8,-,,,Clear,130,25-06-2016 23:00
1782,57,7:00 PM,75.2,48.2,38,30.18,10,SSE,10.4,-,,,Clear,160,25-06-2016 23:55
1783,58,7:55 PM,73.4,48.2,41,30.19,10,South,10.4,-,,,Clear,170,26-06-2016 00:00
1784,59,8:00 PM,73.4,51.8,47,30.2,10,SSE,6.9,-,,,Clear,150,26-06-2016 00:35
1785,60,8:35 PM,71.6,55.4,57,30.2,10,SSE,6.9,-,,,Clear,150,26-06-2016 00:55
1786,61,8:55 PM,71.6,57.2,60,30.2,10,South,4.6,-,,,Clear,180,26-06-2016 01:00
1787,62,9:00 PM,71.6,57.2,60,30.2,10,Calm,Calm,-,,,Clear,0,26-06-2016 01:35
1788,63,9:35 PM,71.6,57.2,60,30.21,10,South,5.8,-,,,Clear,170,26-06-2016 01:55
1789,64,9:55 PM,71.6,59,64,30.21,10,South,4.6,-,,,Clear,170,26-06-2016 02:00
1790,65,10:00 PM,71.6,59,64,30.21,10,South,5.8,-,,,Clear,170,26-06-2016 02:35
1791,66,10:35 PM,71.6,59,64,30.21,10,South,4.6,-,,,Clear,180,26-06-2016 02:55
1792,67,10:55 PM,69.8,60.8,73,30.21,10,SSE,4.6,-,,,Clear,160,26-06-2016 03:00
1793,68,11:00 PM,69.8,60.8,73,30.21,10,South,4.6,-,,,Clear,170,26-06-2016 03:35
1794,69,11:35 PM,69.8,60.8,73,30.21,10,SE,3.5,-,,,Clear,140,26-06-2016 03:55
1795,70,11:55 PM,69.8,60.8,73,30.21,10,SSE,4.6,-,,,Clear,150,26-06-2016 04:00
1796,0,12:00 AM,69.8,60.8,73,30.22,10,Calm,Calm,-,,,Clear,0,26-06-2016 04:35
1797,1,12:35 AM,69.8,62.6,78,30.22,10,SW,3.5,-,,,Clear,230,26-06-2016 04:55
1798,2,12:55 AM,69.8,62.6,78,30.23,10,WSW,3.5,-,,,Partly Cloudy,250,26-06-2016 05:00
1799,3,1:00 AM,69.8,62.6,78,30.23,10,WSW,4.6,-,,,Partly Cloudy,250,26-06-2016 05:35
1800,4,1:35 AM,69.8,62.6,78,30.23,10,SW,3.5,-,,,Clear,230,26-06-2016 05:55
1801,5,1:55 AM,68,62.6,83,30.22,10,Calm,Calm,-,,,Clear,0,26-06-2016 06:00
1802,6,2:00 AM,68,62.6,83,30.22,10,Calm,Calm,-,,,Clear,0,26-06-2016 06:35
1803,7,2:35 AM,68,62.6,83,30.23,10,Calm,Calm,-,,,Clear,0,26-06-2016 06:55
1804,8,2:55 AM,68,62.6,83,30.24,10,Calm,Calm,-,,,Clear,0,26-06-2016 07:00
1805,9,3:00 AM,68,60.8,78,30.24,10,Calm,Calm,-,,,Scattered Clouds,0,26-06-2016 07:35
1806,10,3:35 AM,68,60.8,78,30.24,10,Calm,Calm,-,,,Partly Cloudy,0,26-06-2016 07:55
1807,11,3:55 AM,68,60.8,78,30.24,10,Calm,Calm,-,,,Scattered Clouds,0,26-06-2016 08:00
1808,12,4:00 AM,68,62.6,83,30.25,10,WSW,3.5,-,,,Scattered Clouds,250,26-06-2016 08:35
1809,13,4:35 AM,68,60.8,78,30.25,10,Calm,Calm,-,,,Partly Cloudy,0,26-06-2016 08:55
1810,14,4:55 AM,66.2,62.6,88,30.24,10,Calm,Calm,-,,,Clear,0,26-06-2016 09:00
1811,15,5:00 AM,66.2,62.6,88,30.23,10,Calm,Calm,-,,,Clear,0,26-06-2016 09:35
1812,16,5:35 AM,66.2,60.8,83,30.24,10,Calm,Calm,-,,,Clear,0,26-06-2016 09:55
1813,17,5:55 AM,66.2,60.8,83,30.23,10,West,3.5,-,,,Clear,270,26-06-2016 10:00
1814,18,6:00 AM,66.2,60.8,83,30.23,10,Calm,Calm,-,,,Clear,0,26-06-2016 10:35
1815,19,6:35 AM,66.2,62.6,88,30.23,10,Calm,Calm,-,,,Clear,0,26-06-2016 10:55
1816,20,6:55 AM,66.2,60.8,83,30.23,10,Calm,Calm,-,,,Clear,0,26-06-2016 11:00
1817,21,7:00 AM,68,60.8,78,30.23,10,Calm,Calm,-,,,Clear,0,26-06-2016 11:35
1818,22,7:35 AM,68,60.8,78,30.23,10,Calm,Calm,-,,,Clear,0,26-06-2016 11:55
1819,23,7:55 AM,68,62.6,83,30.23,10,West,4.6,-,,,Clear,260,26-06-2016 12:00
1820,24,8:00 AM,68,62.6,83,30.24,10,WSW,3.5,-,,,Clear,250,26-06-2016 12:35
1821,25,8:35 AM,69.8,60.8,73,30.24,10,Calm,Calm,-,,,Clear,0,26-06-2016 12:55
1822,26,8:55 AM,69.8,60.8,73,30.23,10,Calm,Calm,-,,,Clear,0,26-06-2016 13:00
1823,27,9:00 AM,71.6,60.8,69,30.23,10,WSW,3.5,-,,,Clear,240,26-06-2016 13:35
1824,28,9:35 AM,73.4,59,61,30.23,10,WSW,3.5,-,,,Clear,250,26-06-2016 13:55
1825,29,9:55 AM,75.2,59,57,30.23,10,Calm,Calm,-,,,Clear,0,26-06-2016 14:00
1826,30,10:00 AM,78.8,57.2,47,30.22,10,Calm,Calm,-,,,Clear,0,26-06-2016 14:35
1827,31,10:35 AM,80.6,53.6,39,30.22,10,Calm,Calm,-,,,Clear,0,26-06-2016 14:55
1828,32,10:55 AM,80.6,53.6,39,30.23,10,Calm,Calm,-,,,Clear,0,26-06-2016 15:00
1829,33,11:00 AM,80.6,55.4,42,30.23,10,Calm,Calm,-,,,Clear,0,26-06-2016 15:35
1830,34,11:35 AM,82.4,59,45,30.22,10,SW,5.8,-,,,Clear,230,26-06-2016 15:55
1831,35,11:55 AM,80.6,57.2,45,30.22,10,SW,11.5,32.2,,,Clear,230,26-06-2016 16:00
1832,36,12:00 PM,80.6,59,48,30.23,10,SW,8.1,-,,,Clear,230,26-06-2016 16:35
1833,37,12:35 PM,80.6,59,48,30.23,10,SW,9.2,-,,,Clear,230,26-06-2016 16:55
1834,38,12:55 PM,82.4,59,45,30.23,10,SW,8.1,-,,,Clear,220,26-06-2016 17:00
1835,39,1:00 PM,82.4,60.8,48,30.22,10,SW,6.9,-,,,Clear,220,26-06-2016 17:35
1836,40,1:35 PM,82.4,60.8,48,30.22,10,SSW,5.8,-,,,Clear,200,26-06-2016 17:55
1837,41,1:55 PM,82.4,60.8,48,30.21,10,SSE,8.1,-,,,Clear,150,26-06-2016 18:00
1838,42,2:00 PM,82.4,60.8,48,30.21,10,South,8.1,-,,,Clear,170,26-06-2016 18:35
1839,43,2:35 PM,82.4,60.8,48,30.2,10,South,6.9,-,,,Clear,170,26-06-2016 18:55
1840,44,2:55 PM,82.4,60.8,48,30.2,10,South,9.2,-,,,Clear,180,26-06-2016 19:00
1841,45,3:00 PM,82.4,60.8,48,30.19,10,South,11.5,-,,,Clear,170,26-06-2016 19:35
1842,46,3:35 PM,80.6,57.2,45,30.19,10,SSE,6.9,-,,,Clear,160,26-06-2016 19:55
1843,47,3:55 PM,80.6,59,48,30.18,10,SE,9.2,-,,,Clear,140,26-06-2016 20:00
1844,48,4:00 PM,80.6,59,48,30.18,10,South,8.1,-,,,Clear,180,26-06-2016 20:35
1845,49,4:35 PM,80.6,55.4,42,30.18,10,SSE,11.5,-,,,Clear,160,26-06-2016 20:55
1846,50,4:55 PM,80.6,55.4,42,30.18,10,SSE,13.8,-,,,Clear,150,26-06-2016 21:00
1847,51,5:00 PM,80.6,53.6,39,30.17,10,SE,5.8,-,,,Clear,130,26-06-2016 21:35
1848,52,5:35 PM,80.6,55.4,42,30.16,10,SE,9.2,-,,,Clear,140,26-06-2016 21:55
1849,53,5:55 PM,80.6,53.6,39,30.16,10,South,8.1,-,,,Clear,180,26-06-2016 22:00
1850,54,6:00 PM,78.8,53.6,42,30.16,10,SSE,10.4,-,,,Clear,160,26-06-2016 22:35
1851,55,6:35 PM,78.8,53.6,42,30.16,10,SSE,5.8,-,,,Clear,160,26-06-2016 22:55
1852,56,6:55 PM,77,51.8,41,30.16,10,SSE,8.1,-,,,Clear,160,26-06-2016 23:00
1853,57,7:00 PM,77,48.2,36,30.15,10,SSE,8.1,-,,,Clear,160,26-06-2016 23:35
1854,58,7:35 PM,77,51.8,41,30.15,10,South,4.6,-,,,Clear,170,26-06-2016 23:55
1855,59,7:55 PM,75.2,53.6,47,30.14,10,SSW,3.5,-,,,Clear,200,27-06-2016 00:00
1856,60,8:00 PM,75.2,53.6,47,30.14,10,South,5.8,-,,,Clear,170,27-06-2016 00:35
1857,61,8:35 PM,75.2,53.6,47,30.13,10,SSW,3.5,-,,,Clear,210,27-06-2016 00:55
1858,62,8:55 PM,75.2,51.8,44,30.13,10,Calm,Calm,-,,,Clear,0,27-06-2016 01:00
1859,63,9:00 PM,75.2,51.8,44,30.13,10,SW,5.8,-,,,Clear,230,27-06-2016 01:35
1860,64,9:35 PM,75.2,50,41,30.14,10,WSW,3.5,-,,,Clear,250,27-06-2016 01:55
1861,65,9:55 PM,75.2,51.8,44,30.14,10,West,3.5,-,,,Clear,270,27-06-2016 02:00
1862,66,10:00 PM,73.4,53.6,50,30.14,10,West,4.6,-,,,Clear,270,27-06-2016 02:35
1863,67,10:35 PM,73.4,53.6,50,30.14,10,West,4.6,-,,,Clear,270,27-06-2016 02:55
1864,68,10:55 PM,73.4,53.6,50,30.14,10,West,3.5,-,,,Clear,270,27-06-2016 03:00
1865,69,11:00 PM,73.4,53.6,50,30.14,10,WSW,4.6,-,,,Clear,250,27-06-2016 03:35
1866,70,11:35 PM,73.4,53.6,50,30.14,10,WSW,5.8,-,,,Clear,240,27-06-2016 03:55
1867,71,11:55 PM,73.4,53.6,50,30.14,10,West,4.6,-,,,Clear,260,27-06-2016 04:00
1868,0,12:00 AM,71.6,55.4,57,30.14,10,SW,5.8,-,,,Clear,230,27-06-2016 04:35
1869,1,12:35 AM,71.6,55.4,57,30.14,10,SW,6.9,-,,,Clear,230,27-06-2016 04:55
1870,2,12:55 AM,71.6,53.6,53,30.14,10,WSW,5.8,-,,,Clear,250,27-06-2016 05:00
1871,3,1:00 AM,71.6,53.6,53,30.14,10,WSW,5.8,-,,,Clear,240,27-06-2016 05:35
1872,4,1:35 AM,71.6,55.4,57,30.15,10,SW,5.8,-,,,Clear,230,27-06-2016 05:55
1873,5,1:55 AM,69.8,55.4,60,30.15,10,SW,8.1,-,,,Clear,230,27-06-2016 06:00
1874,6,2:00 AM,69.8,55.4,60,30.14,10,SW,6.9,-,,,Clear,230,27-06-2016 06:35
1875,7,2:35 AM,69.8,57.2,64,30.14,10,WSW,8.1,-,,,Clear,240,27-06-2016 06:55
1876,8,2:55 AM,69.8,57.2,64,30.13,10,SW,8.1,-,,,Clear,230,27-06-2016 07:00
1877,9,3:00 AM,69.8,57.2,64,30.13,10,West,5.8,-,,,Clear,270,27-06-2016 07:35
1878,10,3:35 AM,69.8,57.2,64,30.14,10,WSW,5.8,-,,,Clear,240,27-06-2016 07:55
1879,11,3:55 AM,68,57.2,68,30.12,10,WSW,5.8,-,,,Clear,240,27-06-2016 08:00
1880,12,4:00 AM,68,57.2,68,30.13,10,WSW,5.8,-,,,Clear,240,27-06-2016 08:35
1881,13,4:35 AM,68,59,73,30.13,10,WSW,6.9,-,,,Clear,250,27-06-2016 08:55
1882,14,4:55 AM,68,60.8,78,30.13,10,SW,4.6,-,,,Clear,220,27-06-2016 09:00
1883,15,5:00 AM,66.2,60.8,83,30.13,10,SW,3.5,-,,,Clear,230,27-06-2016 09:35
1884,16,5:35 AM,66.2,60.8,83,30.13,10,SW,4.6,-,,,Clear,230,27-06-2016 09:55
1885,17,5:55 AM,66.2,60.8,83,30.14,10,WSW,5.8,-,,,Clear,240,27-06-2016 10:00
1886,18,6:00 AM,66.2,62.6,88,30.13,10,SW,4.6,-,,,Clear,220,27-06-2016 10:35
1887,19,6:35 AM,66.2,62.6,88,30.13,10,Calm,Calm,-,,,Partly Cloudy,0,27-06-2016 10:55
1888,20,6:55 AM,66.2,62.6,88,30.12,10,SW,3.5,-,,,Partly Cloudy,230,27-06-2016 11:00
1889,21,7:00 AM,66.2,62.6,88,30.12,10,SW,5.8,-,,,Clear,220,27-06-2016 11:35
1890,22,7:35 AM,66.2,62.6,88,30.12,10,SW,3.5,-,,,Mostly Cloudy,230,27-06-2016 11:55
1891,23,7:55 AM,68,62.6,83,30.12,10,SW,3.5,-,,,Mostly Cloudy,220,27-06-2016 12:00
1892,24,8:00 AM,68,62.6,83,30.12,10,SW,5.8,-,,,Partly Cloudy,220,27-06-2016 12:35
1893,25,8:35 AM,69.8,62.6,78,30.12,10,SW,3.5,-,,,Clear,230,27-06-2016 12:55
1894,26,8:55 AM,69.8,62.6,78,30.12,10,SW,5.8,-,,,Clear,230,27-06-2016 13:00
1895,27,9:00 AM,71.6,62.6,73,30.12,10,SSW,4.6,-,,,Clear,210,27-06-2016 13:35
1896,28,9:35 AM,73.4,62.6,69,30.11,10,SSW,5.8,-,,,Clear,210,27-06-2016 13:55
1897,29,9:55 AM,75.2,62.6,65,30.11,9,WSW,4.6,-,,,Clear,240,27-06-2016 14:00
1898,30,10:00 AM,75.2,62.6,65,30.11,10,SSW,5.8,-,,,Clear,200,27-06-2016 14:35
1899,31,10:35 AM,77,60.8,57,30.1,10,SSW,8.1,28.8,,,Clear,200,27-06-2016 14:55
1900,32,10:55 AM,78.8,60.8,54,30.1,10,SSW,8.1,16.1,,,Clear,210,27-06-2016 15:00
1901,33,11:00 AM,78.8,62.6,57,30.09,10,SSW,8.1,-,,,Clear,210,27-06-2016 15:35
1902,34,11:35 AM,78.8,62.6,57,30.09,10,SW,4.6,-,,,Clear,230,27-06-2016 15:55
1903,35,11:55 AM,78.8,62.6,57,30.08,10,SW,8.1,-,,,Clear,220,27-06-2016 16:00
1904,36,12:00 PM,78.8,64.4,61,30.08,10,South,6.9,-,,,Partly Cloudy,190,27-06-2016 16:35
1905,37,12:35 PM,78.8,64.4,61,30.07,10,SSW,3.5,-,,,Partly Cloudy,210,27-06-2016 16:55
1906,38,12:55 PM,80.6,64.4,58,30.07,10,South,6.9,-,,,Partly Cloudy,170,27-06-2016 17:00
1907,39,1:00 PM,80.6,64.4,58,30.06,10,South,5.8,-,,,Clear,180,27-06-2016 17:35
1908,40,1:35 PM,80.6,64.4,58,30.04,9,SSE,10.4,-,,,Partly Cloudy,150,27-06-2016 17:55
1909,41,1:55 PM,80.6,66.2,61,30.04,9,South,10.4,-,,,Clear,170,27-06-2016 18:00
1910,42,2:00 PM,78.8,66.2,65,30.04,8,SSE,12.7,-,,,Clear,160,27-06-2016 18:35
1911,43,2:35 PM,80.6,66.2,61,30.03,10,South,10.4,-,,,Clear,180,27-06-2016 18:55
1912,44,2:55 PM,78.8,66.2,65,30.02,10,South,12.7,-,,,Clear,180,27-06-2016 19:00
1913,45,3:00 PM,78.8,66.2,65,30.01,10,South,13.8,17.3,,,Clear,170,27-06-2016 19:35
1914,46,3:35 PM,78.8,66.2,65,30.01,8,South,12.7,-,,,Clear,170,27-06-2016 19:55
1915,47,3:55 PM,78.8,66.2,65,30.01,10,South,9.2,17.3,,,Clear,170,27-06-2016 20:00
1916,48,4:00 PM,78.8,66.2,65,30,10,South,11.5,17.3,,,Clear,170,27-06-2016 20:35
1917,49,4:35 PM,78.8,66.2,65,30,9,South,12.7,-,,,Clear,180,27-06-2016 20:55
1918,50,4:55 PM,78.8,66.2,65,30,9,South,12.7,17.3,,,Clear,170,27-06-2016 21:00
1919,51,5:00 PM,78.8,66.2,65,30,10,SSE,10.4,-,,,Clear,160,27-06-2016 21:35
1920,52,5:35 PM,78.8,66.2,65,29.99,10,SSE,10.4,16.1,,,Clear,150,27-06-2016 21:55
1921,53,5:55 PM,77,66.2,69,29.99,10,SSE,10.4,18.4,,,Clear,160,27-06-2016 22:00
1922,54,6:00 PM,75.2,66.2,73,29.99,10,SSE,10.4,-,,,Clear,160,27-06-2016 22:35
1923,55,6:35 PM,75.2,66.2,73,29.99,10,South,8.1,-,,,Clear,170,27-06-2016 22:55
1924,56,6:55 PM,75.2,66.2,73,29.99,10,SSE,12.7,17.3,,,Clear,160,27-06-2016 23:00
1925,57,7:00 PM,75.2,66.2,73,30,10,South,4.6,-,,,Scattered Clouds,180,27-06-2016 23:35
1926,58,7:35 PM,75.2,66.2,73,30,10,SSW,4.6,-,,,Partly Cloudy,210,27-06-2016 23:55
1927,59,7:55 PM,75.2,66.2,73,30,10,SSW,4.6,-,,,Scattered Clouds,200,28-06-2016 00:00
1928,60,8:00 PM,75.2,66.2,73,30,10,South,3.5,38,,,Mostly Cloudy,180,28-06-2016 00:35
1929,61,8:35 PM,73.4,68,83,30,10,South,6.9,-,,,Mostly Cloudy,190,28-06-2016 00:55
1930,62,8:55 PM,73.4,68,83,30,10,SSW,5.8,-,,,Mostly Cloudy,210,28-06-2016 01:00
1931,63,9:00 PM,73.4,68,83,30.01,10,SSW,6.9,-,,,Overcast,200,28-06-2016 01:35
1932,64,9:35 PM,73.4,69.8,88,30.02,10,SSW,6.9,-,0.01,,Overcast,210,28-06-2016 01:55
1933,65,9:55 PM,71.6,69.8,94,30.02,10,SSW,5.8,-,0.01,,Overcast,200,28-06-2016 02:00
1934,66,10:00 PM,71.6,69.8,94,30.02,10,WSW,3.5,-,0.03,,Overcast,250,28-06-2016 02:35
1935,67,10:35 PM,71.6,69.8,94,30.02,10,WSW,4.6,-,0.04,,Overcast,240,28-06-2016 02:55
1936,68,10:55 PM,71.6,69.8,94,30.02,10,SW,6.9,-,0.04,,Overcast,230,28-06-2016 03:00
1937,69,11:00 PM,71.6,69.8,94,30.01,10,SW,5.8,-,0.02,,Overcast,230,28-06-2016 03:35
1938,70,11:35 PM,71.6,69.8,94,30.01,7,WSW,8.1,-,0.08,,Mostly Cloudy,250,28-06-2016 03:55
1939,71,11:55 PM,71.6,69.8,94,30.01,5,WSW,4.6,-,0.23,,Overcast,250,28-06-2016 04:00
1940,0,12:00 AM,71.6,69.8,94,30.01,5,WSW,4.6,-,0.16,,Overcast,240,28-06-2016 04:35
1941,1,12:35 AM,71.6,69.8,94,30,7,West,3.5,-,0.32,,Overcast,270,28-06-2016 04:55
1942,2,12:55 AM,69.8,69.8,100,30,8,West,5.8,-,0.38,,Overcast,260,28-06-2016 05:00
1943,3,1:00 AM,69.8,69.8,100,30,7,West,4.6,-,0.04,,Overcast,270,28-06-2016 05:35
1944,4,1:35 AM,69.8,68,94,30,10,South,5.8,-,0.04,,Overcast,180,28-06-2016 05:55
1945,5,1:55 AM,69.8,68,94,29.99,10,SSW,3.5,-,0.04,,Overcast,200,28-06-2016 06:00
1946,6,2:00 AM,69.8,68,94,29.99,10,Calm,Calm,-,,,Overcast,0,28-06-2016 06:35
1947,7,2:35 AM,69.8,68,94,29.99,10,Calm,Calm,-,,,Overcast,0,28-06-2016 06:55
1948,8,2:55 AM,69.8,69.8,100,29.98,10,SW,4.6,-,,,Overcast,220,28-06-2016 07:00
1949,9,3:00 AM,69.8,69.8,100,29.98,10,SW,6.9,-,,,Overcast,220,28-06-2016 07:35
1950,10,3:35 AM,69.8,69.8,100,29.98,10,SW,8.1,-,,,Overcast,230,28-06-2016 07:55
1951,11,3:55 AM,69.8,69.8,100,29.97,10,WSW,6.9,-,,,Overcast,240,28-06-2016 08:00
1952,12,4:00 AM,69.8,68,94,29.97,10,SW,4.6,-,,,Mostly Cloudy,220,28-06-2016 08:35
1953,13,4:35 AM,69.8,69.8,100,29.97,10,WSW,4.6,-,,,Overcast,250,28-06-2016 08:55
1954,14,4:55 AM,69.8,68,94,29.97,10,WSW,4.6,-,,,Overcast,240,28-06-2016 09:00
1955,15,5:00 AM,69.8,68,94,29.98,10,SW,4.6,-,,,Overcast,230,28-06-2016 09:35
1956,16,5:35 AM,69.8,68,94,29.98,10,WSW,4.6,-,,,Overcast,240,28-06-2016 09:55
1957,17,5:55 AM,69.8,68,94,29.98,10,SSW,3.5,-,,,Overcast,200,28-06-2016 10:00
1958,18,6:00 AM,69.8,68,94,29.98,10,SSE,4.6,-,,,Overcast,160,28-06-2016 10:35
1959,19,6:35 AM,71.6,68,88,29.98,10,Calm,Calm,-,,,Overcast,0,28-06-2016 10:55
1960,20,6:55 AM,71.6,68,88,29.98,10,Calm,Calm,-,,,Overcast,0,28-06-2016 11:00
1961,21,7:00 AM,69.8,68,94,29.99,10,SSE,12.7,16.1,,,Overcast,160,28-06-2016 11:35
1962,22,7:35 AM,69.8,66.2,88,29.99,10,South,5.8,-,,,Overcast,170,28-06-2016 11:55
1963,23,7:55 AM,69.8,66.2,88,29.99,10,SE,4.6,-,,,Overcast,130,28-06-2016 12:00
1964,24,8:00 AM,69.8,64.4,83,29.99,10,South,4.6,-,,,Overcast,180,28-06-2016 12:35
1965,25,8:35 AM,69.8,66.2,88,29.99,10,South,4.6,-,,,Overcast,180,28-06-2016 12:55
1966,26,8:55 AM,69.8,66.2,88,29.99,10,SSE,4.6,-,,,Overcast,160,28-06-2016 13:00
1967,27,9:00 AM,71.6,66.2,83,29.99,10,South,4.6,-,,,Overcast,190,28-06-2016 13:35
1968,28,9:35 AM,71.6,68,88,29.98,10,South,4.6,-,,,Overcast,180,28-06-2016 13:55
1969,29,9:55 AM,71.6,68,88,29.98,8,South,8.1,-,,,Overcast,170,28-06-2016 14:00
1970,30,10:00 AM,71.6,68,88,29.98,10,SSE,5.8,-,,,Overcast,150,28-06-2016 14:35
1971,31,10:35 AM,71.6,68,88,29.98,8,South,5.8,-,,,Overcast,180,28-06-2016 14:55
1972,32,10:55 AM,71.6,68,88,29.97,10,SE,4.6,-,,,Overcast,140,28-06-2016 15:00
1973,33,11:00 AM,71.6,69.8,94,29.97,9,SSE,6.9,-,,,Overcast,160,28-06-2016 15:35
1974,34,11:35 AM,71.6,69.8,94,29.97,9,South,3.5,-,,,Overcast,170,28-06-2016 15:55
1975,35,11:55 AM,71.6,69.8,94,29.97,10,South,5.8,-,,,Overcast,170,28-06-2016 16:00
1976,36,12:00 PM,71.6,69.8,94,29.97,8,SE,4.6,-,,,Overcast,130,28-06-2016 16:35
1977,37,12:35 PM,71.6,69.8,94,29.97,10,South,3.5,-,,,Overcast,170,28-06-2016 16:55
1978,38,12:55 PM,71.6,69.8,94,29.96,9,South,5.8,-,,,Overcast,180,28-06-2016 17:00
1979,39,1:00 PM,71.6,69.8,94,29.96,10,SSE,9.2,-,,,Overcast,160,28-06-2016 17:35
1980,40,1:35 PM,73.4,69.8,88,29.95,10,South,5.8,-,,,Overcast,170,28-06-2016 17:55
1981,41,1:55 PM,73.4,69.8,88,29.95,9,South,6.9,-,,,Overcast,180,28-06-2016 18:00
1982,42,2:00 PM,73.4,69.8,88,29.93,10,SSE,6.9,-,,,Overcast,160,28-06-2016 18:35
1983,43,2:35 PM,75.2,69.8,83,29.92,10,South,3.5,-,,,Overcast,180,28-06-2016 18:55
1984,44,2:55 PM,77,69.8,78,29.92,10,South,6.9,-,,,Overcast,170,28-06-2016 19:00
1985,45,3:00 PM,77,69.8,78,29.92,10,SSE,8.1,-,,,Overcast,160,28-06-2016 19:35
1986,46,3:35 PM,75.2,69.8,83,29.92,10,South,6.9,-,,,Overcast,190,28-06-2016 19:55
1987,47,3:55 PM,75.2,69.8,83,29.91,10,ESE,9.2,-,,,Overcast,120,28-06-2016 20:00
1988,48,4:00 PM,75.2,69.8,83,29.9,10,SE,8.1,-,,,Mostly Cloudy,130,28-06-2016 20:35
1989,49,4:35 PM,75.2,69.8,83,29.89,10,SSE,3.5,-,,,Overcast,160,28-06-2016 20:55
1990,50,4:55 PM,75.2,69.8,83,29.89,10,ESE,5.8,-,,,Overcast,110,28-06-2016 21:00
1991,51,5:00 PM,75.2,69.8,83,29.89,10,SE,5.8,-,,,Overcast,130,28-06-2016 21:35
1992,52,5:35 PM,73.4,69.8,88,29.9,10,South,6.9,-,,,Overcast,170,28-06-2016 21:55
1993,53,5:55 PM,73.4,69.8,88,29.9,10,South,8.1,-,,,Overcast,190,28-06-2016 22:00
1994,54,6:00 PM,73.4,69.8,88,29.9,9,Calm,Calm,-,,,Overcast,0,28-06-2016 22:35
1995,55,6:35 PM,73.4,69.8,88,29.89,10,SE,4.6,-,,,Overcast,140,28-06-2016 22:55
1996,56,6:55 PM,73.4,69.8,88,29.89,10,SE,8.1,-,,,Overcast,140,28-06-2016 23:00
1997,57,7:00 PM,73.4,69.8,88,29.89,10,ESE,3.5,-,,,Overcast,110,28-06-2016 23:35
1998,58,7:35 PM,71.6,69.8,94,29.88,10,SE,10.4,-,,,Overcast,130,28-06-2016 23:55
1999,59,7:55 PM,71.6,69.8,94,29.87,7,ESE,5.8,-,,,Overcast,120,29-06-2016 00:00
2000,60,8:00 PM,71.6,69.8,94,29.88,5,Calm,Calm,-,,Thunderstorm,Overcast,0,29-06-2016 00:35
2001,61,8:35 PM,71.6,69.8,94,29.88,5,SE,5.8,-,,Thunderstorm,Thunderstorm,140,29-06-2016 00:55
2002,62,8:55 PM,71.6,69.8,94,29.89,9,ESE,3.5,-,,Thunderstorm,Thunderstorm,120,29-06-2016 01:00
2003,63,9:00 PM,71.6,69.8,94,29.89,9,Calm,Calm,-,,Thunderstorm,Thunderstorm,0,29-06-2016 01:35
2004,64,9:35 PM,71.6,69.8,94,29.89,10,Calm,Calm,-,,Thunderstorm,Thunderstorm,0,29-06-2016 01:55
2005,65,9:55 PM,71.6,69.8,94,29.89,10,NNE,3.5,-,,Thunderstorm,Overcast,30,29-06-2016 02:00
2006,66,10:00 PM,71.6,69.8,94,29.89,9,ENE,6.9,-,,,Overcast,60,29-06-2016 02:35
2007,67,10:35 PM,71.6,69.8,94,29.89,3,Calm,Calm,-,0.06,,Overcast,0,29-06-2016 02:55
2008,68,10:55 PM,71.6,69.8,94,29.89,10,Calm,Calm,-,0.06,,Mostly Cloudy,0,29-06-2016 03:00
2009,69,11:00 PM,71.6,69.8,94,29.89,10,WNW,3.5,-,,,Scattered Clouds,290,29-06-2016 03:35
2010,70,11:35 PM,71.6,69.8,94,29.89,10,West,3.5,-,,,Partly Cloudy,280,29-06-2016 03:55
2011,71,11:55 PM,71.6,69.8,94,29.89,10,Calm,Calm,-,,,Mostly Cloudy,0,29-06-2016 04:00
2012,0,12:00 AM,69.8,68,94,29.89,10,Calm,Calm,-,,,Overcast,0,29-06-2016 04:35
2013,1,12:35 AM,71.6,68,88,29.88,9,Calm,Calm,-,0.01,,Mostly Cloudy,0,29-06-2016 04:55
2014,2,12:55 AM,69.8,68,94,29.88,10,Calm,Calm,-,0.01,,Overcast,0,29-06-2016 05:00
2015,3,1:00 AM,69.8,68,94,29.87,10,Calm,Calm,-,,,Overcast,0,29-06-2016 05:35
2016,4,1:35 AM,69.8,68,94,29.86,10,Calm,Calm,-,,,Overcast,0,29-06-2016 05:55
2017,5,1:55 AM,69.8,68,94,29.86,10,Calm,Calm,-,,,Mostly Cloudy,0,29-06-2016 06:00
2018,6,2:00 AM,69.8,68,94,29.86,10,Calm,Calm,-,,,Mostly Cloudy,0,29-06-2016 06:35
2019,7,2:35 AM,69.8,68,94,29.87,10,Calm,Calm,-,,,Mostly Cloudy,0,29-06-2016 06:55
2020,8,2:55 AM,69.8,68,94,29.87,10,West,3.5,-,,,Scattered Clouds,260,29-06-2016 07:00
2021,9,3:00 AM,69.8,68,94,29.87,10,West,3.5,-,,,Scattered Clouds,280,29-06-2016 07:35
2022,10,3:35 AM,69.8,68,94,29.87,10,Calm,Calm,-,,,Overcast,0,29-06-2016 07:55
2023,11,3:55 AM,69.8,68,94,29.87,10,Calm,Calm,-,,,Overcast,0,29-06-2016 08:00
2024,12,4:00 AM,69.8,68,94,29.86,10,Calm,Calm,-,,,Overcast,0,29-06-2016 08:35
2025,13,4:35 AM,69.8,66.2,88,29.86,10,Calm,Calm,-,,,Overcast,0,29-06-2016 08:55
2026,14,4:55 AM,69.8,66.2,88,29.86,10,Calm,Calm,-,,,Mostly Cloudy,0,29-06-2016 09:00
2027,15,5:00 AM,69.8,66.2,88,29.86,10,Calm,Calm,-,,,Scattered Clouds,0,29-06-2016 09:35
2028,16,5:35 AM,69.8,66.2,88,29.86,10,Calm,Calm,-,,,Clear,0,29-06-2016 09:55
2029,17,5:55 AM,69.8,66.2,88,29.87,10,West,3.5,-,,,Partly Cloudy,270,29-06-2016 10:00
2030,18,6:00 AM,69.8,66.2,88,29.87,10,Calm,Calm,-,,,Partly Cloudy,0,29-06-2016 10:35
2031,19,6:35 AM,69.8,66.2,88,29.88,10,Calm,Calm,-,,,Partly Cloudy,0,29-06-2016 10:55
2032,20,6:55 AM,69.8,66.2,88,29.89,10,Calm,Calm,-,,,Mostly Cloudy,0,29-06-2016 11:00
2033,21,7:00 AM,69.8,66.2,88,29.89,10,Calm,Calm,-,,,Overcast,0,29-06-2016 11:35
2034,22,7:35 AM,69.8,66.2,88,29.89,10,Calm,Calm,-,,,Overcast,0,29-06-2016 11:55
2035,23,7:55 AM,71.6,66.2,83,29.89,10,Calm,Calm,-,,,Mostly Cloudy,0,29-06-2016 12:00
2036,24,8:00 AM,71.6,66.2,83,29.89,10,West,3.5,-,,,Mostly Cloudy,260,29-06-2016 12:35
2037,25,8:35 AM,71.6,66.2,83,29.9,10,WSW,4.6,-,,,Mostly Cloudy,250,29-06-2016 12:55
2038,26,8:55 AM,71.6,66.2,83,29.9,10,WNW,3.5,-,0.01,,Overcast,300,29-06-2016 13:00
2039,27,9:00 AM,71.6,66.2,83,29.9,10,Calm,Calm,-,,,Mostly Cloudy,0,29-06-2016 13:35
2040,28,9:35 AM,73.4,66.2,78,29.9,10,West,4.6,-,,,Overcast,280,29-06-2016 13:55
2041,29,9:55 AM,73.4,66.2,78,29.9,10,WSW,3.5,48.3,,,Overcast,240,29-06-2016 14:00
2042,30,10:00 AM,75.2,66.2,73,29.89,10,Calm,Calm,-,,,Overcast,0,29-06-2016 14:35
2043,31,10:35 AM,75.2,66.2,73,29.89,10,SSW,3.5,-,,,Overcast,200,29-06-2016 14:55
2044,32,10:55 AM,77,66.2,69,29.89,10,West,5.8,-,,,Mostly Cloudy,280,29-06-2016 15:00
2045,33,11:00 AM,77,66.2,69,29.9,10,Calm,Calm,-,,,Overcast,0,29-06-2016 15:35
2046,34,11:35 AM,78.8,66.2,65,29.89,10,Calm,Calm,-,,,Mostly Cloudy,0,29-06-2016 15:55
2047,35,11:55 AM,80.6,66.2,61,29.89,10,WSW,4.6,-,,,Partly Cloudy,240,29-06-2016 16:00
2048,36,12:00 PM,80.6,64.4,58,29.89,10,WSW,5.8,-,,,Clear,250,29-06-2016 16:35
2049,37,12:35 PM,80.6,64.4,58,29.88,10,SW,5.8,-,,,Partly Cloudy,220,29-06-2016 16:55
2050,38,12:55 PM,82.4,64.4,54,29.87,10,West,8.1,-,,,Partly Cloudy,260,29-06-2016 17:00
2051,39,1:00 PM,84.2,62.6,48,29.87,10,West,6.9,-,,,Partly Cloudy,260,29-06-2016 17:35
2052,40,1:35 PM,84.2,62.6,48,29.87,10,WSW,4.6,-,,,Partly Cloudy,250,29-06-2016 17:55
2053,41,1:55 PM,84.2,62.6,48,29.87,9,WSW,5.8,-,,,Scattered Clouds,250,29-06-2016 18:00
2054,42,2:00 PM,84.2,60.8,45,29.87,10,WSW,8.1,-,,,Partly Cloudy,250,29-06-2016 18:35
2055,43,2:35 PM,82.4,60.8,48,29.87,10,WSW,4.6,-,,,Partly Cloudy,250,29-06-2016 18:55
2056,44,2:55 PM,84.2,59,42,29.87,10,West,8.1,17.3,,,Partly Cloudy,260,29-06-2016 19:00
2057,45,3:00 PM,84.2,59,42,29.87,10,West,8.1,-,,,Scattered Clouds,260,29-06-2016 19:35
2058,46,3:35 PM,86,59,40,29.87,5,West,6.9,-,,,Mostly Cloudy,260,29-06-2016 19:55
2059,47,3:55 PM,84.2,57.2,40,29.87,10,WSW,6.9,-,,,Mostly Cloudy,250,29-06-2016 20:00
2060,48,4:00 PM,84.2,57.2,40,29.87,10,West,9.2,19.6,,,Mostly Cloudy,270,29-06-2016 20:35
2061,49,4:35 PM,84.2,57.2,40,29.87,10,West,10.4,18.4,,,Mostly Cloudy,270,29-06-2016 20:55
2062,50,4:55 PM,84.2,55.4,37,29.87,9,West,8.1,-,,,Scattered Clouds,270,29-06-2016 21:00
2063,51,5:00 PM,84.2,53.6,35,29.87,10,West,10.4,43.7,,,Partly Cloudy,280,29-06-2016 21:35
2064,52,5:35 PM,84.2,53.6,35,29.86,10,West,6.9,-,,,Partly Cloudy,270,29-06-2016 21:55
2065,53,5:55 PM,84.2,57.2,40,29.86,10,WSW,4.6,-,,,Scattered Clouds,240,29-06-2016 22:00
2066,54,6:00 PM,84.2,57.2,40,29.86,10,West,5.8,-,,,Scattered Clouds,270,29-06-2016 22:35
2067,55,6:35 PM,84.2,57.2,40,29.87,9,Calm,Calm,-,,,Partly Cloudy,0,29-06-2016 22:55
2068,56,6:55 PM,82.4,59,45,29.88,10,Calm,Calm,-,,,Partly Cloudy,0,29-06-2016 23:00
2069,57,7:00 PM,82.4,59,45,29.88,10,Calm,Calm,-,,,Scattered Clouds,0,29-06-2016 23:35
2070,58,7:35 PM,80.6,59,48,29.89,10,Calm,Calm,-,,,Partly Cloudy,0,29-06-2016 23:55
2071,59,7:55 PM,80.6,59,48,29.89,10,Calm,Calm,-,,,Clear,0,30-06-2016 00:00
2072,60,8:00 PM,80.6,57.2,45,29.89,10,Calm,Calm,-,,,Clear,0,30-06-2016 00:35
2073,61,8:35 PM,78.8,57.2,47,29.9,10,West,3.5,-,,,Clear,280,30-06-2016 00:55
2074,62,8:55 PM,78.8,57.2,47,29.91,10,Calm,Calm,-,,,Clear,0,30-06-2016 01:00
2075,63,9:00 PM,78.8,57.2,47,29.91,10,Calm,Calm,-,,,Clear,0,30-06-2016 01:35
2076,64,9:35 PM,77,57.2,50,29.92,10,Calm,Calm,-,,,Clear,0,30-06-2016 01:55
2077,65,9:55 PM,77,57.2,50,29.92,10,Calm,Calm,-,,,Clear,0,30-06-2016 02:00
2078,66,10:00 PM,77,57.2,50,29.93,10,Calm,Calm,-,,,Clear,0,30-06-2016 02:35
2079,67,10:35 PM,75.2,59,57,29.94,10,Calm,Calm,-,,,Clear,0,30-06-2016 02:55
2080,68,10:55 PM,75.2,59,57,29.95,10,South,3.5,-,,,Clear,170,30-06-2016 03:00
2081,69,11:00 PM,75.2,59,57,29.95,10,Calm,Calm,-,,,Clear,0,30-06-2016 03:35
2082,70,11:35 PM,75.2,57.2,53,29.95,10,Calm,Calm,-,,,Clear,0,30-06-2016 03:55
2083,71,11:55 PM,73.4,57.2,57,29.95,10,Calm,Calm,-,,,Clear,0,30-06-2016 04:00
2084,0,12:00 AM,73.4,57.2,57,29.95,10,West,4.6,-,,,Clear,260,30-06-2016 04:35
2085,1,12:35 AM,73.4,59,61,29.95,10,Calm,Calm,-,,,Clear,0,30-06-2016 04:55
2086,2,12:55 AM,73.4,59,61,29.95,10,Calm,Calm,-,,,Clear,0,30-06-2016 05:00
2087,3,1:00 AM,73.4,59,61,29.95,10,West,3.5,-,,,Clear,270,30-06-2016 05:35
2088,4,1:35 AM,71.6,59,64,29.95,10,Calm,Calm,-,,,Clear,0,30-06-2016 05:55
2089,5,1:55 AM,71.6,59,64,29.95,10,Calm,Calm,-,,,Clear,0,30-06-2016 06:00
2090,6,2:00 AM,71.6,59,64,29.95,10,Calm,Calm,-,,,Clear,0,30-06-2016 06:35
2091,7,2:35 AM,71.6,60.8,69,29.96,10,Calm,Calm,-,,,Clear,0,30-06-2016 06:55
2092,8,2:55 AM,71.6,60.8,69,29.96,10,Calm,Calm,-,,,Clear,0,30-06-2016 07:00
2093,9,3:00 AM,71.6,60.8,69,29.96,10,Calm,Calm,-,,,Clear,0,30-06-2016 07:35
2094,10,3:35 AM,71.6,60.8,69,29.97,10,West,4.6,-,,,Clear,270,30-06-2016 07:55
2095,11,3:55 AM,71.6,60.8,69,29.97,10,West,4.6,-,,,Clear,260,30-06-2016 08:00
2096,12,4:00 AM,71.6,60.8,69,29.97,10,WSW,3.5,-,,,Clear,250,30-06-2016 08:35
2097,13,4:35 AM,69.8,60.8,73,29.98,10,West,3.5,-,,,Clear,260,30-06-2016 08:55
2098,14,4:55 AM,69.8,60.8,73,29.98,10,Calm,Calm,-,,,Clear,0,30-06-2016 09:00
2099,15,5:00 AM,69.8,60.8,73,29.99,10,West,3.5,-,,,Clear,270,30-06-2016 09:35
2100,16,5:35 AM,69.8,60.8,73,30,10,Calm,Calm,-,,,Clear,0,30-06-2016 09:55
2101,17,5:55 AM,69.8,60.8,73,30,10,West,4.6,-,,,Clear,280,30-06-2016 10:00
2102,18,6:00 AM,69.8,60.8,73,30.01,10,West,3.5,-,,,Clear,260,30-06-2016 10:35
2103,19,6:35 AM,69.8,60.8,73,30.01,10,West,6.9,-,,,Clear,270,30-06-2016 10:55
2104,20,6:55 AM,69.8,60.8,73,30.02,10,West,3.5,-,,,Clear,280,30-06-2016 11:00
2105,21,7:00 AM,69.8,60.8,73,30.01,10,West,3.5,-,,,Clear,260,30-06-2016 11:35
2106,22,7:35 AM,69.8,60.8,73,30.02,10,Calm,Calm,-,,,Clear,0,30-06-2016 11:55
2107,23,7:55 AM,71.6,60.8,69,30.02,10,NE,4.6,-,,,Clear,50,30-06-2016 12:00
2108,24,8:00 AM,71.6,60.8,69,30.02,10,Calm,Calm,-,,,Clear,0,30-06-2016 12:35
2109,25,8:35 AM,71.6,59,64,30.02,10,West,4.6,-,,,Clear,260,30-06-2016 12:55
2110,26,8:55 AM,71.6,59,64,30.02,10,West,5.8,43.7,,,Clear,260,30-06-2016 13:00
2111,27,9:00 AM,73.4,57.2,57,30.02,10,West,4.6,-,,,Clear,280,30-06-2016 13:35
2112,28,9:35 AM,75.2,57.2,53,30.02,10,West,5.8,-,,,Clear,270,30-06-2016 13:55
2113,29,9:55 AM,78.8,57.2,47,30.03,10,WSW,4.6,-,,,Clear,250,30-06-2016 14:00
2114,30,10:00 AM,78.8,55.4,44,30.03,10,WSW,4.6,-,,,Clear,250,30-06-2016 14:35
2115,31,10:35 AM,80.6,55.4,42,30.03,9,West,6.9,-,,,Clear,270,30-06-2016 14:55
2116,32,10:55 AM,80.6,57.2,45,30.03,10,SW,5.8,-,,,Clear,220,30-06-2016 15:00
2117,33,11:00 AM,80.6,55.4,42,30.03,10,WSW,6.9,-,,,Clear,250,30-06-2016 15:35
2118,34,11:35 AM,80.6,57.2,45,30.03,10,SW,4.6,-,,,Clear,220,30-06-2016 15:55
2119,35,11:55 AM,82.4,55.4,39,30.03,10,Calm,Calm,-,,,Clear,0,30-06-2016 16:00
2120,36,12:00 PM,82.4,55.4,39,30.03,10,South,3.5,-,,,Clear,190,30-06-2016 16:35
2121,37,12:35 PM,82.4,53.6,37,30.03,10,South,3.5,-,,,Clear,190,30-06-2016 16:55
2122,38,12:55 PM,82.4,55.4,39,30.02,10,Calm,Calm,-,,,Clear,0,30-06-2016 17:00
2123,39,1:00 PM,82.4,57.2,42,30.02,9,SSW,8.1,-,,,Clear,210,30-06-2016 17:35
2124,40,1:35 PM,82.4,57.2,42,30.02,10,SW,5.8,-,,,Clear,220,30-06-2016 17:55
2125,41,1:55 PM,84.2,55.4,37,30.02,9,WSW,5.8,-,,,Clear,240,30-06-2016 18:00
2126,42,2:00 PM,84.2,55.4,37,30.01,10,SW,6.9,-,,,Clear,220,30-06-2016 18:35
2127,43,2:35 PM,84.2,55.4,37,30.01,10,SW,8.1,-,,,Clear,220,30-06-2016 18:55
2128,44,2:55 PM,84.2,55.4,37,30.01,10,SW,6.9,-,,,Scattered Clouds,220,30-06-2016 19:00
2129,45,3:00 PM,84.2,55.4,37,30,10,WSW,8.1,-,,,Scattered Clouds,240,30-06-2016 19:35
2130,46,3:35 PM,82.4,57.2,42,30,10,SW,8.1,-,,,Clear,230,30-06-2016 19:55
2131,47,3:55 PM,82.4,57.2,42,29.99,10,SW,5.8,-,,,Partly Cloudy,220,30-06-2016 20:00
2132,48,4:00 PM,84.2,55.4,37,29.99,10,SW,5.8,-,,,Clear,230,30-06-2016 20:35
2133,49,4:35 PM,82.4,60.8,48,29.99,10,SW,8.1,-,,,Partly Cloudy,220,30-06-2016 20:55
2134,50,4:55 PM,82.4,60.8,48,29.99,10,SSW,8.1,-,,,Partly Cloudy,210,30-06-2016 21:00
2135,51,5:00 PM,82.4,60.8,48,30,10,SSW,10.4,-,,,Partly Cloudy,200,30-06-2016 21:35
2136,52,5:35 PM,80.6,62.6,54,30,10,SSW,6.9,-,,,Partly Cloudy,200,30-06-2016 21:55
2137,53,5:55 PM,80.6,62.6,54,30.01,10,SSW,9.2,-,,,Partly Cloudy,210,30-06-2016 22:00
2138,54,6:00 PM,80.6,62.6,54,30.01,10,SSW,5.8,16.1,,,Clear,200,30-06-2016 22:35
2139,55,6:35 PM,80.6,62.6,54,30.01,10,SSW,10.4,-,,,Clear,200,30-06-2016 22:55
2140,56,6:55 PM,78.8,62.6,57,30.01,9,SSW,8.1,-,,,Clear,200,30-06-2016 23:00
2141,57,7:00 PM,78.8,62.6,57,30.01,10,SSW,6.9,-,,,Partly Cloudy,210,30-06-2016 23:35
2142,58,7:35 PM,78.8,62.6,57,30.01,10,SW,6.9,-,,,Mostly Cloudy,220,30-06-2016 23:55
2143,59,7:55 PM,78.8,62.6,57,30.01,10,SSW,8.1,-,,,Mostly Cloudy,210,01-07-2016 00:00
2144,60,8:00 PM,78.8,62.6,57,30.01,10,SSW,4.6,-,,,Partly Cloudy,210,01-07-2016 00:35
2145,61,8:35 PM,78.8,64.4,61,30.01,10,SW,4.6,-,,,Mostly Cloudy,220,01-07-2016 00:55
2146,62,8:55 PM,77,64.4,65,30.01,10,Calm,Calm,-,,,Scattered Clouds,0,01-07-2016 01:00
2147,63,9:00 PM,77,64.4,65,30.02,10,West,3.5,-,,,Clear,260,01-07-2016 01:35
2148,64,9:35 PM,77,64.4,65,30.02,10,SW,4.6,-,,,Clear,230,01-07-2016 01:55
2149,65,9:55 PM,77,64.4,65,30.03,10,WSW,4.6,-,,,Scattered Clouds,240,01-07-2016 02:00
2150,66,10:00 PM,77,64.4,65,30.03,10,SW,4.6,-,,,Partly Cloudy,230,01-07-2016 02:35
2151,67,10:35 PM,75.2,64.4,69,30.03,10,West,5.8,-,,,Clear,260,01-07-2016 02:55
2152,68,10:55 PM,75.2,64.4,69,30.03,10,West,5.8,-,,,Clear,260,01-07-2016 03:00
2153,69,11:00 PM,75.2,64.4,69,30.03,10,WSW,6.9,-,,,Clear,250,01-07-2016 03:35
2154,70,11:35 PM,75.2,64.4,69,30.03,10,SW,5.8,-,,,Clear,230,01-07-2016 03:55
2155,71,11:55 PM,75.2,64.4,69,30.02,10,West,3.5,-,,,Clear,260,01-07-2016 04:00
2156,0,12:00 AM,75.2,62.6,65,30.02,10,West,5.8,-,,,Clear,280,01-07-2016 04:35
2157,1,12:35 AM,75.2,62.6,65,30.03,10,Calm,Calm,-,,,Clear,0,01-07-2016 04:55
2158,2,12:55 AM,73.4,62.6,69,30.03,10,WNW,3.5,-,,,Clear,290,01-07-2016 05:00
2159,3,1:00 AM,75.2,62.6,65,30.04,10,WSW,5.8,-,,,Clear,250,01-07-2016 05:35
2160,4,1:35 AM,75.2,62.6,65,30.04,10,West,4.6,-,,,Clear,260,01-07-2016 05:55
2161,5,1:55 AM,73.4,62.6,69,30.03,10,West,4.6,-,,,Clear,280,01-07-2016 06:00
2162,6,2:00 AM,73.4,62.6,69,30.02,10,West,4.6,-,,,Clear,280,01-07-2016 06:35
2163,7,2:35 AM,73.4,60.8,65,30.02,10,SW,4.6,-,,,Clear,230,01-07-2016 06:55
2164,8,2:55 AM,73.4,59,61,30.02,10,WSW,5.8,-,,,Clear,250,01-07-2016 07:00
2165,9,3:00 AM,73.4,60.8,65,30.02,10,SW,4.6,-,,,Clear,230,01-07-2016 07:35
2166,10,3:35 AM,71.6,60.8,69,30.01,10,SW,3.5,-,,,Clear,230,01-07-2016 07:55
2167,11,3:55 AM,71.6,60.8,69,30.02,10,WSW,5.8,-,,,Clear,240,01-07-2016 08:00
2168,12,4:00 AM,71.6,60.8,69,30.02,10,West,3.5,-,,,Clear,260,01-07-2016 08:35
2169,13,4:35 AM,71.6,62.6,73,30.02,10,West,3.5,-,,,Scattered Clouds,280,01-07-2016 08:55
2170,14,4:55 AM,71.6,62.6,73,30.01,10,WNW,3.5,-,,,Partly Cloudy,290,01-07-2016 09:00
2171,15,5:00 AM,71.6,62.6,73,30.01,10,Calm,Calm,-,,,Clear,0,01-07-2016 09:35
2172,16,5:35 AM,71.6,62.6,73,30.02,10,Calm,Calm,-,,,Clear,0,01-07-2016 09:55
2173,17,5:55 AM,71.6,62.6,73,30.02,10,Calm,Calm,-,,,Clear,0,01-07-2016 10:00
2174,18,6:00 AM,71.6,64.4,78,30.02,10,Calm,Calm,-,,,Clear,0,01-07-2016 10:35
2175,19,6:35 AM,71.6,64.4,78,30.02,10,Calm,Calm,-,,,Clear,0,01-07-2016 10:55
2176,20,6:55 AM,71.6,64.4,78,30.02,10,SSE,3.5,-,,,Clear,150,01-07-2016 11:00
2177,21,7:00 AM,73.4,66.2,78,30.02,10,SSE,4.6,-,,,Mostly Cloudy,150,01-07-2016 11:35
2178,22,7:35 AM,73.4,66.2,78,30.02,10,Calm,Calm,-,,,Overcast,0,01-07-2016 11:55
2179,23,7:55 AM,73.4,66.2,78,30.01,10,Calm,Calm,-,,,Overcast,0,01-07-2016 12:00
2180,24,8:00 AM,73.4,66.2,78,30.02,10,Calm,Calm,-,,,Mostly Cloudy,0,01-07-2016 12:35
2181,25,8:35 AM,73.4,68,83,30.01,10,Calm,Calm,-,,,Overcast,0,01-07-2016 12:55
2182,26,8:55 AM,75.2,68,78,30.01,10,Calm,Calm,-,,,Scattered Clouds,0,01-07-2016 13:00
2183,27,9:00 AM,75.2,68,78,30,10,West,4.6,-,,,Partly Cloudy,260,01-07-2016 13:35
2184,28,9:35 AM,75.2,68,78,30,10,West,5.8,-,,,Scattered Clouds,280,01-07-2016 13:55
2185,29,9:55 AM,75.2,69.8,83,30,9,West,4.6,-,,,Overcast,270,01-07-2016 14:00
2186,30,10:00 AM,77,69.8,78,29.98,10,South,4.6,-,,,Overcast,180,01-07-2016 14:35
2187,31,10:35 AM,78.8,68,69,29.98,10,ESE,3.5,-,,,Overcast,120,01-07-2016 14:55
2188,32,10:55 AM,78.8,68,69,29.98,10,ESE,6.9,-,,,Overcast,110,01-07-2016 15:00
2189,33,11:00 AM,78.8,69.8,74,29.99,10,SE,5.8,-,,,Overcast,140,01-07-2016 15:35
2190,34,11:35 AM,78.8,69.8,74,29.98,10,SSE,9.2,-,,,Overcast,150,01-07-2016 15:55
2191,35,11:55 AM,78.8,69.8,74,29.98,10,South,10.4,-,,,Overcast,180,01-07-2016 16:00
2192,36,12:00 PM,78.8,69.8,74,29.97,10,SSE,5.8,-,,,Overcast,150,01-07-2016 16:35
2193,37,12:35 PM,78.8,69.8,74,29.97,10,SE,10.4,-,,,Mostly Cloudy,130,01-07-2016 16:55
2194,38,12:55 PM,78.8,69.8,74,29.97,10,SE,12.7,-,,,Scattered Clouds,130,01-07-2016 17:00
2195,39,1:00 PM,78.8,69.8,74,29.96,10,SSE,9.2,16.1,,,Mostly Cloudy,150,01-07-2016 17:35
2196,40,1:35 PM,78.8,69.8,74,29.95,10,South,10.4,16.1,,,Overcast,170,01-07-2016 17:55
2197,41,1:55 PM,78.8,69.8,74,29.95,10,South,9.2,16.1,,,Overcast,170,01-07-2016 18:00
2198,42,2:00 PM,78.8,71.6,78,29.94,10,SSE,8.1,17.3,,,Overcast,150,01-07-2016 18:35
2199,43,2:35 PM,78.8,71.6,78,29.93,10,South,8.1,-,,,Overcast,170,01-07-2016 18:55
2200,44,2:55 PM,78.8,71.6,78,29.91,10,SSE,4.6,-,,,Overcast,160,01-07-2016 19:00
2201,45,3:00 PM,78.8,71.6,78,29.9,10,SSE,12.7,17.3,,Thunderstorm,Overcast,150,01-07-2016 19:35
2202,46,3:35 PM,75.2,71.6,89,29.91,9,SSE,8.1,-,,Thunderstorm,Thunderstorm,160,01-07-2016 19:55
2203,47,3:55 PM,75.2,71.6,89,29.9,10,South,9.2,-,,Thunderstorm,Overcast,180,01-07-2016 20:00
2204,48,4:00 PM,75.2,71.6,89,29.87,9,SE,3.5,-,,,Mostly Cloudy,130,01-07-2016 20:35
2205,49,4:35 PM,75.2,69.8,83,29.86,10,South,5.8,-,,Thunderstorm,Thunderstorm,170,01-07-2016 20:55
2206,50,4:55 PM,77,69.8,78,29.88,10,SSE,13.8,21.9,,Thunderstorm,Thunderstorm,160,01-07-2016 21:00
2207,51,5:00 PM,75.2,66.2,73,29.85,10,South,6.9,-,,,Overcast,170,01-07-2016 21:35
2208,52,5:35 PM,73.4,66.2,78,29.88,9,South,11.5,-,0.01,,Overcast,190,01-07-2016 21:55
2209,53,5:55 PM,73.4,69.8,88,29.89,8,WSW,6.9,-,0.02,,Overcast,250,01-07-2016 22:00
2210,54,6:00 PM,71.6,69.8,94,29.89,7,WSW,3.5,-,0.03,,Mostly Cloudy,250,01-07-2016 22:35
2211,55,6:35 PM,71.6,69.8,94,29.88,9,SSW,9.2,-,0.03,,Mostly Cloudy,200,01-07-2016 22:55
2212,56,6:55 PM,71.6,69.8,94,29.88,10,South,3.5,-,0.03,,Scattered Clouds,190,01-07-2016 23:00
2213,57,7:00 PM,73.4,69.8,88,29.88,10,Calm,Calm,-,,,Partly Cloudy,0,01-07-2016 23:35
2214,58,7:35 PM,73.4,69.8,88,29.88,10,SSW,4.6,-,,,Scattered Clouds,200,01-07-2016 23:55
2215,59,7:55 PM,71.6,69.8,94,29.88,1.5,Calm,Calm,-,0.21,,Overcast,0,02-07-2016 00:00
2216,60,8:00 PM,71.6,69.8,94,29.87,10,SSE,6.9,-,0.02,,Overcast,150,02-07-2016 00:35
2217,61,8:35 PM,71.6,69.8,94,29.87,10,SSW,3.5,-,0.03,,Mostly Cloudy,200,02-07-2016 00:55
2218,62,8:55 PM,71.6,69.8,94,29.87,10,Calm,Calm,-,0.03,,Mostly Cloudy,0,02-07-2016 01:00
2219,63,9:00 PM,71.6,68,88,29.87,10,West,3.5,-,0.02,Thunderstorm,Thunderstorm,280,02-07-2016 01:35
2220,64,9:35 PM,71.6,69.8,94,29.89,10,North,4.6,-,0.02,Thunderstorm,Thunderstorm,350,02-07-2016 01:55
2221,65,9:55 PM,73.4,69.8,88,29.89,10,Calm,Calm,-,0.02,Thunderstorm,Overcast,0,02-07-2016 02:00
2222,66,10:00 PM,71.6,68,88,29.9,8,North,4.6,-,0.03,,Overcast,360,02-07-2016 02:35
2223,67,10:35 PM,71.6,68,88,29.88,10,Calm,Calm,-,0.03,,Mostly Cloudy,0,02-07-2016 02:55
2224,68,10:55 PM,71.6,68,88,29.87,10,Calm,Calm,-,0.03,,Scattered Clouds,0,02-07-2016 03:00
2225,69,11:00 PM,71.6,66.2,83,29.87,10,Calm,Calm,-,,,Partly Cloudy,0,02-07-2016 03:35
2226,70,11:35 PM,71.6,68,88,29.87,10,Calm,Calm,-,,,Clear,0,02-07-2016 03:55
2227,71,11:55 PM,71.6,68,88,29.87,10,Calm,Calm,-,,,Clear,0,01-07-2016 04:00
2228,0,12:00 AM,75.2,62.6,65,30.02,10,West,5.8,-,,,Clear,280,01-07-2016 04:35
2229,1,12:35 AM,75.2,62.6,65,30.03,10,Calm,Calm,-,,,Clear,0,01-07-2016 04:55
2230,2,12:55 AM,73.4,62.6,69,30.03,10,WNW,3.5,-,,,Clear,290,01-07-2016 05:00
2231,3,1:00 AM,75.2,62.6,65,30.04,10,WSW,5.8,-,,,Clear,250,01-07-2016 05:35
2232,4,1:35 AM,75.2,62.6,65,30.04,10,West,4.6,-,,,Clear,260,01-07-2016 05:55
2233,5,1:55 AM,73.4,62.6,69,30.03,10,West,4.6,-,,,Clear,280,01-07-2016 06:00
2234,6,2:00 AM,73.4,62.6,69,30.02,10,West,4.6,-,,,Clear,280,01-07-2016 06:35
2235,7,2:35 AM,73.4,60.8,65,30.02,10,SW,4.6,-,,,Clear,230,01-07-2016 06:55
2236,8,2:55 AM,73.4,59,61,30.02,10,WSW,5.8,-,,,Clear,250,01-07-2016 07:00
2237,9,3:00 AM,73.4,60.8,65,30.02,10,SW,4.6,-,,,Clear,230,01-07-2016 07:35
2238,10,3:35 AM,71.6,60.8,69,30.01,10,SW,3.5,-,,,Clear,230,01-07-2016 07:55
2239,11,3:55 AM,71.6,60.8,69,30.02,10,WSW,5.8,-,,,Clear,240,01-07-2016 08:00
2240,12,4:00 AM,71.6,60.8,69,30.02,10,West,3.5,-,,,Clear,260,01-07-2016 08:35
2241,13,4:35 AM,71.6,62.6,73,30.02,10,West,3.5,-,,,Scattered Clouds,280,01-07-2016 08:55
2242,14,4:55 AM,71.6,62.6,73,30.01,10,WNW,3.5,-,,,Partly Cloudy,290,01-07-2016 09:00
2243,15,5:00 AM,71.6,62.6,73,30.01,10,Calm,Calm,-,,,Clear,0,01-07-2016 09:35
2244,16,5:35 AM,71.6,62.6,73,30.02,10,Calm,Calm,-,,,Clear,0,01-07-2016 09:55
2245,17,5:55 AM,71.6,62.6,73,30.02,10,Calm,Calm,-,,,Clear,0,01-07-2016 10:00
2246,18,6:00 AM,71.6,64.4,78,30.02,10,Calm,Calm,-,,,Clear,0,01-07-2016 10:35
2247,19,6:35 AM,71.6,64.4,78,30.02,10,Calm,Calm,-,,,Clear,0,01-07-2016 10:55
2248,20,6:55 AM,71.6,64.4,78,30.02,10,SSE,3.5,-,,,Clear,150,01-07-2016 11:00
2249,21,7:00 AM,73.4,66.2,78,30.02,10,SSE,4.6,-,,,Mostly Cloudy,150,01-07-2016 11:35
2250,22,7:35 AM,73.4,66.2,78,30.02,10,Calm,Calm,-,,,Overcast,0,01-07-2016 11:55
2251,23,7:55 AM,73.4,66.2,78,30.01,10,Calm,Calm,-,,,Overcast,0,01-07-2016 12:00
2252,24,8:00 AM,73.4,66.2,78,30.02,10,Calm,Calm,-,,,Mostly Cloudy,0,01-07-2016 12:35
2253,25,8:35 AM,73.4,68,83,30.01,10,Calm,Calm,-,,,Overcast,0,01-07-2016 12:55
2254,26,8:55 AM,75.2,68,78,30.01,10,Calm,Calm,-,,,Scattered Clouds,0,01-07-2016 13:00
2255,27,9:00 AM,75.2,68,78,30,10,West,4.6,-,,,Partly Cloudy,260,01-07-2016 13:35
2256,28,9:35 AM,75.2,68,78,30,10,West,5.8,-,,,Scattered Clouds,280,01-07-2016 13:55
2257,29,9:55 AM,75.2,69.8,83,30,9,West,4.6,-,,,Overcast,270,01-07-2016 14:00
2258,30,10:00 AM,77,69.8,78,29.98,10,South,4.6,-,,,Overcast,180,01-07-2016 14:35
2259,31,10:35 AM,78.8,68,69,29.98,10,ESE,3.5,-,,,Overcast,120,01-07-2016 14:55
2260,32,10:55 AM,78.8,68,69,29.98,10,ESE,6.9,-,,,Overcast,110,01-07-2016 15:00
2261,33,11:00 AM,78.8,69.8,74,29.99,10,SE,5.8,-,,,Overcast,140,01-07-2016 15:35
2262,34,11:35 AM,78.8,69.8,74,29.98,10,SSE,9.2,-,,,Overcast,150,01-07-2016 15:55
2263,35,11:55 AM,78.8,69.8,74,29.98,10,South,10.4,-,,,Overcast,180,01-07-2016 16:00
2264,36,12:00 PM,78.8,69.8,74,29.97,10,SSE,5.8,-,,,Overcast,150,01-07-2016 16:35
2265,37,12:35 PM,78.8,69.8,74,29.97,10,SE,10.4,-,,,Mostly Cloudy,130,01-07-2016 16:55
2266,38,12:55 PM,78.8,69.8,74,29.97,10,SE,12.7,-,,,Scattered Clouds,130,01-07-2016 17:00
2267,39,1:00 PM,78.8,69.8,74,29.96,10,SSE,9.2,16.1,,,Mostly Cloudy,150,01-07-2016 17:35
2268,40,1:35 PM,78.8,69.8,74,29.95,10,South,10.4,16.1,,,Overcast,170,01-07-2016 17:55
2269,41,1:55 PM,78.8,69.8,74,29.95,10,South,9.2,16.1,,,Overcast,170,01-07-2016 18:00
2270,42,2:00 PM,78.8,71.6,78,29.94,10,SSE,8.1,17.3,,,Overcast,150,01-07-2016 18:35
2271,43,2:35 PM,78.8,71.6,78,29.93,10,South,8.1,-,,,Overcast,170,01-07-2016 18:55
2272,44,2:55 PM,78.8,71.6,78,29.91,10,SSE,4.6,-,,,Overcast,160,01-07-2016 19:00
2273,45,3:00 PM,78.8,71.6,78,29.9,10,SSE,12.7,17.3,,Thunderstorm,Overcast,150,01-07-2016 19:35
2274,46,3:35 PM,75.2,71.6,89,29.91,9,SSE,8.1,-,,Thunderstorm,Thunderstorm,160,01-07-2016 19:55
2275,47,3:55 PM,75.2,71.6,89,29.9,10,South,9.2,-,,Thunderstorm,Overcast,180,01-07-2016 20:00
2276,48,4:00 PM,75.2,71.6,89,29.87,9,SE,3.5,-,,,Mostly Cloudy,130,01-07-2016 20:35
2277,49,4:35 PM,75.2,69.8,83,29.86,10,South,5.8,-,,Thunderstorm,Thunderstorm,170,01-07-2016 20:55
2278,50,4:55 PM,77,69.8,78,29.88,10,SSE,13.8,21.9,,Thunderstorm,Thunderstorm,160,01-07-2016 21:00
2279,51,5:00 PM,75.2,66.2,73,29.85,10,South,6.9,-,,,Overcast,170,01-07-2016 21:35
2280,52,5:35 PM,73.4,66.2,78,29.88,9,South,11.5,-,0.01,,Overcast,190,01-07-2016 21:55
2281,53,5:55 PM,73.4,69.8,88,29.89,8,WSW,6.9,-,0.02,,Overcast,250,01-07-2016 22:00
2282,54,6:00 PM,71.6,69.8,94,29.89,7,WSW,3.5,-,0.03,,Mostly Cloudy,250,01-07-2016 22:35
2283,55,6:35 PM,71.6,69.8,94,29.88,9,SSW,9.2,-,0.03,,Mostly Cloudy,200,01-07-2016 22:55
2284,56,6:55 PM,71.6,69.8,94,29.88,10,South,3.5,-,0.03,,Scattered Clouds,190,01-07-2016 23:00
2285,57,7:00 PM,73.4,69.8,88,29.88,10,Calm,Calm,-,,,Partly Cloudy,0,01-07-2016 23:35
2286,58,7:35 PM,73.4,69.8,88,29.88,10,SSW,4.6,-,,,Scattered Clouds,200,01-07-2016 23:55
2287,59,7:55 PM,71.6,69.8,94,29.88,1.5,Calm,Calm,-,0.21,,Overcast,0,02-07-2016 00:00
2288,60,8:00 PM,71.6,69.8,94,29.87,10,SSE,6.9,-,0.02,,Overcast,150,02-07-2016 00:35
2289,61,8:35 PM,71.6,69.8,94,29.87,10,SSW,3.5,-,0.03,,Mostly Cloudy,200,02-07-2016 00:55
2290,62,8:55 PM,71.6,69.8,94,29.87,10,Calm,Calm,-,0.03,,Mostly Cloudy,0,02-07-2016 01:00
2291,63,9:00 PM,71.6,68,88,29.87,10,West,3.5,-,0.02,Thunderstorm,Thunderstorm,280,02-07-2016 01:35
2292,64,9:35 PM,71.6,69.8,94,29.89,10,North,4.6,-,0.02,Thunderstorm,Thunderstorm,350,02-07-2016 01:55
2293,65,9:55 PM,73.4,69.8,88,29.89,10,Calm,Calm,-,0.02,Thunderstorm,Overcast,0,02-07-2016 02:00
2294,66,10:00 PM,71.6,68,88,29.9,8,North,4.6,-,0.03,,Overcast,360,02-07-2016 02:35
2295,67,10:35 PM,71.6,68,88,29.88,10,Calm,Calm,-,0.03,,Mostly Cloudy,0,02-07-2016 02:55
2296,68,10:55 PM,71.6,68,88,29.87,10,Calm,Calm,-,0.03,,Scattered Clouds,0,02-07-2016 03:00
2297,69,11:00 PM,71.6,66.2,83,29.87,10,Calm,Calm,-,,,Partly Cloudy,0,02-07-2016 03:35
2298,70,11:35 PM,71.6,68,88,29.87,10,Calm,Calm,-,,,Clear,0,02-07-2016 03:55
2299,71,11:55 PM,71.6,68,88,29.87,10,Calm,Calm,-,,,Clear,0,02-07-2016 04:00
2300,0,12:00 AM,71.6,68,88,29.87,10,Calm,Calm,-,,,Clear,0,02-07-2016 04:35
2301,1,12:35 AM,71.6,68,88,29.86,10,Calm,Calm,-,,,Clear,0,02-07-2016 04:55
2302,2,12:55 AM,71.6,68,88,29.85,10,West,3.5,-,,,Clear,280,02-07-2016 05:00
2303,3,1:00 AM,71.6,68,88,29.86,10,West,4.6,-,,,Clear,260,02-07-2016 05:35
2304,4,1:35 AM,71.6,69.8,94,29.86,10,West,4.6,-,,,Clear,260,02-07-2016 05:55
2305,5,1:55 AM,71.6,69.8,94,29.86,10,Calm,Calm,-,,,Partly Cloudy,0,02-07-2016 06:00
2306,6,2:00 AM,71.6,69.8,94,29.87,10,Calm,Calm,-,,,Partly Cloudy,0,02-07-2016 06:35
2307,7,2:35 AM,71.6,68,88,29.86,10,Calm,Calm,-,,,Partly Cloudy,0,02-07-2016 06:55
2308,8,2:55 AM,71.6,68,88,29.87,10,Calm,Calm,-,,,Partly Cloudy,0,02-07-2016 07:00
2309,9,3:00 AM,71.6,66.2,83,29.87,10,Calm,Calm,-,,,Clear,0,02-07-2016 07:35
2310,10,3:35 AM,71.6,66.2,83,29.87,10,Calm,Calm,-,,,Clear,0,02-07-2016 07:55
2311,11,3:55 AM,71.6,64.4,78,29.88,10,Calm,Calm,-,,,Clear,0,02-07-2016 08:00
2312,12,4:00 AM,69.8,64.4,83,29.88,10,WSW,3.5,-,,,Clear,250,02-07-2016 08:35
2313,13,4:35 AM,69.8,62.6,78,29.89,10,Calm,Calm,-,,,Clear,0,02-07-2016 09:00
2314,14,5:00 AM,68,60.8,78,29.91,10,Calm,Calm,-,,,Clear,0,02-07-2016 09:35
2315,15,5:35 AM,68,59,73,29.92,10,Calm,Calm,-,,,Clear,0,02-07-2016 09:55
2316,16,5:55 AM,66.2,59,78,29.93,10,Calm,Calm,-,,,Clear,0,02-07-2016 10:00
2317,17,6:00 AM,66.2,60.8,83,29.94,10,Calm,Calm,-,,,Clear,0,02-07-2016 10:35
2318,18,6:35 AM,66.2,59,78,29.95,10,West,3.5,-,,,Clear,270,02-07-2016 10:55
2319,19,6:55 AM,66.2,59,78,29.96,10,Calm,Calm,-,,,Clear,0,02-07-2016 11:00
2320,20,7:00 AM,68,59,73,29.96,10,Calm,Calm,-,,,Clear,0,02-07-2016 11:35
2321,21,7:35 AM,68,57.2,68,29.97,10,West,3.5,-,,,Clear,260,02-07-2016 11:55
2322,22,7:55 AM,68,57.2,68,29.98,10,Calm,Calm,-,,,Partly Cloudy,0,02-07-2016 12:00
2323,23,8:00 AM,69.8,59,68,29.98,10,Calm,Calm,-,,,Mostly Cloudy,0,02-07-2016 12:35
2324,24,8:35 AM,69.8,59,68,29.98,10,Calm,Calm,-,,,Mostly Cloudy,0,02-07-2016 12:55
2325,25,8:55 AM,69.8,57.2,64,29.99,10,WSW,6.9,-,,,Mostly Cloudy,250,02-07-2016 13:00
2326,26,9:00 AM,69.8,57.2,64,29.99,10,NNE,3.5,16.1,,,Overcast,30,02-07-2016 13:35
2327,27,9:35 AM,71.6,57.2,60,29.98,10,NW,4.6,-,,,Scattered Clouds,320,02-07-2016 13:55
2328,28,9:55 AM,73.4,57.2,57,29.98,10,WSW,6.9,-,,,Clear,240,02-07-2016 14:00
2329,29,10:00 AM,73.4,55.4,53,29.99,10,Calm,Calm,-,,,Clear,0,02-07-2016 14:35
2330,30,10:35 AM,75.2,53.6,47,29.99,10,Calm,Calm,-,,,Clear,0,02-07-2016 14:55
2331,31,10:55 AM,75.2,53.6,47,29.99,10,NW,3.5,-,,,Clear,310,02-07-2016 15:00
2332,32,11:00 AM,75.2,51.8,44,29.99,10,West,3.5,-,,,Clear,280,02-07-2016 15:35
2333,33,11:35 AM,75.2,51.8,44,29.99,10,West,8.1,-,,,Partly Cloudy,280,02-07-2016 15:55
2334,34,11:55 AM,77,51.8,41,29.99,10,West,8.1,19.6,,,Partly Cloudy,280,02-07-2016 16:00
2335,35,12:00 PM,75.2,50,41,29.99,10,NW,5.8,-,,,Clear,320,02-07-2016 16:35
2336,36,12:35 PM,77,50,39,30,10,West,6.9,-,,,Clear,270,02-07-2016 16:55
2337,37,12:55 PM,77,48.2,36,30,10,West,9.2,19.6,,,Partly Cloudy,260,02-07-2016 17:00
2338,38,1:00 PM,78.8,48.2,34,30,10,WSW,9.2,-,,,Mostly Cloudy,250,02-07-2016 17:35
2339,39,1:35 PM,78.8,48.2,34,29.99,10,West,11.5,-,,,Scattered Clouds,270,02-07-2016 17:55
2340,40,1:55 PM,78.8,48.2,34,30,10,WSW,10.4,-,,,Scattered Clouds,250,02-07-2016 18:00
2341,41,2:00 PM,78.8,48.2,34,29.99,10,WSW,5.8,-,,,Mostly Cloudy,250,02-07-2016 18:35
2342,42,2:35 PM,78.8,48.2,34,29.99,10,Calm,Calm,-,,,Partly Cloudy,0,02-07-2016 18:55
2343,43,2:55 PM,80.6,48.2,32,30,10,Calm,Calm,-,,,Partly Cloudy,0,02-07-2016 19:00
2344,44,3:00 PM,80.6,46.4,30,30,10,West,4.6,-,,,Clear,280,02-07-2016 19:35
2345,45,3:35 PM,80.6,48.2,32,30,10,NW,3.5,-,,,Clear,320,02-07-2016 19:55
2346,46,3:55 PM,78.8,46.4,32,29.99,10,NNW,3.5,-,,,Clear,330,02-07-2016 20:00
2347,47,4:00 PM,78.8,48.2,34,30,10,West,6.9,-,,,Clear,270,02-07-2016 20:35
2348,48,4:35 PM,78.8,48.2,34,30,10,East,3.5,-,,,Clear,100,02-07-2016 20:55
2349,49,4:55 PM,78.8,48.2,34,30.01,10,Calm,Calm,-,,,Clear,0,02-07-2016 21:00
2350,50,5:00 PM,78.8,46.4,32,30.01,10,WNW,3.5,-,,,Clear,300,02-07-2016 21:35
2351,51,5:35 PM,78.8,48.2,34,30.01,10,NW,4.6,-,,,Clear,320,02-07-2016 21:55
2352,52,5:55 PM,78.8,46.4,32,30.01,10,WNW,4.6,-,,,Clear,290,02-07-2016 22:00
2353,53,6:00 PM,80.6,48.2,32,30.01,10,West,3.5,-,,,Clear,270,02-07-2016 22:35
2354,54,6:35 PM,78.8,48.2,34,30.02,10,West,10.4,16.1,,,Clear,270,02-07-2016 22:55
2355,55,6:55 PM,78.8,48.2,34,30.03,10,West,8.1,-,,,Clear,260,02-07-2016 23:00
2356,56,7:00 PM,75.2,50,41,30.02,10,West,9.2,-,,,Clear,260,02-07-2016 23:35
2357,57,7:35 PM,75.2,50,41,30.03,10,West,9.2,-,,,Clear,260,02-07-2016 23:55
2358,58,7:55 PM,75.2,51.8,44,30.03,10,West,9.2,-,,,Clear,260,03-07-2016 00:00
2359,59,8:00 PM,75.2,51.8,44,30.04,10,West,10.4,-,,,Clear,270,03-07-2016 00:35
2360,60,8:35 PM,73.4,51.8,47,30.04,10,West,9.2,-,,,Clear,270,03-07-2016 00:55
2361,61,8:55 PM,73.4,53.6,50,30.04,10,West,9.2,-,,,Clear,270,03-07-2016 01:00
2362,62,9:00 PM,73.4,51.8,47,30.05,10,West,8.1,-,,,Clear,270,03-07-2016 01:35
2363,63,9:35 PM,73.4,51.8,47,30.06,10,West,8.1,-,,,Clear,270,03-07-2016 01:55
2364,64,9:55 PM,73.4,51.8,47,30.07,10,West,6.9,-,,,Clear,270,03-07-2016 02:00
2365,65,10:00 PM,73.4,53.6,50,30.07,10,West,8.1,-,,,Clear,270,03-07-2016 02:35
2366,66,10:35 PM,73.4,55.4,53,30.07,10,West,8.1,-,,,Clear,260,03-07-2016 02:55
2367,67,10:55 PM,73.4,53.6,50,30.07,10,West,8.1,-,,,Clear,260,03-07-2016 03:00
2368,68,11:00 PM,73.4,53.6,50,30.08,10,West,9.2,-,,,Clear,270,03-07-2016 03:35
2369,69,11:35 PM,71.6,51.8,50,30.07,10,West,5.8,-,,,Clear,260,03-07-2016 03:55
2370,70,11:55 PM,71.6,53.6,53,30.07,10,West,8.1,-,,,Clear,270,03-07-2016 04:00
2371,0,12:00 AM,71.6,53.6,53,30.07,10,West,5.8,-,,,Clear,270,03-07-2016 04:35
2372,1,12:35 AM,71.6,53.6,53,30.07,10,West,6.9,-,,,Clear,270,03-07-2016 04:55
2373,2,12:55 AM,71.6,53.6,53,30.07,10,WSW,5.8,-,,,Clear,250,03-07-2016 05:00
2374,3,1:00 AM,71.6,51.8,50,30.07,10,West,4.6,-,,,Clear,260,03-07-2016 05:35
2375,4,1:35 AM,71.6,51.8,50,30.07,10,West,3.5,-,,,Clear,260,03-07-2016 05:55
2376,5,1:55 AM,71.6,53.6,53,30.07,10,West,3.5,-,,,Clear,260,03-07-2016 06:00
2377,6,2:00 AM,69.8,53.6,56,30.07,10,WSW,4.6,-,,,Clear,250,03-07-2016 06:35
2378,7,2:35 AM,69.8,53.6,56,30.07,10,Calm,Calm,-,,,Clear,0,03-07-2016 06:55
2379,8,2:55 AM,69.8,53.6,56,30.07,10,West,4.6,-,,,Clear,260,03-07-2016 07:00
2380,9,3:00 AM,69.8,53.6,56,30.07,10,West,4.6,-,,,Clear,260,03-07-2016 07:35
2381,10,3:35 AM,69.8,53.6,56,30.07,10,West,5.8,-,,,Clear,270,03-07-2016 07:55
2382,11,3:55 AM,69.8,53.6,56,30.08,10,West,5.8,-,,,Clear,260,03-07-2016 08:00
2383,12,4:00 AM,69.8,53.6,56,30.08,10,WSW,3.5,-,,,Clear,250,03-07-2016 08:35
2384,13,4:35 AM,69.8,53.6,56,30.08,10,Calm,Calm,-,,,Clear,0,03-07-2016 08:55
2385,14,4:55 AM,69.8,53.6,56,30.09,10,West,3.5,-,,,Clear,270,03-07-2016 09:00
2386,15,5:00 AM,69.8,55.4,60,30.09,10,West,4.6,-,,,Clear,270,03-07-2016 09:35
2387,16,5:35 AM,68,55.4,64,30.1,10,West,4.6,-,,,Clear,270,03-07-2016 09:55
2388,17,5:55 AM,68,55.4,64,30.1,10,Calm,Calm,-,,,Clear,0,03-07-2016 10:00
2389,18,6:00 AM,68,57.2,68,30.1,10,West,4.6,-,,,Clear,260,03-07-2016 10:35
2390,19,6:35 AM,68,57.2,68,30.1,10,West,5.8,-,,,Clear,270,03-07-2016 10:55
2391,20,6:55 AM,69.8,57.2,64,30.11,10,West,4.6,-,,,Clear,270,03-07-2016 11:00
2392,21,7:00 AM,69.8,57.2,64,30.12,10,West,4.6,-,,,Clear,270,03-07-2016 11:35
2393,22,7:35 AM,69.8,55.4,60,30.12,10,Calm,Calm,-,,,Clear,0,03-07-2016 11:55
2394,23,7:55 AM,71.6,53.6,53,30.12,10,SW,3.5,-,,,Clear,230,03-07-2016 12:00
2395,24,8:00 AM,71.6,53.6,53,30.13,10,Calm,Calm,-,,,Clear,0,03-07-2016 12:35
2396,25,8:35 AM,73.4,55.4,53,30.13,10,ENE,4.6,-,,,Clear,60,03-07-2016 12:55
2397,26,8:55 AM,73.4,53.6,50,30.13,10,Calm,Calm,-,,,Clear,0,03-07-2016 13:00
2398,27,9:00 AM,73.4,57.2,57,30.13,10,Calm,Calm,-,,,Clear,0,03-07-2016 13:35
2399,28,9:35 AM,73.4,55.4,53,30.12,10,Calm,Calm,-,,,Clear,0,03-07-2016 13:55
2400,29,9:55 AM,75.2,53.6,47,30.13,10,Calm,Calm,-,,,Clear,0,03-07-2016 14:00
2401,30,10:00 AM,75.2,53.6,47,30.12,10,Calm,Calm,-,,,Clear,0,03-07-2016 14:35
2402,31,10:35 AM,77,53.6,44,30.12,10,SSW,3.5,-,,,Clear,200,03-07-2016 14:55
2403,32,10:55 AM,78.8,53.6,42,30.12,10,Calm,Calm,-,,,Clear,0,03-07-2016 15:00
2404,33,11:00 AM,78.8,51.8,39,30.12,10,West,3.5,-,,,Clear,270,03-07-2016 15:35
2405,34,11:35 AM,78.8,48.2,34,30.12,10,WSW,3.5,-,,,Clear,250,03-07-2016 15:55
2406,35,11:55 AM,78.8,53.6,42,30.12,10,WSW,4.6,-,,,Clear,250,03-07-2016 16:00
2407,36,12:00 PM,78.8,50,36,30.11,10,WSW,4.6,-,,,Clear,240,03-07-2016 16:35
2408,37,12:35 PM,78.8,53.6,42,30.11,10,Calm,Calm,-,,,Clear,0,03-07-2016 16:55
2409,38,12:55 PM,78.8,53.6,42,30.11,10,Calm,Calm,-,,,Clear,0,03-07-2016 17:00
2410,39,1:00 PM,80.6,53.6,39,30.1,10,SSW,3.5,-,,,Clear,210,03-07-2016 17:35
2411,40,1:35 PM,78.8,51.8,39,30.1,10,Calm,Calm,-,,,Clear,0,03-07-2016 17:55
2412,41,1:55 PM,80.6,51.8,37,30.1,10,SW,4.6,-,,,Clear,220,03-07-2016 18:00
2413,42,2:00 PM,78.8,51.8,39,30.09,10,SW,6.9,-,,,Clear,230,03-07-2016 18:35
2414,43,2:35 PM,78.8,51.8,39,30.1,10,SSW,9.2,-,,,Clear,210,03-07-2016 18:55
2415,44,2:55 PM,78.8,50,36,30.09,10,SW,6.9,-,,,Clear,220,03-07-2016 19:00
2416,45,3:00 PM,78.8,50,36,30.09,10,SW,6.9,-,,,Clear,220,03-07-2016 19:35
2417,46,3:35 PM,80.6,50,34,30.08,10,SW,5.8,-,,,Clear,220,03-07-2016 19:55
2418,47,3:55 PM,80.6,51.8,37,30.07,10,SW,8.1,-,,,Clear,230,03-07-2016 20:00
2419,48,4:00 PM,80.6,51.8,37,30.07,10,SSW,5.8,-,,,Clear,210,03-07-2016 20:35
2420,49,4:35 PM,80.6,51.8,37,30.07,10,SW,6.9,-,,,Clear,230,03-07-2016 20:55
2421,50,4:55 PM,80.6,53.6,39,30.07,10,SSW,6.9,-,,,Clear,210,03-07-2016 21:00
2422,51,5:00 PM,78.8,53.6,42,30.06,10,SW,4.6,-,,,Clear,220,03-07-2016 21:35
2423,52,5:35 PM,78.8,55.4,44,30.06,10,SW,5.8,-,,,Clear,230,03-07-2016 21:55
2424,53,5:55 PM,78.8,57.2,47,30.06,10,WSW,5.8,-,,,Clear,240,03-07-2016 22:00
2425,54,6:00 PM,78.8,59,51,30.06,10,SW,6.9,-,,,Clear,230,03-07-2016 22:35
2426,55,6:35 PM,77,60.8,57,30.06,10,WSW,12.7,-,,,Clear,240,03-07-2016 22:55
2427,56,6:55 PM,77,60.8,57,30.06,10,WSW,10.4,-,,,Clear,240,03-07-2016 23:00
2428,57,7:00 PM,75.2,59,57,30.07,10,SW,12.7,-,,,Clear,230,03-07-2016 23:35
2429,58,7:35 PM,75.2,60.8,61,30.07,10,WSW,12.7,-,,,Clear,240,03-07-2016 23:55
2430,59,7:55 PM,75.2,60.8,61,30.07,10,WSW,11.5,-,,,Clear,240,04-07-2016 00:00
2431,60,8:00 PM,75.2,60.8,61,30.07,10,WSW,12.7,-,,,Clear,240,04-07-2016 00:35
2432,61,8:35 PM,75.2,60.8,61,30.07,10,WSW,10.4,-,,,Clear,240,04-07-2016 00:55
2433,62,8:55 PM,73.4,60.8,65,30.07,10,WSW,8.1,-,,,Clear,250,04-07-2016 01:00
2434,63,9:00 PM,73.4,60.8,65,30.07,10,WSW,9.2,-,,,Clear,240,04-07-2016 01:35
2435,64,9:35 PM,73.4,60.8,65,30.07,10,WSW,5.8,-,,,Clear,250,04-07-2016 01:55
2436,65,9:55 PM,73.4,62.6,69,30.08,10,WSW,6.9,-,,,Clear,240,04-07-2016 02:00
2437,66,10:00 PM,73.4,62.6,69,30.08,10,WSW,6.9,-,,,Clear,240,04-07-2016 02:35
2438,67,10:35 PM,73.4,62.6,69,30.08,10,WSW,6.9,-,,,Clear,240,04-07-2016 02:55
2439,68,10:55 PM,71.6,62.6,73,30.08,10,WSW,4.6,-,,,Clear,240,04-07-2016 03:00
2440,69,11:00 PM,71.6,62.6,73,30.08,10,WSW,4.6,-,,,Clear,250,04-07-2016 03:35
2441,70,11:35 PM,71.6,62.6,73,30.09,10,WSW,3.5,-,,,Clear,240,04-07-2016 03:55
2442,71,11:55 PM,71.6,62.6,73,30.09,10,WSW,3.5,-,,,Clear,250,04-07-2016 04:00
2443,0,12:00 AM,71.6,62.6,73,30.09,10,WSW,4.6,-,,,Clear,250,04-07-2016 04:35
2444,1,12:35 AM,71.6,60.8,69,30.09,10,West,4.6,-,,,Clear,260,04-07-2016 04:55
2445,2,12:55 AM,71.6,60.8,69,30.09,10,WSW,4.6,-,,,Clear,250,04-07-2016 05:00
2446,3,1:00 AM,71.6,60.8,69,30.09,10,West,5.8,-,,,Clear,270,04-07-2016 05:35
2447,4,1:35 AM,71.6,60.8,69,30.08,10,West,4.6,-,,,Clear,280,04-07-2016 05:55
2448,5,1:55 AM,71.6,60.8,69,30.08,10,West,6.9,-,,,Clear,270,04-07-2016 06:00
2449,6,2:00 AM,71.6,60.8,69,30.08,10,West,5.8,-,,,Clear,270,04-07-2016 06:35
2450,7,2:35 AM,71.6,59,64,30.08,10,West,5.8,-,,,Clear,270,04-07-2016 06:55
2451,8,2:55 AM,69.8,60.8,73,30.08,10,West,5.8,-,,,Clear,270,04-07-2016 07:00
2452,9,3:00 AM,69.8,60.8,73,30.07,10,West,6.9,-,,,Clear,270,04-07-2016 07:35
2453,10,3:35 AM,69.8,60.8,73,30.07,10,West,5.8,-,,,Clear,270,04-07-2016 07:55
2454,11,3:55 AM,69.8,60.8,73,30.07,10,West,4.6,-,,,Clear,270,04-07-2016 08:00
2455,12,4:00 AM,69.8,60.8,73,30.07,10,West,4.6,-,,,Clear,260,04-07-2016 08:35
2456,13,4:35 AM,68,60.8,78,30.07,10,West,4.6,-,,,Clear,270,04-07-2016 08:55
2457,14,4:55 AM,68,60.8,78,30.07,10,West,3.5,-,,,Clear,270,04-07-2016 09:00
2458,15,5:00 AM,68,60.8,78,30.07,10,WSW,4.6,-,,,Clear,250,04-07-2016 09:35
2459,16,5:35 AM,68,60.8,78,30.08,10,West,4.6,-,,,Clear,260,04-07-2016 09:55
2460,17,5:55 AM,68,60.8,78,30.09,10,WSW,4.6,-,,,Clear,250,04-07-2016 10:00
2461,18,6:00 AM,68,60.8,78,30.09,10,SW,4.6,-,,,Clear,230,04-07-2016 10:35
2462,19,6:35 AM,66.2,60.8,83,30.1,10,West,4.6,-,,,Clear,260,04-07-2016 10:55
2463,20,6:55 AM,66.2,60.8,83,30.1,10,West,4.6,-,,,Clear,260,04-07-2016 11:00
2464,21,7:00 AM,66.2,60.8,83,30.1,10,WSW,4.6,-,,,Clear,240,04-07-2016 11:35
2465,22,7:35 AM,68,60.8,78,30.1,10,WSW,4.6,-,,,Clear,250,04-07-2016 11:55
2466,23,7:55 AM,68,62.6,83,30.1,10,West,4.6,-,,,Clear,260,04-07-2016 12:00
2467,24,8:00 AM,68,62.6,83,30.1,10,WSW,4.6,-,,,Clear,250,04-07-2016 12:35
2468,25,8:35 AM,69.8,62.6,78,30.1,10,WSW,4.6,-,,,Clear,250,04-07-2016 12:55
2469,26,8:55 AM,69.8,62.6,78,30.1,10,West,4.6,-,,,Clear,260,04-07-2016 13:00
2470,27,9:00 AM,69.8,62.6,78,30.1,10,WSW,4.6,-,,,Clear,240,04-07-2016 13:35
2471,28,9:35 AM,73.4,62.6,69,30.1,10,SSW,3.5,-,,,Clear,210,04-07-2016 13:55
2472,29,9:55 AM,73.4,62.6,69,30.1,9,SSW,3.5,-,,,Clear,200,04-07-2016 14:00
2473,30,10:00 AM,75.2,62.6,65,30.1,10,WSW,3.5,-,,,Clear,250,04-07-2016 14:35
2474,31,10:35 AM,78.8,60.8,54,30.1,10,WSW,4.6,-,,,Clear,250,04-07-2016 14:55
2475,32,10:55 AM,80.6,60.8,51,30.1,10,SW,3.5,-,,,Clear,220,04-07-2016 15:00
2476,33,11:00 AM,82.4,57.2,42,30.09,10,SSW,4.6,-,,,Clear,210,04-07-2016 15:35
2477,34,11:35 AM,80.6,57.2,45,30.09,10,South,3.5,-,,,Clear,190,04-07-2016 15:55
2478,35,11:55 AM,82.4,55.4,39,30.09,10,WSW,3.5,-,,,Clear,240,04-07-2016 16:00
2479,36,12:00 PM,82.4,53.6,37,30.08,10,SW,4.6,-,,,Clear,230,04-07-2016 16:35
2480,37,12:35 PM,82.4,53.6,37,30.08,8,SSW,6.9,-,,,Clear,200,04-07-2016 16:55
2481,38,12:55 PM,82.4,55.4,39,30.07,10,SSW,8.1,-,,,Clear,210,04-07-2016 17:00
2482,39,1:00 PM,82.4,55.4,39,30.06,10,SSW,9.2,-,,,Clear,210,04-07-2016 17:35
2483,40,1:35 PM,82.4,55.4,39,30.06,10,SW,9.2,19.6,,,Clear,230,04-07-2016 17:55
2484,41,1:55 PM,82.4,57.2,42,30.05,10,SSW,6.9,-,,,Clear,210,04-07-2016 18:00
2485,42,2:00 PM,82.4,57.2,42,30.05,10,South,10.4,17.3,,,Clear,170,04-07-2016 18:35
2486,43,2:35 PM,82.4,55.4,39,30.04,10,South,8.1,-,,,Clear,180,04-07-2016 18:55
2487,44,2:55 PM,82.4,55.4,39,30.04,10,South,10.4,-,,,Clear,170,04-07-2016 19:00
2488,45,3:00 PM,80.6,55.4,42,30.03,10,South,9.2,19.6,,,Clear,180,04-07-2016 19:35
2489,46,3:35 PM,80.6,57.2,45,30.03,10,South,10.4,-,,,Clear,180,04-07-2016 19:55
2490,47,3:55 PM,80.6,55.4,42,30.03,10,South,9.2,-,,,Partly Cloudy,170,04-07-2016 20:00
2491,48,4:00 PM,80.6,59,48,30.02,10,SSE,9.2,16.1,,,Clear,150,04-07-2016 20:35
2492,49,4:35 PM,80.6,64.4,58,30.01,10,SSE,8.1,-,,,Clear,160,04-07-2016 20:55
2493,50,4:55 PM,78.8,64.4,61,30.01,10,South,10.4,19.6,,,Mostly Cloudy,180,04-07-2016 21:00
2494,51,5:00 PM,80.6,64.4,58,30,10,South,8.1,17.3,,,Mostly Cloudy,180,04-07-2016 21:35
2495,52,5:35 PM,78.8,66.2,65,29.99,10,South,10.4,17.3,,,Overcast,170,04-07-2016 21:55
2496,53,5:55 PM,77,66.2,69,29.99,10,SSE,11.5,-,,,Overcast,160,04-07-2016 22:00
2497,54,6:00 PM,75.2,68,78,29.98,10,SSE,9.2,-,,,Overcast,160,04-07-2016 22:35
2498,55,6:35 PM,75.2,68,78,29.97,10,South,5.8,-,,,Overcast,190,04-07-2016 22:55
2499,56,6:55 PM,75.2,69.8,83,29.97,10,SSW,5.8,-,,,Overcast,210,04-07-2016 23:00
2500,57,7:00 PM,75.2,68,78,29.98,10,SW,9.2,-,,,Overcast,220,04-07-2016 23:35
2501,58,7:35 PM,75.2,66.2,73,29.98,10,SW,11.5,-,,,Overcast,220,04-07-2016 23:55
2502,59,7:55 PM,75.2,66.2,73,29.98,10,WSW,9.2,-,,,Overcast,240,05-07-2016 00:00
2503,60,8:00 PM,73.4,64.4,73,29.98,10,WSW,12.7,19.6,,,Overcast,240,05-07-2016 00:35
2504,61,8:35 PM,71.6,66.2,83,29.98,6,West,4.6,-,0.04,,Overcast,280,05-07-2016 00:55
2505,62,8:55 PM,71.6,66.2,83,29.97,10,WNW,4.6,-,0.04,,Overcast,300,05-07-2016 01:00
2506,63,9:00 PM,71.6,66.2,83,29.97,10,West,5.8,-,,,Overcast,260,05-07-2016 01:35
2507,64,9:35 PM,73.4,66.2,78,29.97,10,WSW,6.9,-,,,Overcast,250,05-07-2016 01:55
2508,65,9:55 PM,71.6,66.2,83,29.97,10,WSW,5.8,-,,,Overcast,250,05-07-2016 02:00
2509,66,10:00 PM,71.6,66.2,83,29.97,10,West,4.6,-,,,Overcast,270,05-07-2016 02:35
2510,67,10:35 PM,71.6,66.2,83,29.96,10,SW,6.9,-,,,Overcast,230,05-07-2016 02:55
2511,68,10:55 PM,71.6,66.2,83,29.95,10,WSW,4.6,-,0.01,,Overcast,250,05-07-2016 03:00
2512,69,11:00 PM,71.6,68,88,29.94,8,WSW,3.5,-,0.04,,Overcast,250,05-07-2016 03:35
2513,70,11:35 PM,71.6,68,88,29.94,7,SSW,5.8,-,0.1,,Overcast,200,05-07-2016 03:55
2514,71,11:55 PM,69.8,68,94,29.93,8,SSE,4.6,-,0.16,,Overcast,160,05-07-2016 04:00
2515,0,12:00 AM,69.8,68,94,29.91,5,Calm,Calm,-,0.08,,Overcast,0,05-07-2016 04:35
2516,1,12:35 AM,69.8,68,94,29.89,3,Calm,Calm,-,0.27,,Overcast,0,05-07-2016 04:55
2517,2,12:55 AM,69.8,69.8,100,29.88,9,Calm,Calm,-,0.32,,Overcast,0,05-07-2016 05:00
2518,3,1:00 AM,71.6,69.8,94,29.87,10,Calm,Calm,-,0.01,,Overcast,0,05-07-2016 05:35
2519,4,1:35 AM,71.6,69.8,94,29.86,10,NNW,3.5,-,0.02,,Overcast,340,05-07-2016 05:55
2520,5,1:55 AM,71.6,69.8,94,29.85,10,Calm,Calm,-,0.05,,Overcast,0,05-07-2016 06:00
2521,6,2:00 AM,71.6,69.8,94,29.84,10,West,3.5,-,,,Overcast,280,05-07-2016 06:35
2522,7,2:35 AM,71.6,69.8,94,29.83,10,WNW,3.5,-,,,Overcast,290,05-07-2016 06:55
2523,8,2:55 AM,71.6,69.8,94,29.82,8,West,3.5,-,0.01,,Overcast,280,05-07-2016 07:00
2524,9,3:00 AM,71.6,69.8,94,29.82,9,West,5.8,-,0.01,,Overcast,280,05-07-2016 07:55
2525,10,3:55 AM,71.6,71.6,100,29.81,10,West,4.6,-,0.05,,Overcast,260,05-07-2016 08:00
2526,11,4:00 AM,71.6,71.6,100,29.8,10,Calm,Calm,-,,,Overcast,0,05-07-2016 08:35
2527,12,4:35 AM,71.6,71.6,100,29.8,10,West,4.6,-,,,Overcast,270,05-07-2016 08:55
2528,13,4:55 AM,71.6,71.6,100,29.8,10,West,4.6,-,,,Overcast,270,05-07-2016 09:00
2529,14,5:00 AM,71.6,69.8,94,29.8,10,West,4.6,-,0.01,,Overcast,260,05-07-2016 09:35
2530,15,5:35 AM,71.6,69.8,94,29.79,10,WSW,3.5,-,0.01,,Overcast,250,05-07-2016 09:55
2531,16,5:55 AM,71.6,71.6,100,29.79,10,West,3.5,-,0.01,,Overcast,260,05-07-2016 10:00
2532,17,6:00 AM,71.6,71.6,100,29.79,10,West,5.8,-,,,Mostly Cloudy,260,05-07-2016 10:35
2533,18,6:35 AM,71.6,71.6,100,29.78,10,WSW,4.6,-,,,Mostly Cloudy,250,05-07-2016 10:55
2534,19,6:55 AM,71.6,71.6,100,29.78,10,SW,4.6,-,,,Overcast,230,05-07-2016 11:00
2535,20,7:00 AM,71.6,71.6,100,29.78,10,SW,4.6,-,,,Overcast,220,05-07-2016 11:35
2536,21,7:35 AM,71.6,71.6,100,29.78,10,WSW,4.6,-,,,Overcast,250,05-07-2016 11:55
2537,22,7:55 AM,73.4,71.6,94,29.78,10,WSW,5.8,-,,,Overcast,240,05-07-2016 12:00
2538,23,8:00 AM,73.4,71.6,94,29.78,10,West,4.6,-,,,Overcast,260,05-07-2016 12:35
2539,24,8:35 AM,73.4,71.6,94,29.77,10,West,3.5,-,,,Mostly Cloudy,280,05-07-2016 12:55
2540,25,8:55 AM,73.4,71.6,94,29.77,10,WSW,3.5,-,,,Mostly Cloudy,240,05-07-2016 13:00
2541,26,9:00 AM,75.2,71.6,89,29.78,10,WSW,6.9,-,,,Overcast,250,05-07-2016 13:35
2542,27,9:35 AM,75.2,71.6,89,29.78,10,West,5.8,-,,,Overcast,260,05-07-2016 13:55
2543,28,9:55 AM,75.2,71.6,89,29.77,10,WSW,3.5,-,,,Overcast,250,05-07-2016 14:00
2544,29,10:00 AM,77,71.6,83,29.77,10,Calm,Calm,-,,,Overcast,0,05-07-2016 14:35
2545,30,10:35 AM,78.8,71.6,78,29.77,9,South,3.5,-,,,Overcast,190,05-07-2016 14:55
2546,31,10:55 AM,78.8,69.8,74,29.78,10,SSW,4.6,-,,,Overcast,210,05-07-2016 15:00
2547,32,11:00 AM,78.8,69.8,74,29.79,10,SSW,3.5,-,,,Overcast,210,05-07-2016 15:35
2548,33,11:35 AM,78.8,69.8,74,29.78,10,SSW,4.6,-,,,Overcast,200,05-07-2016 15:55
2549,34,11:55 AM,78.8,69.8,74,29.78,10,Calm,Calm,-,,,Overcast,0,05-07-2016 16:00
2550,35,12:00 PM,80.6,69.8,70,29.78,10,South,3.5,-,,,Mostly Cloudy,190,05-07-2016 16:35
2551,36,12:35 PM,82.4,69.8,66,29.79,9,West,4.6,-,,,Mostly Cloudy,270,05-07-2016 16:55
2552,37,12:55 PM,84.2,69.8,62,29.79,10,East,4.6,-,,,Mostly Cloudy,90,05-07-2016 17:00
2553,38,1:00 PM,84.2,69.8,62,29.78,10,West,6.9,-,,,Scattered Clouds,260,05-07-2016 17:35
2554,39,1:35 PM,84.2,69.8,62,29.78,10,Calm,Calm,-,,,Partly Cloudy,0,05-07-2016 17:55
2555,40,1:55 PM,84.2,68,58,29.78,10,WSW,4.6,-,,,Mostly Cloudy,250,05-07-2016 18:00
2556,41,2:00 PM,82.4,68,62,29.78,10,South,3.5,-,,,Overcast,170,05-07-2016 18:35
2557,42,2:35 PM,84.2,68,58,29.78,9,Calm,Calm,-,,,Overcast,0,05-07-2016 18:55
2558,43,2:55 PM,84.2,68,58,29.78,10,Calm,Calm,-,,,Overcast,0,05-07-2016 19:00
2559,44,3:00 PM,87.8,68,52,29.78,10,West,8.1,-,,,Mostly Cloudy,270,05-07-2016 19:35
2560,45,3:35 PM,89.6,66.2,46,29.78,10,WSW,5.8,-,,,Mostly Cloudy,240,05-07-2016 19:55
2561,46,3:55 PM,89.6,66.2,46,29.78,10,WSW,4.6,-,,,Scattered Clouds,250,05-07-2016 20:00
2562,47,4:00 PM,89.6,66.2,46,29.78,10,West,5.8,-,,,Partly Cloudy,260,05-07-2016 20:35
2563,48,4:35 PM,89.6,66.2,46,29.77,10,WSW,4.6,-,,,Partly Cloudy,240,05-07-2016 20:55
2564,49,4:55 PM,89.6,64.4,43,29.77,10,West,4.6,-,,,Scattered Clouds,280,05-07-2016 21:00
2565,50,5:00 PM,91.4,64.4,41,29.77,10,South,3.5,-,,,Clear,170,05-07-2016 21:35
2566,51,5:35 PM,91.4,64.4,41,29.77,10,West,5.8,-,,,Clear,260,05-07-2016 21:55
2567,52,5:55 PM,91.4,64.4,41,29.77,10,West,9.2,-,,,Clear,270,05-07-2016 22:00
2568,53,6:00 PM,89.6,64.4,43,29.77,10,West,8.1,-,,,Clear,260,05-07-2016 22:35
2569,54,6:35 PM,89.6,66.2,46,29.77,10,West,6.9,-,,,Clear,270,05-07-2016 22:55
2570,55,6:55 PM,87.8,66.2,49,29.77,10,West,4.6,-,,,Partly Cloudy,270,05-07-2016 23:00
2571,56,7:00 PM,86,66.2,51,29.78,10,West,9.2,-,,,Partly Cloudy,270,05-07-2016 23:35
2572,57,7:35 PM,84.2,66.2,55,29.78,10,West,5.8,-,,,Partly Cloudy,270,05-07-2016 23:55
2573,58,7:55 PM,84.2,66.2,55,29.79,10,West,8.1,-,,,Clear,270,06-07-2016 00:00
2574,59,8:00 PM,84.2,68,58,29.79,10,West,5.8,-,,,Clear,270,06-07-2016 00:35
2575,60,8:35 PM,84.2,68,58,29.8,10,West,6.9,-,,,Clear,280,06-07-2016 00:55
2576,61,8:55 PM,82.4,68,62,29.8,10,West,5.8,-,,,Clear,270,06-07-2016 01:00
2577,62,9:00 PM,82.4,69.8,66,29.81,10,West,6.9,-,,,Clear,270,06-07-2016 01:35
2578,63,9:35 PM,82.4,69.8,66,29.81,10,SW,4.6,-,,,Clear,230,06-07-2016 01:55
2579,64,9:55 PM,82.4,69.8,66,29.82,10,WSW,4.6,-,,,Clear,240,06-07-2016 02:00
2580,65,10:00 PM,82.4,69.8,66,29.82,10,SSW,5.8,-,,,Clear,200,06-07-2016 02:35
2581,66,10:35 PM,80.6,69.8,70,29.83,10,SW,4.6,-,,,Clear,230,06-07-2016 02:55
2582,67,10:55 PM,80.6,69.8,70,29.83,10,SW,5.8,-,,,Clear,220,06-07-2016 03:00
2583,68,11:00 PM,78.8,69.8,74,29.84,10,WSW,5.8,-,,,Clear,250,06-07-2016 03:35
2584,69,11:35 PM,80.6,69.8,70,29.84,10,West,3.5,-,,,Clear,260,06-07-2016 03:55
2585,70,11:55 PM,80.6,69.8,70,29.85,10,West,4.6,-,,,Clear,270,06-07-2016 04:00
2586,0,12:00 AM,80.6,69.8,70,29.85,10,West,5.8,-,,,Clear,270,06-07-2016 04:35
2587,1,12:35 AM,80.6,69.8,70,29.85,10,West,5.8,-,,,Clear,270,06-07-2016 04:55
2588,2,12:55 AM,80.6,69.8,70,29.85,10,SSW,3.5,-,,,Clear,200,06-07-2016 05:00
2589,3,1:00 AM,78.8,69.8,74,29.85,10,WSW,3.5,-,,,Clear,240,06-07-2016 05:35
2590,4,1:35 AM,77,69.8,78,29.85,10,South,4.6,-,,,Clear,190,06-07-2016 05:55
2591,5,1:55 AM,77,69.8,78,29.84,10,Calm,Calm,-,,,Clear,0,06-07-2016 06:00
2592,6,2:00 AM,78.8,69.8,74,29.84,10,Calm,Calm,-,,,Clear,0,06-07-2016 06:35
2593,7,2:35 AM,78.8,69.8,74,29.84,10,WSW,3.5,-,,,Clear,250,06-07-2016 06:55
2594,8,2:55 AM,78.8,69.8,74,29.83,10,Calm,Calm,-,,,Clear,0,06-07-2016 07:00
2595,9,3:00 AM,77,69.8,78,29.83,10,Calm,Calm,-,,,Clear,0,06-07-2016 07:35
2596,10,3:35 AM,75.2,69.8,83,29.82,10,Calm,Calm,-,,,Clear,0,06-07-2016 07:55
2597,11,3:55 AM,77,69.8,78,29.82,10,Calm,Calm,-,,,Clear,0,06-07-2016 08:00
2598,12,4:00 AM,78.8,69.8,74,29.83,10,West,3.5,-,,,Clear,270,06-07-2016 08:35
2599,13,4:35 AM,78.8,69.8,74,29.83,10,Calm,Calm,-,,,Clear,0,06-07-2016 08:55
2600,14,4:55 AM,75.2,69.8,83,29.84,10,SSW,4.6,-,,,Clear,200,06-07-2016 09:00
2601,15,5:00 AM,75.2,69.8,83,29.85,10,West,6.9,-,,,Clear,270,06-07-2016 09:35
2602,16,5:35 AM,75.2,69.8,83,29.86,10,Calm,Calm,-,,,Clear,0,06-07-2016 09:55
2603,17,5:55 AM,75.2,69.8,83,29.87,10,WSW,4.6,-,,,Clear,250,06-07-2016 10:00
2604,18,6:00 AM,75.2,69.8,83,29.88,10,Calm,Calm,-,,,Clear,0,06-07-2016 10:35
2605,19,6:35 AM,75.2,69.8,83,29.89,10,Calm,Calm,-,,,Clear,0,06-07-2016 10:55
2606,20,6:55 AM,75.2,69.8,83,29.89,9,Calm,Calm,-,,,Clear,0,06-07-2016 11:00
2607,21,7:00 AM,75.2,69.8,83,29.89,10,Calm,Calm,-,,,Scattered Clouds,0,06-07-2016 11:35
2608,22,7:35 AM,77,69.8,78,29.89,10,Calm,Calm,-,,,Partly Cloudy,0,06-07-2016 11:55
2609,23,7:55 AM,77,69.8,78,29.89,10,Calm,Calm,-,,,Clear,0,06-07-2016 12:00
2610,24,8:00 AM,78.8,69.8,74,29.89,10,Calm,Calm,-,,,Clear,0,06-07-2016 12:35
2611,25,8:35 AM,78.8,69.8,74,29.89,10,SW,3.5,-,,,Clear,220,06-07-2016 12:55
2612,26,8:55 AM,77,69.8,78,29.88,10,WSW,4.6,-,,,Clear,240,06-07-2016 13:00
2613,27,9:00 AM,78.8,69.8,74,29.88,10,West,3.5,-,,,Clear,260,06-07-2016 13:35
2614,28,9:35 AM,80.6,69.8,70,29.88,10,WSW,4.6,-,,,Clear,250,06-07-2016 13:55
2615,29,9:55 AM,82.4,69.8,66,29.88,10,WSW,5.8,-,,,Clear,250,06-07-2016 14:00
2616,30,10:00 AM,82.4,69.8,66,29.88,10,West,4.6,-,,,Clear,260,06-07-2016 14:35
2617,31,10:35 AM,84.2,66.2,55,29.88,10,West,4.6,-,,,Clear,270,06-07-2016 14:55
2618,32,10:55 AM,84.2,68,58,29.88,9,West,6.9,-,,,Clear,270,06-07-2016 15:00
2619,33,11:00 AM,86,66.2,51,29.88,10,West,4.6,-,,,Clear,260,06-07-2016 15:35
2620,34,11:35 AM,87.8,62.6,43,29.88,9,SW,3.5,-,,,Clear,220,06-07-2016 15:55
2621,35,11:55 AM,89.6,64.4,43,29.89,10,Calm,Calm,-,,,Clear,0,06-07-2016 16:00
2622,36,12:00 PM,89.6,64.4,43,29.89,10,West,5.8,-,,,Clear,270,06-07-2016 16:35
2623,37,12:35 PM,89.6,66.2,46,29.88,10,WSW,5.8,-,,,Clear,240,06-07-2016 16:55
2624,38,12:55 PM,89.6,64.4,43,29.88,10,SW,8.1,-,,,Clear,220,06-07-2016 17:00
2625,39,1:00 PM,91.4,62.6,38,29.88,9,WSW,4.6,-,,,Partly Cloudy,240,06-07-2016 17:35
2626,40,1:35 PM,89.6,62.6,40,29.87,10,SW,4.6,-,,,Scattered Clouds,230,06-07-2016 17:55
2627,41,1:55 PM,89.6,62.6,40,29.86,10,SW,4.6,-,,,Mostly Cloudy,230,06-07-2016 18:00
2628,42,2:00 PM,91.4,62.6,38,29.86,10,SW,5.8,-,,,Scattered Clouds,230,06-07-2016 18:35
2629,43,2:35 PM,91.4,64.4,41,29.86,10,SW,5.8,-,,,Scattered Clouds,230,06-07-2016 18:55
2630,44,2:55 PM,89.6,64.4,43,29.85,10,SW,5.8,-,,,Scattered Clouds,230,06-07-2016 19:00
2631,45,3:00 PM,91.4,64.4,41,29.85,10,SW,5.8,-,,,Scattered Clouds,230,06-07-2016 19:35
2632,46,3:35 PM,91.4,62.6,38,29.85,10,WSW,3.5,-,,,Partly Cloudy,240,06-07-2016 19:55
2633,47,3:55 PM,91.4,62.6,38,29.84,10,WSW,3.5,-,,,Scattered Clouds,250,06-07-2016 20:00
2634,48,4:00 PM,91.4,62.6,38,29.83,9,West,4.6,-,,,Partly Cloudy,260,06-07-2016 20:35
2635,49,4:35 PM,91.4,64.4,41,29.82,10,SW,3.5,-,,,Clear,220,06-07-2016 20:55
2636,50,4:55 PM,89.6,64.4,43,29.82,10,SSW,3.5,-,,,Clear,210,06-07-2016 21:00
2637,51,5:00 PM,91.4,64.4,41,29.82,10,SW,4.6,-,,,Clear,230,06-07-2016 21:35
2638,52,5:35 PM,91.4,64.4,41,29.82,10,SSW,5.8,-,,,Clear,210,06-07-2016 21:55
2639,53,5:55 PM,89.6,64.4,43,29.81,10,SSW,4.6,-,,,Partly Cloudy,200,06-07-2016 22:00
2640,54,6:00 PM,87.8,66.2,49,29.81,10,South,8.1,-,,,Clear,170,06-07-2016 22:35
2641,55,6:35 PM,87.8,66.2,49,29.81,10,SSW,3.5,-,,,Clear,210,06-07-2016 22:55
2642,56,6:55 PM,86,69.8,58,29.81,10,South,6.9,-,,,Clear,180,06-07-2016 23:00
2643,57,7:00 PM,84.2,69.8,62,29.82,10,SSW,4.6,-,,,Clear,210,06-07-2016 23:35
2644,58,7:35 PM,84.2,68,58,29.82,10,SW,5.8,-,,,Clear,230,06-07-2016 23:55
2645,59,7:55 PM,84.2,69.8,62,29.82,10,SSW,5.8,-,,,Clear,210,07-07-2016 00:00
2646,60,8:00 PM,84.2,69.8,62,29.82,10,West,3.5,-,,,Clear,260,07-07-2016 00:35
2647,61,8:35 PM,84.2,69.8,62,29.82,10,Calm,Calm,-,,,Clear,0,07-07-2016 00:55
2648,62,8:55 PM,84.2,69.8,62,29.82,10,SW,3.5,-,,,Scattered Clouds,230,07-07-2016 01:00
2649,63,9:00 PM,82.4,71.6,70,29.83,10,Calm,Calm,-,,,Mostly Cloudy,0,07-07-2016 01:35
2650,64,9:35 PM,82.4,71.6,70,29.83,10,Calm,Calm,-,,,Partly Cloudy,0,07-07-2016 01:55
2651,65,9:55 PM,82.4,71.6,70,29.83,10,Calm,Calm,-,,,Partly Cloudy,0,07-07-2016 02:00
2652,66,10:00 PM,82.4,71.6,70,29.83,10,Calm,Calm,-,,,Partly Cloudy,0,07-07-2016 02:35
2653,67,10:35 PM,82.4,71.6,70,29.83,10,WNW,3.5,-,,,Clear,300,07-07-2016 02:55
2654,68,10:55 PM,82.4,71.6,70,29.83,10,WNW,3.5,-,,,Clear,300,07-07-2016 03:00
2655,69,11:00 PM,82.4,71.6,70,29.83,10,WNW,3.5,-,,,Clear,300,07-07-2016 03:35
2656,70,11:35 PM,82.4,71.6,70,29.83,10,WNW,3.5,-,,,Clear,290,07-07-2016 03:55
2657,71,11:55 PM,82.4,71.6,70,29.84,10,WNW,5.8,-,,,Clear,300,07-07-2016 04:00
2658,0,12:00 AM,80.6,71.6,74,29.83,10,West,3.5,-,,,Clear,280,07-07-2016 04:35
2659,1,12:35 AM,80.6,71.6,74,29.84,10,WNW,3.5,-,,,Clear,290,07-07-2016 04:55
2660,2,12:55 AM,80.6,71.6,74,29.83,10,Calm,Calm,-,,,Clear,0,07-07-2016 05:00
2661,3,1:00 AM,80.6,71.6,74,29.83,10,Calm,Calm,-,,,Clear,0,07-07-2016 05:35
2662,4,1:35 AM,78.8,71.6,78,29.83,10,West,3.5,-,,,Clear,270,07-07-2016 05:55
2663,5,1:55 AM,80.6,71.6,74,29.83,10,West,3.5,-,,,Clear,260,07-07-2016 06:00
2664,6,2:00 AM,80.6,71.6,74,29.82,10,WSW,3.5,-,,,Clear,240,07-07-2016 06:35
2665,7,2:35 AM,78.8,71.6,78,29.82,10,SSW,3.5,-,,,Partly Cloudy,210,07-07-2016 06:55
2666,8,2:55 AM,78.8,71.6,78,29.81,10,SSW,3.5,-,,,Scattered Clouds,200,07-07-2016 07:00
2667,9,3:00 AM,78.8,71.6,78,29.81,10,Calm,Calm,-,,,Scattered Clouds,0,07-07-2016 07:35
2668,10,3:35 AM,78.8,71.6,78,29.8,10,Calm,Calm,-,,,Mostly Cloudy,0,07-07-2016 07:55
2669,11,3:55 AM,77,71.6,83,29.79,10,SSW,3.5,-,,,Partly Cloudy,200,07-07-2016 08:00
2670,12,4:00 AM,78.8,71.6,78,29.79,10,Calm,Calm,-,,,Clear,0,07-07-2016 08:35
2671,13,4:35 AM,77,71.6,83,29.79,10,Calm,Calm,-,,,Clear,0,07-07-2016 08:55
2672,14,4:55 AM,78.8,71.6,78,29.79,10,Calm,Calm,-,,,Clear,0,07-07-2016 09:00
2673,15,5:00 AM,75.2,71.6,89,29.79,10,Calm,Calm,-,,,Clear,0,07-07-2016 09:35
2674,16,5:35 AM,77,71.6,83,29.79,10,SSW,3.5,-,,,Clear,200,07-07-2016 09:55
2675,17,5:55 AM,77,71.6,83,29.79,10,Calm,Calm,-,,,Clear,0,07-07-2016 10:00
2676,18,6:00 AM,78.8,71.6,78,29.79,10,Calm,Calm,-,,,Clear,0,07-07-2016 10:35
2677,19,6:35 AM,78.8,71.6,78,29.8,10,WSW,3.5,-,,,Clear,250,07-07-2016 10:55
2678,20,6:55 AM,78.8,71.6,78,29.8,10,WSW,3.5,-,,,Clear,240,07-07-2016 11:00
2679,21,7:00 AM,78.8,71.6,78,29.79,10,SW,3.5,-,,,Clear,220,07-07-2016 11:35
2680,22,7:35 AM,78.8,71.6,78,29.8,10,WSW,3.5,-,,,Clear,250,07-07-2016 11:55
2681,23,7:55 AM,78.8,71.6,78,29.8,10,Calm,Calm,-,,,Clear,0,07-07-2016 12:00
2682,24,8:00 AM,78.8,71.6,78,29.8,10,Calm,Calm,-,,,Clear,0,07-07-2016 12:35
2683,25,8:35 AM,80.6,71.6,74,29.8,10,Calm,Calm,-,,,Clear,0,07-07-2016 12:55
2684,26,8:55 AM,82.4,71.6,70,29.81,9,West,4.6,-,,,Clear,280,07-07-2016 13:00
2685,27,9:00 AM,82.4,71.6,70,29.8,10,WNW,4.6,-,,,Clear,300,07-07-2016 13:35
2686,28,9:35 AM,84.2,73.4,70,29.8,8,West,4.6,-,,,Clear,270,07-07-2016 13:55
2687,29,9:55 AM,84.2,73.4,70,29.8,8,West,4.6,-,,,Clear,260,07-07-2016 14:00
2688,30,10:00 AM,84.2,73.4,70,29.8,9,WNW,3.5,-,,,Clear,300,07-07-2016 14:35
2689,31,10:35 AM,86,73.4,66,29.8,8,WSW,5.8,-,,,Clear,240,07-07-2016 14:55
2690,32,10:55 AM,87.8,73.4,62,29.79,10,SW,4.6,-,,,Clear,230,07-07-2016 15:00
2691,33,11:00 AM,89.6,69.8,52,29.79,8,SW,8.1,-,,,Partly Cloudy,230,07-07-2016 15:35
2692,34,11:35 AM,89.6,69.8,52,29.79,10,SW,10.4,19.6,,,Partly Cloudy,220,07-07-2016 15:55
2693,35,11:55 AM,89.6,69.8,52,29.79,10,WSW,8.1,-,,,Clear,240,07-07-2016 16:00
2694,36,12:00 PM,87.8,69.8,55,29.79,7,SW,8.1,-,,,Clear,220,07-07-2016 16:35
2695,37,12:35 PM,89.6,69.8,52,29.78,10,WSW,4.6,-,,,Clear,240,07-07-2016 16:55
2696,38,12:55 PM,89.6,69.8,52,29.78,10,SSW,8.1,18.4,,,Clear,210,07-07-2016 17:00
2697,39,1:00 PM,89.6,69.8,52,29.76,10,SW,6.9,-,,,Scattered Clouds,230,07-07-2016 17:35
2698,40,1:35 PM,89.6,68,49,29.75,9,WSW,9.2,-,,,Scattered Clouds,240,07-07-2016 17:55
2699,41,1:55 PM,87.8,69.8,55,29.74,8,South,5.8,-,,,Mostly Cloudy,190,07-07-2016 18:00
2700,42,2:00 PM,87.8,69.8,55,29.74,10,SW,10.4,-,,,Mostly Cloudy,220,07-07-2016 18:35
2701,43,2:35 PM,87.8,69.8,55,29.74,10,WSW,5.8,-,,,Scattered Clouds,250,07-07-2016 18:55
2702,44,2:55 PM,87.8,69.8,55,29.73,10,West,3.5,-,,,Mostly Cloudy,270,07-07-2016 19:00
2703,45,3:00 PM,87.8,69.8,55,29.73,10,West,5.8,-,,,Mostly Cloudy,260,07-07-2016 19:35
2704,46,3:35 PM,87.8,69.8,55,29.73,10,SW,5.8,-,,,Scattered Clouds,230,07-07-2016 19:55
2705,47,3:55 PM,84.2,71.6,66,29.74,8,WSW,6.9,-,,,Mostly Cloudy,240,07-07-2016 20:00
2706,48,4:00 PM,84.2,71.6,66,29.73,10,SSW,6.9,-,,,Scattered Clouds,210,07-07-2016 20:35
2707,49,4:35 PM,84.2,71.6,66,29.74,10,SW,5.8,21.9,,,Scattered Clouds,220,07-07-2016 20:55
2708,50,4:55 PM,84.2,73.4,70,29.74,10,Calm,Calm,-,,,Mostly Cloudy,0,07-07-2016 21:00
2709,51,5:00 PM,84.2,71.6,66,29.74,10,Calm,Calm,-,,,Overcast,0,07-07-2016 21:35
2710,52,5:35 PM,82.4,71.6,70,29.74,10,Calm,Calm,-,,,Scattered Clouds,0,07-07-2016 21:55
2711,53,5:55 PM,82.4,71.6,70,29.75,10,West,3.5,-,,,Partly Cloudy,260,07-07-2016 22:00
2712,54,6:00 PM,82.4,71.6,70,29.75,10,West,5.8,-,,,Mostly Cloudy,270,07-07-2016 22:35
2713,55,6:35 PM,80.6,71.6,74,29.75,10,West,5.8,-,,,Overcast,270,07-07-2016 22:55
2714,56,6:55 PM,82.4,71.6,70,29.75,10,Calm,Calm,-,,,Overcast,0,07-07-2016 23:00
2715,57,7:00 PM,80.6,71.6,74,29.75,10,Calm,Calm,-,,,Overcast,0,07-07-2016 23:35
2716,58,7:35 PM,82.4,71.6,70,29.75,10,Calm,Calm,-,,,Overcast,0,07-07-2016 23:55
2717,59,7:55 PM,80.6,71.6,74,29.74,10,ENE,3.5,-,,,Mostly Cloudy,60,08-07-2016 00:00
2718,60,8:00 PM,80.6,71.6,74,29.74,10,SSE,4.6,-,,,Scattered Clouds,150,08-07-2016 00:35
2719,61,8:35 PM,80.6,71.6,74,29.75,10,South,3.5,-,,,Partly Cloudy,170,08-07-2016 00:55
2720,62,8:55 PM,80.6,71.6,74,29.75,10,Calm,Calm,-,,,Scattered Clouds,0,08-07-2016 01:00
2721,63,9:00 PM,80.6,71.6,74,29.75,10,Calm,Calm,-,,,Overcast,0,08-07-2016 01:35
2722,64,9:35 PM,80.6,73.4,79,29.76,10,Calm,Calm,-,,,Scattered Clouds,0,08-07-2016 01:55
2723,65,9:55 PM,80.6,73.4,79,29.76,10,Calm,Calm,-,,,Clear,0,08-07-2016 02:00
2724,66,10:00 PM,78.8,71.6,78,29.76,10,West,3.5,-,,,Clear,260,08-07-2016 02:35
2725,67,10:35 PM,78.8,73.4,83,29.77,10,WSW,5.8,-,,,Clear,250,08-07-2016 02:55
2726,68,10:55 PM,77,73.4,89,29.77,10,West,6.9,-,,,Clear,270,08-07-2016 03:00
2727,69,11:00 PM,77,73.4,89,29.76,10,SW,4.6,-,,,Clear,230,08-07-2016 03:35
2728,70,11:35 PM,75.2,71.6,89,29.76,10,Calm,Calm,-,,,Clear,0,08-07-2016 03:55
2729,71,11:55 PM,75.2,73.4,94,29.75,10,Calm,Calm,-,,,Clear,0,08-07-2016 04:00
2730,0,12:00 AM,75.2,73.4,94,29.75,10,WSW,3.5,-,,,Clear,250,08-07-2016 04:35
2731,1,12:35 AM,75.2,73.4,94,29.75,10,Calm,Calm,-,,,Clear,0,08-07-2016 04:55
2732,2,12:55 AM,75.2,73.4,94,29.76,10,West,4.6,-,,,Clear,260,08-07-2016 05:00
2733,3,1:00 AM,75.2,73.4,94,29.76,10,WSW,4.6,-,,,Clear,250,08-07-2016 05:35
2734,4,1:35 AM,75.2,71.6,89,29.76,10,SW,4.6,-,,,Clear,220,08-07-2016 05:55
2735,5,1:55 AM,77,73.4,89,29.76,10,Calm,Calm,-,,,Clear,0,08-07-2016 06:00
2736,6,2:00 AM,75.2,71.6,89,29.75,10,Calm,Calm,-,,,Clear,0,08-07-2016 06:35
2737,7,2:35 AM,75.2,71.6,89,29.75,10,West,3.5,-,,,Clear,260,08-07-2016 06:55
2738,8,2:55 AM,77,71.6,83,29.75,10,Calm,Calm,-,,,Clear,0,08-07-2016 07:00
2739,9,3:00 AM,78.8,71.6,78,29.75,10,Calm,Calm,-,,,Clear,0,08-07-2016 07:35
2740,10,3:35 AM,77,71.6,83,29.75,10,Calm,Calm,-,,,Clear,0,08-07-2016 07:55
2741,11,3:55 AM,77,71.6,83,29.75,10,Calm,Calm,-,,,Clear,0,08-07-2016 08:00
2742,12,4:00 AM,78.8,71.6,78,29.74,10,Calm,Calm,-,,,Clear,0,08-07-2016 08:35
2743,13,4:35 AM,77,71.6,83,29.75,10,Calm,Calm,-,,,Partly Cloudy,0,08-07-2016 08:55
2744,14,4:55 AM,78.8,71.6,78,29.75,10,Calm,Calm,-,,,Scattered Clouds,0,08-07-2016 09:00
2745,15,5:00 AM,78.8,71.6,78,29.76,10,Calm,Calm,-,,,Partly Cloudy,0,08-07-2016 09:35
2746,16,5:35 AM,77,71.6,83,29.76,10,Calm,Calm,-,,,Clear,0,08-07-2016 09:55
2747,17,5:55 AM,78.8,71.6,78,29.76,10,Calm,Calm,-,,,Clear,0,08-07-2016 10:00
2748,18,6:00 AM,78.8,71.6,78,29.77,10,Calm,Calm,-,,,Clear,0,08-07-2016 10:35
2749,19,6:35 AM,78.8,71.6,78,29.77,10,Calm,Calm,-,,,Clear,0,08-07-2016 10:55
2750,20,6:55 AM,78.8,71.6,78,29.78,10,NE,5.8,-,,,Clear,50,08-07-2016 11:00
2751,21,7:00 AM,78.8,71.6,78,29.78,10,NE,6.9,-,,,Clear,40,08-07-2016 11:35
2752,22,7:35 AM,78.8,71.6,78,29.78,10,ENE,5.8,-,,,Partly Cloudy,60,08-07-2016 11:55
2753,23,7:55 AM,78.8,71.6,78,29.78,10,ENE,6.9,-,,,Scattered Clouds,60,08-07-2016 12:00
2754,24,8:00 AM,78.8,71.6,78,29.79,9,East,5.8,-,,,Clear,80,08-07-2016 12:35
2755,25,8:35 AM,78.8,71.6,78,29.79,8,ENE,8.1,-,,,Partly Cloudy,70,08-07-2016 12:55
2756,26,8:55 AM,80.6,69.8,70,29.78,10,NE,11.5,-,,,Partly Cloudy,50,08-07-2016 13:00
2757,27,9:00 AM,80.6,71.6,74,29.79,10,ENE,5.8,-,,,Clear,70,08-07-2016 13:35
2758,28,9:35 AM,82.4,71.6,70,29.79,10,ENE,6.9,-,,,Clear,60,08-07-2016 13:55
2759,29,9:55 AM,82.4,71.6,70,29.79,10,East,5.8,-,,,Clear,80,08-07-2016 14:00
2760,30,10:00 AM,84.2,71.6,66,29.79,9,NE,5.8,-,,,Partly Cloudy,50,08-07-2016 14:35
2761,31,10:35 AM,84.2,71.6,66,29.79,10,NE,9.2,-,,,Clear,50,08-07-2016 14:55
2762,32,10:55 AM,86,69.8,58,29.8,10,ENE,5.8,-,,,Clear,70,08-07-2016 15:00
2763,33,11:00 AM,86,69.8,58,29.8,10,ENE,10.4,20.7,,,Partly Cloudy,60,08-07-2016 15:35
2764,34,11:35 AM,87.8,69.8,55,29.81,10,ENE,8.1,-,,,Partly Cloudy,60,08-07-2016 15:55
2765,35,11:55 AM,87.8,69.8,55,29.81,8,ENE,8.1,-,,,Scattered Clouds,60,08-07-2016 16:00
2766,36,12:00 PM,87.8,69.8,55,29.8,10,NE,10.4,18.4,,,Partly Cloudy,50,08-07-2016 16:35
2767,37,12:35 PM,87.8,69.8,55,29.79,10,NE,10.4,-,,,Clear,40,08-07-2016 16:55
2768,38,12:55 PM,87.8,69.8,55,29.8,10,SE,3.5,-,,,Mostly Cloudy,130,08-07-2016 17:00
2769,39,1:00 PM,84.2,71.6,66,29.8,7,ENE,6.9,-,,,Mostly Cloudy,60,08-07-2016 17:35
2770,40,1:35 PM,84.2,73.4,70,29.8,9,SE,12.7,-,,,Mostly Cloudy,140,08-07-2016 17:55
2771,41,1:55 PM,82.4,71.6,70,29.81,9,SE,13.8,17.3,,,Scattered Clouds,130,08-07-2016 18:00
2772,42,2:00 PM,82.4,71.6,70,29.81,10,ESE,10.4,20.7,,,Scattered Clouds,120,08-07-2016 18:35
2773,43,2:35 PM,82.4,71.6,70,29.8,10,SE,11.5,18.4,,,Scattered Clouds,140,08-07-2016 18:55
2774,44,2:55 PM,82.4,71.6,70,29.8,10,ESE,8.1,16.1,,Thunderstorm,Scattered Clouds,120,08-07-2016 19:00
2775,45,3:00 PM,82.4,71.6,70,29.81,10,SE,12.7,18.4,,Thunderstorm,Partly Cloudy,130,08-07-2016 19:35
2776,46,3:35 PM,82.4,71.6,70,29.8,10,SE,11.5,19.6,,,Partly Cloudy,130,08-07-2016 19:55
2777,47,3:55 PM,80.6,71.6,74,29.8,10,SE,8.1,20.7,,Thunderstorm,Scattered Clouds,130,08-07-2016 20:00
2778,48,4:00 PM,80.6,71.6,74,29.8,10,SE,12.7,18.4,,Thunderstorm,Thunderstorm,140,08-07-2016 20:35
2779,49,4:35 PM,78.8,69.8,74,29.81,10,SE,11.5,17.3,,Thunderstorm,Thunderstorm,130,08-07-2016 20:55
2780,50,4:55 PM,78.8,69.8,74,29.82,10,SSE,12.7,20.7,,Thunderstorm,Thunderstorm,150,08-07-2016 21:00
2781,51,5:00 PM,77,69.8,78,29.81,10,SSE,8.1,17.3,,Thunderstorm,Mostly Cloudy,150,08-07-2016 21:35
2782,52,5:35 PM,75.2,69.8,83,29.82,10,SSE,12.7,17.3,,,Mostly Cloudy,160,08-07-2016 21:55
2783,53,5:55 PM,75.2,69.8,83,29.82,10,SSE,11.5,16.1,,,Mostly Cloudy,160,08-07-2016 22:00
2784,54,6:00 PM,73.4,69.8,88,29.82,9,SE,9.2,-,,,Overcast,130,08-07-2016 22:35
2785,55,6:35 PM,73.4,69.8,88,29.82,7,ESE,10.4,-,0.02,,Overcast,120,08-07-2016 22:55
2786,56,6:55 PM,73.4,69.8,88,29.83,9,ENE,5.8,16.1,0.03,,Overcast,70,08-07-2016 23:00
2787,57,7:00 PM,73.4,69.8,88,29.83,10,ENE,6.9,-,,,Overcast,70,08-07-2016 23:35
2788,58,7:35 PM,73.4,69.8,88,29.83,10,ENE,9.2,-,,,Overcast,70,08-07-2016 23:55
2789,59,7:55 PM,73.4,69.8,88,29.84,10,SE,5.8,16.1,,,Overcast,130,09-07-2016 00:00
2790,60,8:00 PM,71.6,68,88,29.85,10,ENE,9.2,16.1,,,Overcast,70,09-07-2016 00:35
2791,61,8:35 PM,71.6,68,88,29.85,10,ESE,5.8,17.3,,,Overcast,110,09-07-2016 00:55
2792,62,8:55 PM,71.6,66.2,83,29.85,10,ESE,6.9,17.3,,,Overcast,110,09-07-2016 01:00
2793,63,9:00 PM,71.6,66.2,83,29.85,10,East,9.2,18.4,,,Overcast,80,09-07-2016 01:35
2794,64,9:35 PM,71.6,68,88,29.86,10,ESE,10.4,16.1,,,Overcast,120,09-07-2016 01:55
2795,65,9:55 PM,71.6,66.2,83,29.87,10,SE,8.1,16.1,,,Overcast,140,09-07-2016 02:00
2796,66,10:00 PM,71.6,66.2,83,29.87,10,SE,11.5,19.6,,,Overcast,130,09-07-2016 02:35
2797,67,10:35 PM,71.6,66.2,83,29.87,10,ESE,9.2,-,,,Overcast,110,09-07-2016 02:55
2798,68,10:55 PM,71.6,66.2,83,29.86,10,ENE,13.8,20.7,,,Overcast,70,09-07-2016 03:00
2799,69,11:00 PM,71.6,64.4,78,29.87,10,ESE,6.9,-,,,Overcast,120,09-07-2016 03:35
2800,70,11:35 PM,71.6,64.4,78,29.87,10,ESE,9.2,-,,,Overcast,110,09-07-2016 03:55
2801,71,11:55 PM,69.8,64.4,83,29.87,10,ENE,10.4,-,,,Overcast,70,09-07-2016 04:00
2802,0,12:00 AM,69.8,66.2,88,29.87,10,East,11.5,-,,,Overcast,100,09-07-2016 04:35
2803,1,12:35 AM,69.8,66.2,88,29.86,10,ENE,10.4,-,,,Overcast,60,09-07-2016 04:55
2804,2,12:55 AM,69.8,66.2,88,29.86,10,East,9.2,-,,,Overcast,80,09-07-2016 05:00
2805,3,1:00 AM,69.8,66.2,88,29.86,10,ENE,8.1,-,,,Overcast,70,09-07-2016 05:35
2806,4,1:35 AM,69.8,66.2,88,29.86,10,ENE,6.9,18.4,,,Overcast,60,09-07-2016 05:55
2807,5,1:55 AM,69.8,64.4,83,29.86,10,ENE,11.5,-,,,Overcast,60,09-07-2016 06:00
2808,6,2:00 AM,69.8,64.4,83,29.86,10,East,6.9,-,,,Overcast,100,09-07-2016 06:35
2809,7,2:35 AM,69.8,64.4,83,29.85,10,ENE,10.4,-,,,Overcast,60,09-07-2016 06:55
2810,8,2:55 AM,69.8,64.4,83,29.86,10,East,9.2,-,,,Overcast,80,09-07-2016 07:00
2811,9,3:00 AM,69.8,64.4,83,29.86,10,East,6.9,-,,,Overcast,90,09-07-2016 07:35
2812,10,3:35 AM,69.8,64.4,83,29.85,10,ENE,10.4,-,,,Overcast,60,09-07-2016 07:55
2813,11,3:55 AM,69.8,64.4,83,29.84,10,ENE,8.1,-,,,Overcast,70,09-07-2016 08:00
2814,12,4:00 AM,68,64.4,88,29.85,8,ENE,10.4,-,,,Overcast,60,09-07-2016 08:35
2815,13,4:35 AM,68,64.4,88,29.84,10,ENE,8.1,-,,,Overcast,70,09-07-2016 08:55
2816,14,4:55 AM,68,64.4,88,29.84,10,ENE,9.2,-,,,Overcast,70,09-07-2016 09:00
2817,15,5:00 AM,68,64.4,88,29.84,10,ENE,9.2,-,,,Overcast,60,09-07-2016 09:35
2818,16,5:35 AM,68,64.4,88,29.84,10,East,6.9,-,,,Overcast,90,09-07-2016 09:55
2819,17,5:55 AM,68,64.4,88,29.85,10,East,8.1,-,,,Overcast,100,09-07-2016 10:00
2820,18,6:00 AM,68,64.4,88,29.85,10,East,9.2,-,,,Overcast,80,09-07-2016 10:35
2821,19,6:35 AM,68,64.4,88,29.86,10,East,5.8,-,,,Overcast,90,09-07-2016 10:55
2822,20,6:55 AM,68,64.4,88,29.87,10,East,8.1,-,,,Overcast,80,09-07-2016 11:00
2823,21,7:00 AM,68,62.6,83,29.88,10,NE,9.2,-,,,Overcast,50,09-07-2016 11:35
2824,22,7:35 AM,68,62.6,83,29.88,10,NE,9.2,-,,,Overcast,50,09-07-2016 11:55
2825,23,7:55 AM,68,62.6,83,29.89,10,ENE,6.9,-,,,Overcast,60,09-07-2016 12:00
2826,24,8:00 AM,68,62.6,83,29.89,10,ENE,5.8,-,,,Overcast,60,09-07-2016 12:35
2827,25,8:35 AM,69.8,62.6,78,29.89,10,NE,8.1,-,,,Overcast,50,09-07-2016 12:55
2828,26,8:55 AM,69.8,64.4,83,29.89,10,ENE,3.5,-,,,Overcast,60,09-07-2016 13:00
2829,27,9:00 AM,69.8,64.4,83,29.87,10,ENE,9.2,-,,,Overcast,70,09-07-2016 13:35
2830,28,9:35 AM,69.8,64.4,83,29.87,10,ESE,8.1,-,,,Overcast,110,09-07-2016 13:55
2831,29,9:55 AM,69.8,64.4,83,29.87,10,East,5.8,-,,,Overcast,100,09-07-2016 14:00
2832,30,10:00 AM,69.8,64.4,83,29.88,10,SE,9.2,-,,,Overcast,140,09-07-2016 14:35
2833,31,10:35 AM,71.6,64.4,78,29.88,10,East,3.5,-,,,Overcast,100,09-07-2016 14:55
2834,32,10:55 AM,71.6,64.4,78,29.87,10,ESE,4.6,-,,,Overcast,120,09-07-2016 15:00
2835,33,11:00 AM,71.6,64.4,78,29.87,10,East,6.9,-,,,Overcast,90,09-07-2016 15:35
2836,34,11:35 AM,71.6,64.4,78,29.86,9,East,4.6,-,,,Overcast,80,09-07-2016 15:55
2837,35,11:55 AM,73.4,64.4,73,29.87,10,ESE,3.5,-,,,Overcast,110,09-07-2016 16:00
2838,36,12:00 PM,71.6,64.4,78,29.86,10,SSE,8.1,-,,,Overcast,160,09-07-2016 16:35
2839,37,12:35 PM,73.4,64.4,73,29.86,10,ENE,9.2,-,,,Overcast,60,09-07-2016 16:55
2840,38,12:55 PM,73.4,64.4,73,29.85,9,ESE,5.8,-,,,Overcast,110,09-07-2016 17:00
2841,39,1:00 PM,73.4,64.4,73,29.85,10,ESE,9.2,-,,,Overcast,120,09-07-2016 17:35
2842,40,1:35 PM,73.4,64.4,73,29.85,10,ESE,5.8,-,,,Overcast,110,09-07-2016 17:55
2843,41,1:55 PM,73.4,66.2,78,29.84,10,SE,6.9,-,,,Overcast,130,09-07-2016 18:00
2844,42,2:00 PM,71.6,66.2,83,29.85,10,SSE,6.9,-,,,Overcast,150,09-07-2016 18:35
2845,43,2:35 PM,71.6,66.2,83,29.85,10,ESE,8.1,-,,,Overcast,120,09-07-2016 18:55
2846,44,2:55 PM,71.6,66.2,83,29.85,10,ENE,5.8,-,,,Overcast,70,09-07-2016 19:00
2847,45,3:00 PM,71.6,66.2,83,29.85,9,SE,6.9,16.1,,,Overcast,140,09-07-2016 19:35
2848,46,3:35 PM,71.6,66.2,83,29.85,10,SE,8.1,-,,,Overcast,130,09-07-2016 19:55
2849,47,3:55 PM,71.6,66.2,83,29.85,10,SE,9.2,-,,,Overcast,140,09-07-2016 20:00
2850,48,4:00 PM,71.6,66.2,83,29.85,8,SE,8.1,-,,,Overcast,140,09-07-2016 20:35
2851,49,4:35 PM,71.6,66.2,83,29.84,10,SE,6.9,-,,,Overcast,130,09-07-2016 20:55
2852,50,4:55 PM,71.6,66.2,83,29.84,10,SE,10.4,-,,,Overcast,140,09-07-2016 21:00
2853,51,5:00 PM,71.6,66.2,83,29.83,10,SE,9.2,-,,,Overcast,130,09-07-2016 21:35
2854,52,5:35 PM,71.6,66.2,83,29.82,10,ESE,5.8,-,,,Overcast,110,09-07-2016 21:55
2855,53,5:55 PM,71.6,66.2,83,29.82,10,ESE,6.9,-,,,Overcast,120,09-07-2016 22:00
2856,54,6:00 PM,71.6,66.2,83,29.81,10,ENE,5.8,-,,,Overcast,60,09-07-2016 22:35
2857,55,6:35 PM,71.6,66.2,83,29.82,10,East,5.8,-,,,Overcast,100,09-07-2016 22:55
2858,56,6:55 PM,71.6,66.2,83,29.81,10,ESE,5.8,16.1,,,Overcast,120,09-07-2016 23:00
2859,57,7:00 PM,71.6,66.2,83,29.81,10,ENE,6.9,-,,,Overcast,70,09-07-2016 23:35
2860,58,7:35 PM,71.6,66.2,83,29.81,10,East,4.6,18.4,,,Overcast,90,09-07-2016 23:55
2861,59,7:55 PM,69.8,66.2,88,29.83,10,East,8.1,-,,,Overcast,90,10-07-2016 00:00
2862,60,8:00 PM,69.8,66.2,88,29.83,9,ENE,8.1,-,,,Overcast,60,10-07-2016 00:35
2863,61,8:35 PM,69.8,66.2,88,29.82,5,ENE,10.4,-,,,Overcast,60,10-07-2016 00:55
2864,62,8:55 PM,69.8,66.2,88,29.83,7,East,4.6,-,,,Overcast,90,10-07-2016 01:00
2865,63,9:00 PM,69.8,66.2,88,29.82,8,East,4.6,-,,,Overcast,90,10-07-2016 01:35
2866,64,9:35 PM,69.8,66.2,88,29.83,9,ESE,3.5,-,,,Overcast,120,10-07-2016 01:55
2867,65,9:55 PM,69.8,66.2,88,29.82,10,ENE,10.4,-,,,Overcast,60,10-07-2016 02:00
2868,66,10:00 PM,69.8,66.2,88,29.85,7,NNE,5.8,-,0.02,,Overcast,20,10-07-2016 02:35
2869,67,10:35 PM,69.8,68,94,29.86,2.5,East,6.9,-,0.08,,Overcast,80,10-07-2016 02:55
2870,68,10:55 PM,69.8,68,94,29.86,9,NE,4.6,-,0.1,,Overcast,40,10-07-2016 03:00
2871,69,11:00 PM,69.8,68,94,29.83,4,ENE,10.4,-,0.12,,Overcast,60,10-07-2016 03:35
2872,70,11:35 PM,69.8,66.2,88,29.83,10,NE,5.8,-,0.14,,Mostly Cloudy,40,10-07-2016 03:55
2873,71,11:55 PM,69.8,66.2,88,29.83,10,NE,4.6,-,0.14,,Mostly Cloudy,50,10-07-2016 04:00
2874,0,12:00 AM,69.8,66.2,88,29.83,10,Calm,Calm,-,,,Mostly Cloudy,0,10-07-2016 04:35
2875,1,12:35 AM,69.8,66.2,88,29.82,10,Calm,Calm,-,,,Scattered Clouds,0,10-07-2016 10:55
2876,2,6:55 AM,69.8,66.2,88,29.85,10,WSW,4.6,-,,,Mostly Cloudy,250,10-07-2016 11:00
2877,3,7:00 AM,69.8,66.2,88,29.85,10,WSW,4.6,-,,,Partly Cloudy,240,10-07-2016 11:35
2878,4,7:35 AM,69.8,66.2,88,29.85,10,WSW,4.6,-,,,Partly Cloudy,250,10-07-2016 11:55
2879,5,7:55 AM,69.8,66.2,88,29.85,10,SSW,4.6,-,,,Mostly Cloudy,210,10-07-2016 12:00
2880,6,8:00 AM,69.8,66.2,88,29.86,10,SW,3.5,-,,,Mostly Cloudy,220,10-07-2016 12:35
2881,7,8:35 AM,69.8,66.2,88,29.86,10,SW,4.6,-,,,Mostly Cloudy,220,10-07-2016 12:55
2882,8,8:55 AM,71.6,66.2,83,29.86,10,SW,4.6,-,,,Mostly Cloudy,220,10-07-2016 13:00
2883,9,9:00 AM,71.6,64.4,78,29.86,10,WSW,5.8,-,,,Scattered Clouds,250,10-07-2016 13:35
2884,10,9:35 AM,73.4,64.4,73,29.85,10,WSW,5.8,-,,,Mostly Cloudy,250,10-07-2016 13:55
2885,11,9:55 AM,73.4,64.4,73,29.85,10,WSW,4.6,-,,,Overcast,250,10-07-2016 14:00
2886,12,10:00 AM,75.2,64.4,69,29.86,10,WSW,3.5,-,,,Mostly Cloudy,250,10-07-2016 14:35
2887,13,10:35 AM,77,64.4,65,29.86,10,WSW,5.8,-,,,Scattered Clouds,250,10-07-2016 14:55
2888,14,10:55 AM,78.8,64.4,61,29.86,10,WSW,6.9,-,,,Mostly Cloudy,250,10-07-2016 15:00
2889,15,11:00 AM,78.8,64.4,61,29.86,10,WSW,6.9,-,,,Mostly Cloudy,250,10-07-2016 15:35
2890,16,11:35 AM,80.6,64.4,58,29.86,10,West,10.4,-,,,Mostly Cloudy,260,10-07-2016 15:55
2891,17,11:55 AM,80.6,64.4,58,29.86,10,WSW,11.5,-,,,Mostly Cloudy,250,10-07-2016 16:00
2892,18,12:00 PM,80.6,64.4,58,29.86,10,WSW,5.8,-,,,Mostly Cloudy,250,10-07-2016 16:35
2893,19,12:35 PM,80.6,64.4,58,29.86,10,West,5.8,-,,,Overcast,260,10-07-2016 16:55
2894,20,12:55 PM,80.6,64.4,58,29.86,10,WSW,5.8,-,,,Mostly Cloudy,250,10-07-2016 17:00
2895,21,1:00 PM,80.6,62.6,54,29.86,10,WSW,5.8,-,,,Mostly Cloudy,250,10-07-2016 17:35
2896,22,1:35 PM,80.6,62.6,54,29.86,10,West,11.5,-,,,Overcast,270,10-07-2016 17:55
2897,23,1:55 PM,78.8,64.4,61,29.86,10,West,11.5,-,,,Overcast,260,10-07-2016 18:00
2898,24,2:00 PM,78.8,64.4,61,29.86,10,West,16.1,21.9,,,Mostly Cloudy,260,10-07-2016 18:35
2899,25,2:35 PM,78.8,64.4,61,29.86,10,West,10.4,-,,,Mostly Cloudy,260,10-07-2016 18:55
2900,26,2:55 PM,80.6,64.4,58,29.86,10,SW,8.1,-,,,Overcast,230,10-07-2016 19:00
2901,27,3:00 PM,80.6,64.4,58,29.86,10,North,4.6,-,,,Overcast,360,10-07-2016 19:35
2902,28,3:35 PM,80.6,62.6,54,29.87,10,Calm,Calm,-,,,Overcast,0,10-07-2016 19:55
2903,29,3:55 PM,80.6,62.6,54,29.86,10,NNW,3.5,-,,,Overcast,330,10-07-2016 20:00
2904,30,4:00 PM,80.6,62.6,54,29.87,10,North,4.6,-,,,Overcast,360,10-07-2016 20:35
2905,31,4:35 PM,80.6,62.6,54,29.87,10,WSW,3.5,-,,,Overcast,250,10-07-2016 20:55
2906,32,4:55 PM,80.6,62.6,54,29.87,10,NNW,4.6,-,,,Overcast,340,10-07-2016 21:00
2907,33,5:00 PM,80.6,60.8,51,29.88,10,Calm,Calm,-,,,Overcast,0,10-07-2016 21:35
2908,34,5:35 PM,80.6,60.8,51,29.88,10,SW,3.5,-,,,Overcast,230,10-07-2016 21:55
2909,35,5:55 PM,80.6,62.6,54,29.88,10,Calm,Calm,-,,,Overcast,0,10-07-2016 22:00
2910,36,6:00 PM,80.6,62.6,54,29.89,10,Calm,Calm,-,,,Overcast,0,10-07-2016 22:35
2911,37,6:35 PM,80.6,62.6,54,29.9,10,NW,3.5,-,,,Overcast,310,10-07-2016 22:55
2912,38,6:55 PM,78.8,62.6,57,29.9,10,Calm,Calm,-,,,Overcast,0,10-07-2016 23:00
2913,39,7:00 PM,78.8,60.8,54,29.91,10,NW,3.5,-,,,Overcast,310,10-07-2016 23:35
2914,40,7:35 PM,78.8,60.8,54,29.92,10,Calm,Calm,-,,,Overcast,0,10-07-2016 23:55
2915,41,7:55 PM,77,60.8,57,29.92,10,WNW,3.5,-,,,Mostly Cloudy,300,11-07-2016 00:00
2916,42,8:00 PM,77,60.8,57,29.92,10,SSE,3.5,-,,,Partly Cloudy,160,11-07-2016 00:35
2917,43,8:35 PM,75.2,60.8,61,29.93,10,NW,3.5,-,,,Clear,310,11-07-2016 00:55
2918,44,8:55 PM,75.2,60.8,61,29.93,10,Calm,Calm,-,,,Clear,0,11-07-2016 01:00
2919,45,9:00 PM,75.2,60.8,61,29.94,10,WNW,3.5,-,,,Clear,300,11-07-2016 01:35
2920,46,9:35 PM,75.2,60.8,61,29.95,10,SSE,3.5,-,,,Clear,150,11-07-2016 01:55
2921,47,9:55 PM,73.4,60.8,65,29.96,10,Calm,Calm,-,,,Clear,0,11-07-2016 02:00
2922,48,10:00 PM,73.4,60.8,65,29.96,10,Calm,Calm,-,,,Clear,0,11-07-2016 02:35
2923,49,10:35 PM,73.4,60.8,65,29.96,10,Calm,Calm,-,,,Clear,0,11-07-2016 02:55
2924,50,10:55 PM,73.4,60.8,65,29.97,10,WNW,3.5,-,,,Clear,290,11-07-2016 03:00
2925,51,11:00 PM,73.4,60.8,65,29.97,10,WSW,3.5,-,,,Clear,250,11-07-2016 03:35
2926,52,11:35 PM,71.6,60.8,69,29.98,10,West,4.6,-,,,Clear,280,11-07-2016 03:55
2927,53,11:55 PM,71.6,60.8,69,29.98,10,Calm,Calm,-,,,Clear,0,11-07-2016 04:00
2928,0,12:00 AM,71.6,60.8,69,29.98,10,Calm,Calm,-,,,Clear,0,11-07-2016 04:35
2929,1,12:35 AM,71.6,60.8,69,29.99,10,West,3.5,-,,,Clear,280,11-07-2016 04:55
2930,2,12:55 AM,71.6,60.8,69,29.99,10,Calm,Calm,-,,,Clear,0,11-07-2016 05:00
2931,3,1:00 AM,71.6,60.8,69,30,10,Calm,Calm,-,,,Clear,0,11-07-2016 05:35
2932,4,1:35 AM,69.8,60.8,73,30,10,Calm,Calm,-,,,Clear,0,11-07-2016 05:55
2933,5,1:55 AM,69.8,60.8,73,30.01,10,Calm,Calm,-,,,Partly Cloudy,0,11-07-2016 06:00
2934,6,2:00 AM,69.8,60.8,73,30.01,10,Calm,Calm,-,,,Partly Cloudy,0,11-07-2016 06:35
2935,7,2:35 AM,69.8,60.8,73,30.01,10,Calm,Calm,-,,,Clear,0,11-07-2016 06:55
2936,8,2:55 AM,69.8,60.8,73,30.01,10,Calm,Calm,-,,,Clear,0,11-07-2016 07:00
2937,9,3:00 AM,69.8,60.8,73,30.01,10,Calm,Calm,-,,,Scattered Clouds,0,11-07-2016 07:35
2938,10,3:35 AM,69.8,60.8,73,30.02,10,Calm,Calm,-,,,Partly Cloudy,0,11-07-2016 07:55
2939,11,3:55 AM,69.8,60.8,73,30.02,10,Calm,Calm,-,,,Clear,0,11-07-2016 08:00
2940,12,4:00 AM,69.8,62.6,78,30.02,10,ENE,4.6,-,,,Clear,60,11-07-2016 08:35
2941,13,4:35 AM,69.8,60.8,73,30.03,10,West,4.6,-,,,Clear,260,11-07-2016 08:55
2942,14,4:55 AM,69.8,60.8,73,30.04,10,Calm,Calm,-,,,Clear,0,11-07-2016 09:00
2943,15,5:00 AM,68,60.8,78,30.04,10,Calm,Calm,-,,,Clear,0,11-07-2016 09:35
2944,16,5:35 AM,69.8,62.6,78,30.05,10,NE,3.5,-,,,Clear,50,11-07-2016 09:55
2945,17,5:55 AM,68,60.8,78,30.05,10,East,4.6,-,,,Clear,90,11-07-2016 10:00
2946,18,6:00 AM,68,60.8,78,30.06,10,Calm,Calm,-,,,Clear,0,11-07-2016 10:35
2947,19,6:35 AM,68,60.8,78,30.06,10,Calm,Calm,-,,,Clear,0,11-07-2016 10:55
2948,20,6:55 AM,68,60.8,78,30.07,10,West,4.6,-,,,Clear,270,11-07-2016 11:00
2949,21,7:00 AM,68,60.8,78,30.07,10,Calm,Calm,-,,,Clear,0,11-07-2016 11:35
2950,22,7:35 AM,69.8,62.6,78,30.07,10,Calm,Calm,-,,,Clear,0,11-07-2016 11:55
2951,23,7:55 AM,69.8,62.6,78,30.07,10,ENE,6.9,-,,,Partly Cloudy,70,11-07-2016 12:00
2952,24,8:00 AM,69.8,62.6,78,30.08,10,East,3.5,-,,,Clear,80,11-07-2016 12:35
2953,25,8:35 AM,71.6,62.6,73,30.08,10,East,3.5,-,,,Clear,90,11-07-2016 12:55
2954,26,8:55 AM,71.6,62.6,73,30.08,10,ENE,10.4,17.3,,,Mostly Cloudy,60,11-07-2016 13:00
2955,27,9:00 AM,71.6,62.6,73,30.08,10,Calm,Calm,-,,,Mostly Cloudy,0,11-07-2016 13:35
2956,28,9:35 AM,73.4,60.8,65,30.08,10,East,5.8,-,,,Partly Cloudy,80,11-07-2016 13:55
2957,29,9:55 AM,73.4,60.8,65,30.07,10,NE,10.4,-,,,Clear,40,11-07-2016 14:00
2958,30,10:00 AM,75.2,60.8,61,30.08,10,Calm,Calm,-,,,Clear,0,11-07-2016 14:35
2959,31,10:35 AM,75.2,62.6,65,30.08,10,SSE,5.8,-,,,Clear,160,11-07-2016 14:55
2960,32,10:55 AM,75.2,60.8,61,30.09,10,Calm,Calm,-,,,Partly Cloudy,0,11-07-2016 15:00
2961,33,11:00 AM,77,60.8,57,30.09,10,WNW,6.9,-,,,Scattered Clouds,290,11-07-2016 15:35
2962,34,11:35 AM,77,59,54,30.09,9,SW,4.6,-,,,Scattered Clouds,220,11-07-2016 15:55
2963,35,11:55 AM,78.8,60.8,54,30.09,10,Calm,Calm,-,,,Scattered Clouds,0,11-07-2016 16:00
2964,36,12:00 PM,78.8,59,51,30.09,10,West,4.6,-,,,Mostly Cloudy,270,11-07-2016 16:35
2965,37,12:35 PM,78.8,60.8,54,30.08,10,SSW,3.5,-,,,Mostly Cloudy,210,11-07-2016 16:55
2966,38,12:55 PM,78.8,59,51,30.08,10,SSW,3.5,-,,,Scattered Clouds,200,11-07-2016 17:00
2967,39,1:00 PM,80.6,59,48,30.07,10,Calm,Calm,-,,,Mostly Cloudy,0,11-07-2016 17:35
2968,40,1:35 PM,80.6,59,48,30.07,10,Calm,Calm,-,,,Scattered Clouds,0,11-07-2016 17:55
2969,41,1:55 PM,80.6,57.2,45,30.07,10,Calm,Calm,-,,,Clear,0,11-07-2016 18:00
2970,42,2:00 PM,82.4,59,45,30.07,10,SSW,3.5,-,,,Clear,200,11-07-2016 18:35
2971,43,2:35 PM,82.4,59,45,30.07,10,SSE,4.6,-,,,Clear,150,11-07-2016 18:55
2972,44,2:55 PM,82.4,57.2,42,30.08,10,Calm,Calm,-,,,Clear,0,11-07-2016 19:00
2973,45,3:00 PM,82.4,57.2,42,30.09,10,East,8.1,-,,,Scattered Clouds,90,11-07-2016 19:35
2974,46,3:35 PM,82.4,57.2,42,30.09,10,South,5.8,-,,,Scattered Clouds,170,11-07-2016 19:55
2975,47,3:55 PM,80.6,57.2,45,30.09,10,ENE,4.6,-,,,Scattered Clouds,60,11-07-2016 20:00
2976,48,4:00 PM,82.4,57.2,42,30.09,10,NE,4.6,-,,,Mostly Cloudy,40,11-07-2016 20:35
2977,49,4:35 PM,82.4,57.2,42,30.08,10,Calm,Calm,-,,,Partly Cloudy,0,11-07-2016 20:55
2978,50,4:55 PM,84.2,57.2,40,30.07,10,Calm,Calm,-,,,Clear,0,11-07-2016 21:00
2979,51,5:00 PM,84.2,57.2,40,30.07,10,South,3.5,-,,,Clear,180,11-07-2016 21:35
2980,52,5:35 PM,82.4,57.2,42,30.06,10,SSW,4.6,-,,,Clear,200,11-07-2016 21:55
2981,53,5:55 PM,84.2,57.2,40,30.06,10,East,3.5,-,,,Clear,90,11-07-2016 22:00
2982,54,6:00 PM,82.4,59,45,30.06,10,ENE,4.6,-,,,Clear,60,11-07-2016 22:35
2983,55,6:35 PM,84.2,59,42,30.06,10,East,4.6,-,,,Clear,90,11-07-2016 22:55
2984,56,6:55 PM,80.6,62.6,54,30.07,10,SSE,6.9,-,,,Mostly Cloudy,150,11-07-2016 23:00
2985,57,7:00 PM,78.8,64.4,61,30.08,10,South,9.2,-,,,Mostly Cloudy,180,11-07-2016 23:35
2986,58,7:35 PM,78.8,64.4,61,30.09,10,SSE,9.2,-,,,Partly Cloudy,160,11-07-2016 23:55
2987,59,7:55 PM,75.2,64.4,69,30.09,10,SE,3.5,-,,,Clear,140,12-07-2016 00:00
2988,60,8:00 PM,75.2,64.4,69,30.09,10,SE,5.8,-,,,Clear,140,12-07-2016 00:35
2989,61,8:35 PM,75.2,64.4,69,30.1,10,SSE,6.9,-,,,Clear,150,12-07-2016 00:55
2990,62,8:55 PM,73.4,64.4,73,30.1,10,South,4.6,-,,,Clear,170,12-07-2016 01:00
2991,63,9:00 PM,73.4,64.4,73,30.1,10,SE,6.9,-,,,Clear,140,12-07-2016 01:35
2992,64,9:35 PM,73.4,64.4,73,30.11,9,SSE,8.1,-,,,Clear,160,12-07-2016 01:55
2993,65,9:55 PM,73.4,64.4,73,30.11,10,SSE,5.8,-,,,Clear,160,12-07-2016 02:00
2994,66,10:00 PM,73.4,64.4,73,30.11,10,SSW,4.6,-,,,Clear,200,12-07-2016 02:35
2995,67,10:35 PM,73.4,64.4,73,30.12,10,Calm,Calm,-,,,Clear,0,12-07-2016 02:55
2996,68,10:55 PM,73.4,64.4,73,30.12,10,Calm,Calm,-,,,Clear,0,12-07-2016 03:00
2997,69,11:00 PM,71.6,64.4,78,30.11,10,South,4.6,-,,,Clear,190,12-07-2016 03:35
2998,70,11:35 PM,71.6,64.4,78,30.12,10,SW,4.6,-,,,Clear,230,12-07-2016 03:55
2999,71,11:55 PM,71.6,64.4,78,30.12,10,Calm,Calm,-,,,Clear,0,12-07-2016 04:00
3000,0,12:00 AM,71.6,64.4,78,30.11,10,SSW,3.5,-,,,Clear,210,12-07-2016 04:35
3001,1,12:35 AM,71.6,64.4,78,30.11,10,WSW,4.6,-,,,Clear,240,12-07-2016 04:55
3002,2,12:55 AM,71.6,64.4,78,30.1,10,WSW,4.6,-,,,Clear,240,12-07-2016 05:00
3003,3,1:00 AM,71.6,64.4,78,30.11,10,WSW,3.5,-,,,Clear,240,12-07-2016 05:35
3004,4,1:35 AM,71.6,64.4,78,30.1,10,SW,3.5,-,,,Clear,220,12-07-2016 05:55
3005,5,1:55 AM,71.6,64.4,78,30.1,10,Calm,Calm,-,,,Clear,0,12-07-2016 06:00
3006,6,2:00 AM,71.6,64.4,78,30.1,10,WSW,3.5,-,,,Clear,250,12-07-2016 06:35
3007,7,2:35 AM,71.6,64.4,78,30.11,10,West,3.5,-,,,Clear,260,12-07-2016 06:55
3008,8,2:55 AM,71.6,64.4,78,30.11,10,WSW,3.5,-,,,Clear,250,12-07-2016 07:00
3009,9,3:00 AM,71.6,64.4,78,30.11,10,WSW,3.5,-,,,Clear,250,12-07-2016 07:35
3010,10,3:35 AM,71.6,66.2,83,30.11,10,West,3.5,-,,,Clear,270,12-07-2016 07:55
3011,11,3:55 AM,69.8,66.2,88,30.12,10,West,4.6,-,,,Clear,270,12-07-2016 08:00
3012,12,4:00 AM,69.8,66.2,88,30.12,10,West,3.5,-,,,Clear,270,12-07-2016 08:35
3013,13,4:35 AM,69.8,66.2,88,30.12,10,WSW,3.5,-,,,Clear,250,12-07-2016 08:55
3014,14,4:55 AM,69.8,66.2,88,30.12,10,SW,3.5,-,,,Clear,230,12-07-2016 09:00
3015,15,5:00 AM,69.8,66.2,88,30.13,10,WSW,3.5,-,,,Clear,240,12-07-2016 09:35
3016,16,5:35 AM,69.8,64.4,83,30.13,10,WSW,3.5,-,,,Clear,240,12-07-2016 09:55
3017,17,5:55 AM,69.8,66.2,88,30.14,10,SW,3.5,-,,,Clear,220,12-07-2016 10:00
3018,18,6:00 AM,69.8,64.4,83,30.14,10,Calm,Calm,-,,,Clear,0,12-07-2016 10:35
3019,19,6:35 AM,69.8,64.4,83,30.14,10,Calm,Calm,-,,,Clear,0,12-07-2016 10:55
3020,20,6:55 AM,69.8,64.4,83,30.15,10,Calm,Calm,-,,,Clear,0,12-07-2016 11:00
3021,21,7:00 AM,69.8,66.2,88,30.15,10,Calm,Calm,-,,,Clear,0,12-07-2016 11:35
3022,22,7:35 AM,71.6,66.2,83,30.15,10,Calm,Calm,-,,,Clear,0,12-07-2016 11:55
3023,23,7:55 AM,71.6,66.2,83,30.16,10,WSW,8.1,-,,,Clear,250,12-07-2016 12:00
3024,24,8:00 AM,71.6,66.2,83,30.16,10,SW,3.5,-,,,Clear,220,12-07-2016 12:35
3025,25,8:35 AM,71.6,66.2,83,30.16,9,SW,4.6,-,,,Clear,230,12-07-2016 12:55
3026,26,8:55 AM,71.6,64.4,78,30.16,10,SW,4.6,-,,,Clear,230,12-07-2016 13:00
3027,27,9:00 AM,73.4,64.4,73,30.16,10,SW,3.5,-,,,Clear,230,12-07-2016 13:35
3028,28,9:35 AM,75.2,62.6,65,30.15,10,SW,5.8,-,,,Clear,230,12-07-2016 13:55
3029,29,9:55 AM,77,64.4,65,30.15,10,WSW,5.8,-,,,Clear,250,12-07-2016 14:00
3030,30,10:00 AM,78.8,64.4,61,30.15,10,West,6.9,-,,,Clear,260,12-07-2016 14:35
3031,31,10:35 AM,78.8,64.4,61,30.15,10,WSW,6.9,-,,,Clear,240,12-07-2016 14:55
3032,32,10:55 AM,78.8,64.4,61,30.15,10,SW,5.8,-,,,Clear,220,12-07-2016 15:00
3033,33,11:00 AM,80.6,64.4,58,30.15,10,WSW,6.9,47.2,,,Clear,250,12-07-2016 15:35
3034,34,11:35 AM,80.6,62.6,54,30.14,10,SW,6.9,-,,,Clear,230,12-07-2016 15:55
3035,35,11:55 AM,82.4,62.6,51,30.13,10,SW,8.1,-,,,Clear,220,12-07-2016 16:00
3036,36,12:00 PM,82.4,62.6,51,30.13,10,West,8.1,-,,,Clear,260,12-07-2016 16:35
3037,37,12:35 PM,82.4,62.6,51,30.13,10,SW,9.2,-,,,Clear,220,12-07-2016 16:55
3038,38,12:55 PM,82.4,62.6,51,30.12,10,SSW,8.1,-,,,Clear,210,12-07-2016 17:00
3039,39,1:00 PM,82.4,62.6,51,30.12,10,SSW,6.9,-,,,Clear,200,12-07-2016 17:35
3040,40,1:35 PM,82.4,62.6,51,30.11,10,SSW,8.1,-,,,Clear,200,12-07-2016 17:55
3041,41,1:55 PM,82.4,62.6,51,30.11,10,South,8.1,-,,,Clear,180,12-07-2016 18:00
3042,42,2:00 PM,82.4,62.6,51,30.1,10,SSE,9.2,-,,,Clear,160,12-07-2016 18:35
3043,43,2:35 PM,82.4,62.6,51,30.09,10,SSE,9.2,17.3,,,Clear,160,12-07-2016 18:55
3044,44,2:55 PM,82.4,64.4,54,30.09,10,South,12.7,16.1,,,Clear,190,12-07-2016 19:00
3045,45,3:00 PM,82.4,64.4,54,30.09,9,South,8.1,-,,,Clear,180,12-07-2016 19:35
3046,46,3:35 PM,82.4,64.4,54,30.09,10,South,9.2,-,,,Clear,180,12-07-2016 19:55
3047,47,3:55 PM,80.6,64.4,58,30.08,10,South,10.4,48.3,,,Clear,180,12-07-2016 20:00
3048,48,4:00 PM,82.4,64.4,54,30.07,10,South,10.4,19.6,,,Clear,170,12-07-2016 20:35
3049,49,4:35 PM,80.6,64.4,58,30.07,10,South,10.4,21.9,,,Clear,170,12-07-2016 20:55
3050,50,4:55 PM,80.6,64.4,58,30.07,9,South,12.7,17.3,,,Clear,170,12-07-2016 21:00
3051,51,5:00 PM,80.6,64.4,58,30.08,10,SSE,9.2,17.3,,,Clear,160,12-07-2016 21:35
3052,52,5:35 PM,80.6,66.2,61,30.08,10,SSE,15,18.4,,,Clear,150,12-07-2016 21:55
3053,53,5:55 PM,80.6,66.2,61,30.07,10,South,6.9,17.3,,,Mostly Cloudy,170,12-07-2016 22:00
3054,54,6:00 PM,80.6,64.4,58,30.07,10,SSE,9.2,29.9,,,Partly Cloudy,160,12-07-2016 22:35
3055,55,6:35 PM,78.8,64.4,61,30.07,10,SSE,11.5,16.1,,,Clear,160,12-07-2016 22:55
3056,56,6:55 PM,78.8,64.4,61,30.06,10,South,10.4,18.4,,,Clear,170,12-07-2016 23:00
3057,57,7:00 PM,77,66.2,69,30.07,10,SSE,10.4,16.1,,,Clear,160,12-07-2016 23:35
3058,58,7:35 PM,77,66.2,69,30.06,10,South,8.1,-,,,Scattered Clouds,170,12-07-2016 23:55
3059,59,7:55 PM,77,66.2,69,30.06,10,South,4.6,-,,,Overcast,170,13-07-2016 00:00
3060,60,8:00 PM,75.2,66.2,73,30.06,10,South,8.1,-,,,Scattered Clouds,170,13-07-2016 00:35
3061,61,8:35 PM,75.2,66.2,73,30.06,10,South,4.6,-,,,Clear,170,13-07-2016 00:55
3062,62,8:55 PM,75.2,66.2,73,30.06,10,South,3.5,-,,,Clear,190,13-07-2016 01:00
3063,63,9:00 PM,75.2,66.2,73,30.07,10,Calm,Calm,-,,,Clear,0,13-07-2016 01:35
3064,64,9:35 PM,75.2,68,78,30.08,10,South,5.8,-,,,Clear,180,13-07-2016 01:55
3065,65,9:55 PM,75.2,68,78,30.08,10,South,5.8,-,,,Clear,170,13-07-2016 02:00
3066,66,10:00 PM,75.2,68,78,30.09,10,SSW,4.6,-,,,Clear,200,13-07-2016 02:35
3067,67,10:35 PM,75.2,68,78,30.09,10,SSW,5.8,-,,,Clear,200,13-07-2016 02:55
3068,68,10:55 PM,75.2,66.2,73,30.09,10,WSW,5.8,-,,,Clear,240,13-07-2016 03:00
3069,69,11:00 PM,73.4,66.2,78,30.09,10,SW,5.8,-,,,Clear,230,13-07-2016 03:35
3070,70,11:35 PM,73.4,66.2,78,30.09,10,SW,6.9,-,,,Clear,220,13-07-2016 03:55
3071,71,11:55 PM,73.4,66.2,78,30.09,10,SW,8.1,-,,,Clear,220,13-07-2016 04:00
3072,0,12:00 AM,73.4,66.2,78,30.09,10,SW,6.9,-,,,Clear,230,13-07-2016 04:35
3073,1,12:35 AM,73.4,66.2,78,30.09,10,SW,6.9,-,,,Clear,230,13-07-2016 04:55
3074,2,12:55 AM,73.4,66.2,78,30.08,10,WSW,4.6,-,,,Clear,240,13-07-2016 05:00
3075,3,1:00 AM,73.4,66.2,78,30.09,10,WSW,6.9,-,,,Clear,240,13-07-2016 05:35
3076,4,1:35 AM,73.4,66.2,78,30.09,10,WSW,6.9,-,,,Clear,240,13-07-2016 05:55
3077,5,1:55 AM,73.4,66.2,78,30.09,10,WSW,8.1,-,,,Clear,250,13-07-2016 06:00
3078,6,2:00 AM,73.4,66.2,78,30.09,10,West,8.1,-,,,Clear,260,13-07-2016 06:35
3079,7,2:35 AM,73.4,68,83,30.09,10,WSW,8.1,-,,,Clear,240,13-07-2016 06:55
3080,8,2:55 AM,73.4,68,83,30.09,10,WSW,9.2,-,,,Clear,240,13-07-2016 07:00
3081,9,3:00 AM,71.6,68,88,30.08,10,WSW,5.8,-,,,Clear,240,13-07-2016 07:35
3082,10,3:35 AM,71.6,68,88,30.08,10,WSW,4.6,-,,,Clear,240,13-07-2016 07:55
3083,11,3:55 AM,71.6,68,88,30.08,10,SW,6.9,-,,,Clear,220,13-07-2016 08:00
3084,12,4:00 AM,71.6,68,88,30.07,10,SW,5.8,-,,,Clear,220,13-07-2016 08:35
3085,13,4:35 AM,71.6,68,88,30.07,10,SW,6.9,-,,,Clear,230,13-07-2016 08:55
3086,14,4:55 AM,71.6,68,88,30.08,10,WSW,6.9,-,,,Clear,250,13-07-2016 09:00
3087,15,5:00 AM,71.6,68,88,30.08,10,West,4.6,-,,,Clear,260,13-07-2016 09:35
3088,16,5:35 AM,71.6,68,88,30.08,10,West,4.6,-,,,Clear,260,13-07-2016 09:55
3089,17,5:55 AM,71.6,68,88,30.08,10,WSW,3.5,-,,,Clear,250,13-07-2016 10:00
3090,18,6:00 AM,71.6,68,88,30.08,10,WSW,3.5,-,,,Clear,250,13-07-2016 10:35
3091,19,6:35 AM,71.6,68,88,30.08,10,SSW,3.5,-,,,Clear,210,13-07-2016 10:55
3092,20,6:55 AM,71.6,68,88,30.08,10,SW,5.8,-,,,Clear,220,13-07-2016 11:00
3093,21,7:00 AM,71.6,68,88,30.08,10,WSW,4.6,-,,,Clear,240,13-07-2016 11:35
3094,22,7:35 AM,73.4,68,83,30.08,10,SW,3.5,-,,,Partly Cloudy,230,13-07-2016 11:55
3095,23,7:55 AM,73.4,69.8,88,30.09,10,WSW,3.5,-,,,Scattered Clouds,240,13-07-2016 12:00
3096,24,8:00 AM,73.4,69.8,88,30.09,10,WSW,4.6,-,,,Mostly Cloudy,240,13-07-2016 12:35
3097,25,8:35 AM,73.4,69.8,88,30.09,10,Calm,Calm,-,,,Overcast,0,13-07-2016 12:55
3098,26,8:55 AM,75.2,68,78,30.1,10,SSW,5.8,-,,,Overcast,210,13-07-2016 13:00
3099,27,9:00 AM,75.2,68,78,30.1,10,WSW,3.5,-,,,Mostly Cloudy,240,13-07-2016 13:35
3100,28,9:35 AM,75.2,66.2,73,30.09,10,SSW,5.8,-,,,Partly Cloudy,200,13-07-2016 13:55
3101,29,9:55 AM,78.8,66.2,65,30.09,10,SSW,3.5,-,,,Partly Cloudy,210,13-07-2016 14:00
3102,30,10:00 AM,78.8,66.2,65,30.09,10,WSW,3.5,42.6,,,Mostly Cloudy,250,13-07-2016 14:35
3103,31,10:35 AM,80.6,68,65,30.09,10,SSW,4.6,-,,,Partly Cloudy,210,13-07-2016 14:55
3104,32,10:55 AM,80.6,68,65,30.09,9,SSW,6.9,-,,,Partly Cloudy,210,13-07-2016 15:00
3105,33,11:00 AM,82.4,68,62,30.09,10,SW,8.1,-,,,Scattered Clouds,220,13-07-2016 15:35
3106,34,11:35 AM,82.4,69.8,66,30.09,10,SSW,6.9,-,,,Mostly Cloudy,210,13-07-2016 15:55
3107,35,11:55 AM,80.6,69.8,70,30.09,10,SW,6.9,-,,,Overcast,230,13-07-2016 16:00
3108,36,12:00 PM,82.4,69.8,66,30.08,10,SW,5.8,-,,,Overcast,230,13-07-2016 16:35
3109,37,12:35 PM,84.2,69.8,62,30.07,8,WSW,5.8,-,,,Mostly Cloudy,240,13-07-2016 16:55
3110,38,12:55 PM,84.2,69.8,62,30.07,10,SW,6.9,-,,,Mostly Cloudy,230,13-07-2016 17:00
3111,39,1:00 PM,84.2,69.8,62,30.07,10,SSW,5.8,-,,,Mostly Cloudy,210,13-07-2016 17:35
3112,40,1:35 PM,84.2,69.8,62,30.07,10,South,6.9,-,,,Mostly Cloudy,180,13-07-2016 17:55
3113,41,1:55 PM,84.2,69.8,62,30.06,10,SSE,6.9,-,,,Mostly Cloudy,160,13-07-2016 18:00
3114,42,2:00 PM,82.4,68,62,30.06,10,South,8.1,-,,,Mostly Cloudy,170,13-07-2016 18:35
3115,43,2:35 PM,82.4,69.8,66,30.06,10,SSE,8.1,-,,,Mostly Cloudy,160,13-07-2016 18:55
3116,44,2:55 PM,82.4,66.2,58,30.06,10,South,8.1,-,,,Mostly Cloudy,170,13-07-2016 19:00
3117,45,3:00 PM,82.4,68,62,30.06,9,South,12.7,-,,,Overcast,190,13-07-2016 19:35
3118,46,3:35 PM,80.6,68,65,30.06,10,South,6.9,-,,,Mostly Cloudy,190,13-07-2016 19:55
3119,47,3:55 PM,80.6,68,65,30.06,10,South,8.1,-,,,Overcast,190,13-07-2016 20:00
3120,48,4:00 PM,80.6,69.8,70,30.06,10,SSW,9.2,-,,,Overcast,200,13-07-2016 20:35
3121,49,4:35 PM,78.8,69.8,74,30.06,9,SW,9.2,27.6,,,Overcast,220,13-07-2016 20:55
3122,50,4:55 PM,78.8,69.8,74,30.07,10,SW,10.4,16.1,,,Mostly Cloudy,230,13-07-2016 21:00
3123,51,5:00 PM,78.8,69.8,74,30.06,10,SW,9.2,18.4,,,Partly Cloudy,230,13-07-2016 21:35
3124,52,5:35 PM,78.8,69.8,74,30.05,10,SW,5.8,-,,,Partly Cloudy,230,13-07-2016 21:55
3125,53,5:55 PM,78.8,69.8,74,30.04,10,SW,6.9,-,,,Partly Cloudy,230,13-07-2016 22:00
3126,54,6:00 PM,77,69.8,78,30.03,10,WSW,4.6,-,,,Partly Cloudy,240,13-07-2016 22:35
3127,55,6:35 PM,77,69.8,78,30.03,10,West,4.6,-,,,Clear,270,13-07-2016 22:55
3128,56,6:55 PM,77,69.8,78,30.02,10,Calm,Calm,-,,,Mostly Cloudy,0,13-07-2016 23:00
3129,57,7:00 PM,77,69.8,78,30.01,10,South,3.5,-,,,Mostly Cloudy,180,13-07-2016 23:35
3130,58,7:35 PM,77,69.8,78,30.02,10,SE,3.5,-,,,Clear,130,13-07-2016 23:55
3131,59,7:55 PM,77,69.8,78,30.03,10,Calm,Calm,-,,,Clear,0,14-07-2016 00:00
3132,60,8:00 PM,77,69.8,78,30.03,10,South,3.5,-,,,Clear,170,14-07-2016 00:35
3133,61,8:35 PM,77,69.8,78,30.03,10,SSE,8.1,-,,,Clear,160,14-07-2016 00:55
3134,62,8:55 PM,78.8,69.8,74,30.03,10,South,4.6,-,,,Clear,180,14-07-2016 01:00
3135,63,9:00 PM,77,69.8,78,30.03,10,SSE,5.8,-,,,Partly Cloudy,150,14-07-2016 01:35
3136,64,9:35 PM,75.2,69.8,83,30.02,10,SSE,6.9,-,,,Partly Cloudy,150,14-07-2016 01:55
3137,65,9:55 PM,75.2,69.8,83,30.02,10,SSE,6.9,-,,,Clear,160,14-07-2016 02:00
3138,66,10:00 PM,75.2,71.6,89,30.02,10,SSW,5.8,-,,,Clear,200,14-07-2016 02:35
3139,67,10:35 PM,75.2,71.6,89,30.02,10,South,6.9,-,,,Clear,190,14-07-2016 02:55
3140,68,10:55 PM,75.2,71.6,89,30.02,10,SSW,3.5,-,,,Clear,200,14-07-2016 03:00
3141,69,11:00 PM,75.2,71.6,89,30.02,10,South,6.9,-,,,Mostly Cloudy,190,14-07-2016 03:35
3142,70,11:35 PM,75.2,71.6,89,30.01,10,South,3.5,-,,,Overcast,180,14-07-2016 03:55
3143,71,11:55 PM,75.2,71.6,89,30.01,10,SSW,5.8,-,,,Overcast,200,14-07-2016 04:00
3144,0,12:00 AM,75.2,71.6,89,30.01,10,South,8.1,-,,,Overcast,190,14-07-2016 04:35
3145,1,12:35 AM,75.2,71.6,89,30,10,SSW,5.8,-,,,Overcast,200,14-07-2016 04:55
3146,2,12:55 AM,75.2,71.6,89,30,10,South,5.8,-,,,Overcast,190,14-07-2016 05:00
3147,3,1:00 AM,75.2,71.6,89,30.01,10,SSW,5.8,-,,,Overcast,200,14-07-2016 05:35
3148,4,1:35 AM,75.2,71.6,89,30.01,10,SSW,4.6,-,,,Overcast,200,14-07-2016 05:55
3149,5,1:55 AM,75.2,73.4,94,30,10,South,5.8,-,,,Overcast,190,14-07-2016 06:00
3150,6,2:00 AM,75.2,73.4,94,30,10,SW,5.8,-,,,Overcast,230,14-07-2016 06:35
3151,7,2:35 AM,75.2,73.4,94,30,10,WSW,6.9,-,,,Overcast,240,14-07-2016 06:55
3152,8,2:55 AM,75.2,73.4,94,29.99,10,WSW,5.8,-,,,Overcast,250,14-07-2016 07:00
3153,9,3:00 AM,75.2,73.4,94,29.98,10,West,4.6,-,,,Overcast,260,14-07-2016 07:35
3154,10,3:35 AM,75.2,73.4,94,29.97,10,West,4.6,-,,,Overcast,260,14-07-2016 07:55
3155,11,3:55 AM,75.2,73.4,94,29.97,10,West,4.6,-,,,Overcast,270,14-07-2016 08:00
3156,12,4:00 AM,75.2,73.4,94,29.97,10,WSW,4.6,-,,,Overcast,250,14-07-2016 08:35
3157,13,4:35 AM,75.2,73.4,94,29.97,10,WSW,4.6,-,,,Overcast,240,14-07-2016 08:55
3158,14,4:55 AM,75.2,73.4,94,29.97,10,WSW,3.5,-,,,Overcast,240,14-07-2016 09:00
3159,15,5:00 AM,75.2,73.4,94,29.96,10,SSW,4.6,-,,,Overcast,200,14-07-2016 09:35
3160,16,5:35 AM,75.2,73.4,94,29.95,10,SSW,4.6,-,,,Overcast,200,14-07-2016 09:55
3161,17,5:55 AM,75.2,73.4,94,29.94,10,SSE,4.6,-,,,Scattered Clouds,160,14-07-2016 10:00
3162,18,6:00 AM,75.2,73.4,94,29.94,10,South,3.5,-,,,Mostly Cloudy,170,14-07-2016 10:35
3163,19,6:35 AM,75.2,73.4,94,29.94,10,SSE,3.5,-,,,Overcast,160,14-07-2016 10:55
3164,20,6:55 AM,75.2,73.4,94,29.94,10,SSE,4.6,-,,,Overcast,160,14-07-2016 11:00
3165,21,7:00 AM,77,73.4,89,29.94,10,Calm,Calm,-,,,Overcast,0,14-07-2016 11:35
3166,22,7:35 AM,77,73.4,89,29.94,10,SSE,3.5,-,,,Overcast,160,14-07-2016 11:55
3167,23,7:55 AM,77,73.4,89,29.94,9,South,5.8,-,,,Overcast,180,14-07-2016 12:00
3168,24,8:00 AM,78.8,73.4,83,29.95,10,SSW,4.6,-,,,Overcast,200,14-07-2016 12:35
3169,25,8:35 AM,78.8,73.4,83,29.94,10,WSW,3.5,-,,,Overcast,250,14-07-2016 12:55
3170,26,8:55 AM,78.8,75.2,89,29.94,10,West,5.8,-,,,Overcast,260,14-07-2016 13:00
3171,27,9:00 AM,78.8,73.4,83,29.93,10,WNW,5.8,-,,,Overcast,290,14-07-2016 13:35
3172,28,9:35 AM,80.6,75.2,84,29.93,10,West,5.8,-,,,Overcast,270,14-07-2016 13:55
3173,29,9:55 AM,80.6,75.2,84,29.92,10,SSW,3.5,-,,,Overcast,210,14-07-2016 14:00
3174,30,10:00 AM,80.6,73.4,79,29.92,10,SW,4.6,-,,,Mostly Cloudy,220,14-07-2016 14:35
3175,31,10:35 AM,82.4,73.4,74,29.93,10,West,6.9,-,,,Mostly Cloudy,260,14-07-2016 14:55
3176,32,10:55 AM,82.4,73.4,74,29.93,10,SW,4.6,-,,,Overcast,220,14-07-2016 15:00
3177,33,11:00 AM,82.4,73.4,74,29.92,9,WSW,4.6,-,,,Overcast,240,14-07-2016 15:35
3178,34,11:35 AM,84.2,73.4,70,29.92,9,SW,6.9,-,,,Mostly Cloudy,230,14-07-2016 15:55
3179,35,11:55 AM,84.2,73.4,70,29.92,10,SW,5.8,-,,,Overcast,230,14-07-2016 16:00
3180,36,12:00 PM,84.2,73.4,70,29.91,10,SW,5.8,-,,,Overcast,230,14-07-2016 16:35
3181,37,12:35 PM,84.2,73.4,70,29.91,10,SW,4.6,-,,,Overcast,230,14-07-2016 16:55
3182,38,12:55 PM,84.2,73.4,70,29.9,10,SW,8.1,-,,,Overcast,220,14-07-2016 17:00
3183,39,1:00 PM,84.2,73.4,70,29.89,10,SW,5.8,-,,,Overcast,220,14-07-2016 17:35
3184,40,1:35 PM,86,73.4,66,29.88,10,WSW,4.6,-,,,Scattered Clouds,240,14-07-2016 17:55
3185,41,1:55 PM,87.8,75.2,66,29.86,10,SW,6.9,-,,,Clear,220,14-07-2016 18:00
3186,42,2:00 PM,87.8,75.2,66,29.85,9,SW,9.2,-,,,Scattered Clouds,220,14-07-2016 18:35
3187,43,2:35 PM,89.6,75.2,62,29.84,10,SW,8.1,-,,,Partly Cloudy,230,14-07-2016 18:55
3188,44,2:55 PM,89.6,75.2,62,29.83,10,SSW,6.9,-,,,Clear,200,14-07-2016 19:00
3189,45,3:00 PM,89.6,75.2,62,29.82,9,South,5.8,-,,,Clear,190,14-07-2016 19:35
3190,46,3:35 PM,89.6,75.2,62,29.8,10,South,8.1,-,,Thunderstorm,Thunderstorm,180,14-07-2016 19:55
3191,47,3:55 PM,89.6,75.2,62,29.81,10,SE,6.9,-,,Thunderstorm,Thunderstorm,140,14-07-2016 20:00
3192,48,4:00 PM,82.4,75.2,79,29.86,1.8,West,11.5,31.1,0.18,Thunderstorm,Overcast,260,14-07-2016 20:35
3193,49,4:35 PM,77,73.4,89,29.83,10,WSW,4.6,-,0.34,,Mostly Cloudy,240,14-07-2016 20:55
3194,50,4:55 PM,78.8,73.4,83,29.82,10,Calm,Calm,-,0.34,,Clear,0,14-07-2016 21:00
3195,51,5:00 PM,80.6,73.4,79,29.8,10,WNW,4.6,-,,,Clear,300,14-07-2016 21:35
3196,52,5:35 PM,82.4,73.4,74,29.79,10,Calm,Calm,-,,,Clear,0,14-07-2016 21:55
3197,53,5:55 PM,84.2,73.4,70,29.8,10,Calm,Calm,-,,,Clear,0,14-07-2016 22:00
3198,54,6:00 PM,84.2,73.4,70,29.8,10,Calm,Calm,-,,,Clear,0,14-07-2016 22:35
3199,55,6:35 PM,86,73.4,66,29.8,10,Calm,Calm,-,,,Clear,0,14-07-2016 22:55
3200,56,6:55 PM,84.2,73.4,70,29.81,10,Calm,Calm,-,,,Clear,0,14-07-2016 23:00
3201,57,7:00 PM,82.4,75.2,79,29.81,9,Calm,Calm,-,,,Clear,0,14-07-2016 23:35
3202,58,7:35 PM,82.4,75.2,79,29.81,10,Calm,Calm,-,,,Clear,0,14-07-2016 23:55
3203,59,7:55 PM,82.4,73.4,74,29.81,10,Calm,Calm,-,,,Clear,0,15-07-2016 00:00
3204,60,8:00 PM,82.4,73.4,74,29.81,10,Calm,Calm,-,,,Clear,0,15-07-2016 00:35
3205,61,8:35 PM,82.4,73.4,74,29.81,10,Calm,Calm,-,,,Clear,0,15-07-2016 00:55
3206,62,8:55 PM,80.6,73.4,79,29.82,8,Calm,Calm,-,,,Clear,0,15-07-2016 01:00
3207,63,9:00 PM,80.6,73.4,79,29.83,9,Calm,Calm,-,,,Clear,0,15-07-2016 01:35
3208,64,9:35 PM,82.4,73.4,74,29.83,10,Calm,Calm,-,,,Clear,0,15-07-2016 01:55
3209,65,9:55 PM,82.4,73.4,74,29.84,10,Calm,Calm,-,,,Clear,0,15-07-2016 02:00
3210,66,10:00 PM,82.4,73.4,74,29.84,10,Calm,Calm,-,,,Clear,0,15-07-2016 02:35
3211,67,10:35 PM,84.2,71.6,66,29.84,10,Calm,Calm,-,,,Clear,0,15-07-2016 02:55
3212,68,10:55 PM,84.2,71.6,66,29.84,10,West,4.6,-,,,Clear,270,15-07-2016 03:00
3213,69,11:00 PM,82.4,71.6,70,29.84,10,West,4.6,-,,,Clear,280,15-07-2016 03:35
3214,70,11:35 PM,82.4,73.4,74,29.83,10,West,5.8,-,,,Clear,280,15-07-2016 03:55
3215,71,11:55 PM,82.4,73.4,74,29.83,10,West,3.5,-,,,Clear,260,15-07-2016 04:00
3216,0,12:00 AM,82.4,73.4,74,29.83,10,West,4.6,-,,,Clear,270,15-07-2016 04:35
3217,1,12:35 AM,82.4,73.4,74,29.83,10,West,4.6,-,,,Clear,270,15-07-2016 04:55
3218,2,12:55 AM,82.4,73.4,74,29.83,10,West,3.5,-,,,Clear,270,15-07-2016 05:00
3219,3,1:00 AM,82.4,73.4,74,29.83,10,SW,4.6,-,,,Clear,220,15-07-2016 05:35
3220,4,1:35 AM,82.4,73.4,74,29.83,10,West,4.6,-,,,Clear,260,15-07-2016 05:55
3221,5,1:55 AM,82.4,73.4,74,29.83,10,WNW,6.9,-,,,Clear,290,15-07-2016 06:00
3222,6,2:00 AM,82.4,73.4,74,29.83,10,West,5.8,-,,,Clear,280,15-07-2016 06:35
3223,7,2:35 AM,82.4,73.4,74,29.83,10,West,6.9,-,,,Clear,270,15-07-2016 06:55
3224,8,2:55 AM,82.4,73.4,74,29.83,10,WSW,3.5,-,,,Clear,250,15-07-2016 07:00
3225,9,3:00 AM,80.6,73.4,79,29.83,10,SSW,3.5,-,,,Clear,200,15-07-2016 07:35
3226,10,3:35 AM,80.6,73.4,79,29.83,10,SSW,4.6,-,,,Clear,210,15-07-2016 07:55
3227,11,3:55 AM,80.6,73.4,79,29.82,10,SSW,3.5,-,,,Clear,210,15-07-2016 08:00
3228,12,4:00 AM,80.6,73.4,79,29.83,10,West,4.6,-,,,Clear,270,15-07-2016 08:35
3229,13,4:35 AM,80.6,73.4,79,29.83,10,West,4.6,-,,,Clear,270,15-07-2016 08:55
3230,14,4:55 AM,80.6,73.4,79,29.84,10,Calm,Calm,-,,,Clear,0,15-07-2016 09:00
3231,15,5:00 AM,80.6,73.4,79,29.85,10,SW,3.5,-,,,Clear,220,15-07-2016 09:35
3232,16,5:35 AM,78.8,73.4,83,29.85,10,WSW,3.5,-,,,Clear,250,15-07-2016 09:55
3233,17,5:55 AM,78.8,73.4,83,29.85,10,West,3.5,-,,,Clear,260,15-07-2016 10:00
3234,18,6:00 AM,80.6,73.4,79,29.85,10,Calm,Calm,-,,,Clear,0,15-07-2016 10:35
3235,19,6:35 AM,78.8,73.4,83,29.86,10,WSW,3.5,-,,,Clear,240,15-07-2016 10:55
3236,20,6:55 AM,78.8,73.4,83,29.87,10,West,3.5,-,,,Clear,260,15-07-2016 11:00
3237,21,7:00 AM,78.8,73.4,83,29.87,10,West,4.6,-,,,Clear,280,15-07-2016 11:35
3238,22,7:35 AM,80.6,73.4,79,29.88,10,WSW,3.5,-,,,Clear,240,15-07-2016 11:55
3239,23,7:55 AM,80.6,73.4,79,29.88,10,SW,3.5,-,,,Clear,220,15-07-2016 12:00
3240,24,8:00 AM,80.6,73.4,79,29.89,10,SW,3.5,-,,,Clear,230,15-07-2016 12:35
3241,25,8:35 AM,80.6,73.4,79,29.89,10,WSW,3.5,-,,,Clear,240,15-07-2016 12:55
3242,26,8:55 AM,80.6,73.4,79,29.89,10,SSW,3.5,-,,,Clear,210,15-07-2016 13:00
3243,27,9:00 AM,82.4,71.6,70,29.89,10,WSW,3.5,-,,,Clear,240,15-07-2016 13:35
3244,28,9:35 AM,84.2,71.6,66,29.88,10,WSW,5.8,-,,,Clear,250,15-07-2016 13:55
3245,29,9:55 AM,84.2,71.6,66,29.88,9,SW,5.8,-,,,Clear,230,15-07-2016 14:00
3246,30,10:00 AM,86,71.6,62,29.88,10,WSW,4.6,-,,,Clear,240,15-07-2016 14:35
3247,31,10:35 AM,87.8,71.6,58,29.88,10,West,5.8,-,,,Clear,260,15-07-2016 14:55
3248,32,10:55 AM,87.8,69.8,55,29.88,10,West,5.8,-,,,Clear,270,15-07-2016 15:00
3249,33,11:00 AM,87.8,66.2,49,29.88,10,West,3.5,-,,,Clear,260,15-07-2016 15:35
3250,34,11:35 AM,87.8,68,52,29.88,10,Calm,Calm,-,,,Clear,0,15-07-2016 15:55
3251,35,11:55 AM,87.8,68,52,29.88,10,West,3.5,-,,,Clear,280,15-07-2016 16:00
3252,36,12:00 PM,87.8,69.8,55,29.88,10,West,5.8,-,,,Scattered Clouds,280,15-07-2016 16:35
3253,37,12:35 PM,87.8,69.8,55,29.88,9,West,4.6,-,,,Mostly Cloudy,270,15-07-2016 16:55
3254,38,12:55 PM,87.8,69.8,55,29.88,8,WSW,3.5,-,,,Partly Cloudy,240,15-07-2016 17:00
3255,39,1:00 PM,87.8,68,52,29.87,10,SW,3.5,-,,,Scattered Clouds,220,15-07-2016 17:35
3256,40,1:35 PM,91.4,68,46,29.87,10,WSW,4.6,-,,,Scattered Clouds,250,15-07-2016 17:55
3257,41,1:55 PM,91.4,69.8,49,29.87,10,West,5.8,-,,,Scattered Clouds,260,15-07-2016 18:00
3258,42,2:00 PM,89.6,69.8,52,29.87,10,WSW,6.9,-,,,Mostly Cloudy,250,15-07-2016 18:35
3259,43,2:35 PM,89.6,69.8,52,29.87,10,WSW,5.8,-,,,Scattered Clouds,250,15-07-2016 18:55
3260,44,2:55 PM,89.6,69.8,52,29.87,10,West,11.5,-,,,Scattered Clouds,260,15-07-2016 19:00
3261,45,3:00 PM,89.6,69.8,52,29.87,10,West,10.4,28.8,,,Partly Cloudy,270,15-07-2016 19:35
3262,46,3:35 PM,89.6,68,49,29.87,10,West,12.7,19.6,,,Clear,260,15-07-2016 19:55
3263,47,3:55 PM,89.6,66.2,46,29.86,10,West,9.2,39.1,,,Clear,260,15-07-2016 20:00
3264,48,4:00 PM,87.8,66.2,49,29.86,10,West,10.4,-,,,Clear,260,15-07-2016 20:35
3265,49,4:35 PM,87.8,68,52,29.86,10,West,12.7,40.3,,,Clear,270,15-07-2016 20:55
3266,50,4:55 PM,87.8,66.2,49,29.86,10,West,11.5,19.6,,,Partly Cloudy,270,15-07-2016 21:00
3267,51,5:00 PM,87.8,66.2,49,29.86,10,West,10.4,17.3,,,Clear,270,15-07-2016 21:35
3268,52,5:35 PM,89.6,66.2,46,29.85,10,West,10.4,-,,,Clear,260,15-07-2016 21:55
3269,53,5:55 PM,89.6,66.2,46,29.85,10,West,10.4,-,,,Clear,260,15-07-2016 22:00
3270,54,6:00 PM,87.8,64.4,46,29.85,10,West,10.4,16.1,,,Clear,270,15-07-2016 22:35
3271,55,6:35 PM,87.8,64.4,46,29.85,10,WSW,9.2,-,,,Clear,250,15-07-2016 22:55
3272,56,6:55 PM,86,64.4,48,29.85,10,West,10.4,-,,,Clear,260,15-07-2016 23:00
3273,57,7:00 PM,86,64.4,48,29.85,10,West,8.1,-,,,Clear,260,15-07-2016 23:35
3274,58,7:35 PM,86,66.2,51,29.86,10,West,8.1,-,,,Clear,260,15-07-2016 23:55
3275,59,7:55 PM,84.2,66.2,55,29.86,10,West,8.1,-,,,Clear,270,16-07-2016 00:00
3276,60,8:00 PM,84.2,66.2,55,29.86,10,West,8.1,-,,,Clear,270,16-07-2016 00:35
3277,61,8:35 PM,84.2,66.2,55,29.87,10,West,4.6,-,,,Clear,260,16-07-2016 00:55
3278,62,8:55 PM,84.2,66.2,55,29.88,10,West,8.1,-,,,Clear,280,16-07-2016 01:00
3279,63,9:00 PM,84.2,68,58,29.89,10,West,8.1,-,,,Clear,280,16-07-2016 01:35
3280,64,9:35 PM,84.2,68,58,29.89,10,West,9.2,-,,,Clear,280,16-07-2016 01:55
3281,65,9:55 PM,84.2,68,58,29.9,10,West,9.2,-,,,Clear,270,16-07-2016 02:00
3282,66,10:00 PM,84.2,69.8,62,29.91,10,West,10.4,-,,,Clear,270,16-07-2016 02:35
3283,67,10:35 PM,84.2,69.8,62,29.92,10,West,9.2,-,,,Clear,280,16-07-2016 02:55
3284,68,10:55 PM,82.4,69.8,66,29.92,10,West,11.5,-,,,Clear,280,16-07-2016 03:00
3285,69,11:00 PM,82.4,69.8,66,29.93,10,West,11.5,-,,,Clear,280,16-07-2016 03:35
3286,70,11:35 PM,82.4,69.8,66,29.93,10,West,10.4,-,,,Clear,280,16-07-2016 03:55
3287,71,11:55 PM,82.4,69.8,66,29.94,10,West,10.4,-,,,Clear,270,16-07-2016 04:00
3288,0,12:00 AM,82.4,69.8,66,29.94,10,West,8.1,-,,,Clear,270,16-07-2016 04:35
3289,1,12:35 AM,82.4,69.8,66,29.94,10,West,8.1,-,,,Clear,280,16-07-2016 04:55
3290,2,12:55 AM,82.4,69.8,66,29.94,10,West,6.9,-,,,Clear,260,16-07-2016 05:00
3291,3,1:00 AM,82.4,69.8,66,29.93,10,West,9.2,17.3,,,Clear,280,16-07-2016 05:35
3292,4,1:35 AM,82.4,69.8,66,29.93,10,West,10.4,-,,,Clear,270,16-07-2016 05:55
3293,5,1:55 AM,80.6,69.8,70,29.93,10,West,11.5,-,,,Clear,270,16-07-2016 06:00
3294,6,2:00 AM,80.6,69.8,70,29.94,10,West,10.4,18.4,,,Clear,270,16-07-2016 06:35
3295,7,2:35 AM,80.6,69.8,70,29.93,10,West,6.9,-,,,Clear,260,16-07-2016 06:55
3296,8,2:55 AM,80.6,69.8,70,29.93,10,West,4.6,-,,,Clear,260,16-07-2016 07:00
3297,9,3:00 AM,80.6,69.8,70,29.93,10,West,5.8,-,,,Clear,260,16-07-2016 07:35
3298,10,3:35 AM,78.8,69.8,74,29.93,10,West,4.6,-,,,Clear,260,16-07-2016 07:55
3299,11,3:55 AM,78.8,69.8,74,29.94,10,SW,4.6,-,,,Clear,230,16-07-2016 08:00
3300,12,4:00 AM,78.8,69.8,74,29.94,10,West,3.5,-,,,Clear,270,16-07-2016 08:35
3301,13,4:35 AM,78.8,69.8,74,29.94,10,Calm,Calm,-,,,Clear,0,16-07-2016 08:55
3302,14,4:55 AM,78.8,66.2,65,29.95,10,Calm,Calm,-,,,Clear,0,16-07-2016 09:00
3303,15,5:00 AM,78.8,66.2,65,29.96,10,Calm,Calm,-,,,Clear,0,16-07-2016 09:35
3304,16,5:35 AM,78.8,66.2,65,29.96,10,West,4.6,-,,,Clear,270,16-07-2016 09:55
3305,17,5:55 AM,78.8,64.4,61,29.97,10,Calm,Calm,-,,,Clear,0,16-07-2016 10:00
3306,18,6:00 AM,78.8,66.2,65,29.98,10,NNE,5.8,-,,,Clear,30,16-07-2016 10:35
3307,19,6:35 AM,78.8,66.2,65,29.98,10,SSE,3.5,-,,,Clear,150,16-07-2016 10:55
3308,20,6:55 AM,78.8,66.2,65,29.99,10,ENE,3.5,-,,,Clear,70,16-07-2016 11:00
3309,21,7:00 AM,78.8,66.2,65,30,10,Calm,Calm,-,,,Clear,0,16-07-2016 11:35
3310,22,7:35 AM,78.8,66.2,65,30.01,10,Calm,Calm,-,,,Clear,0,16-07-2016 11:55
3311,23,7:55 AM,78.8,66.2,65,30.01,10,Calm,Calm,-,,,Clear,0,16-07-2016 12:00
3312,24,8:00 AM,80.6,66.2,61,30.02,10,Calm,Calm,-,,,Clear,0,16-07-2016 12:35
3313,25,8:35 AM,80.6,66.2,61,30.02,10,ENE,5.8,-,,,Clear,70,16-07-2016 12:55
3314,26,8:55 AM,80.6,66.2,61,30.02,10,ENE,5.8,-,,,Clear,70,16-07-2016 13:00
3315,27,9:00 AM,82.4,64.4,54,30.02,10,NE,6.9,-,,,Clear,50,16-07-2016 13:35
3316,28,9:35 AM,84.2,66.2,55,30.02,10,ENE,5.8,-,,,Clear,70,16-07-2016 13:55
3317,29,9:55 AM,84.2,64.4,51,30.03,10,NE,6.9,-,,,Clear,50,16-07-2016 14:00
3318,30,10:00 AM,87.8,62.6,43,30.03,10,NE,8.1,-,,,Clear,50,16-07-2016 14:35
3319,31,10:35 AM,87.8,60.8,40,30.03,10,NE,6.9,-,,,Clear,50,16-07-2016 14:55
3320,32,10:55 AM,89.6,60.8,38,30.04,10,NE,4.6,-,,,Clear,50,16-07-2016 15:00
3321,33,11:00 AM,89.6,60.8,38,30.04,10,NNE,4.6,-,,,Clear,30,16-07-2016 15:35
3322,34,11:35 AM,89.6,60.8,38,30.03,10,NE,9.2,-,,,Clear,50,16-07-2016 15:55
3323,35,11:55 AM,91.4,60.8,36,30.03,10,WSW,3.5,-,,,Clear,240,16-07-2016 16:00
3324,36,12:00 PM,89.6,66.2,46,30.03,10,WSW,4.6,-,,,Clear,240,16-07-2016 16:35
3325,37,12:35 PM,87.8,69.8,55,30.03,10,West,8.1,38,,,Clear,270,16-07-2016 16:55
3326,38,12:55 PM,86,69.8,58,30.03,9,West,8.1,-,,,Clear,270,16-07-2016 17:00
3327,39,1:00 PM,87.8,68,52,30.04,10,SSE,5.8,-,,,Clear,160,16-07-2016 17:35
3328,40,1:35 PM,89.6,66.2,46,30.03,10,South,8.1,-,,,Clear,190,16-07-2016 17:55
3329,41,1:55 PM,89.6,66.2,46,30.03,10,WSW,4.6,-,,,Clear,250,16-07-2016 18:00
3330,42,2:00 PM,89.6,69.8,52,30.03,9,West,5.8,-,,,Clear,260,16-07-2016 18:35
3331,43,2:35 PM,89.6,68,49,30.02,10,WSW,3.5,-,,,Clear,240,16-07-2016 18:55
3332,44,2:55 PM,91.4,66.2,43,30.01,10,West,5.8,-,,,Clear,280,16-07-2016 19:00
3333,45,3:00 PM,91.4,64.4,41,30.01,9,Calm,Calm,-,,,Clear,0,16-07-2016 19:35
3334,46,3:35 PM,89.6,69.8,52,30,10,West,4.6,-,,,Clear,260,16-07-2016 19:55
3335,47,3:55 PM,82.4,71.6,70,30.03,5,SW,8.1,-,0.09,,Mostly Cloudy,230,16-07-2016 20:00
3336,48,4:00 PM,78.8,71.6,78,30.05,10,SSW,13.8,24.2,0.01,,Overcast,210,16-07-2016 20:35
3337,49,4:35 PM,77,71.6,83,30.04,10,WSW,8.1,-,0.03,,Overcast,240,16-07-2016 20:55
3338,50,4:55 PM,75.2,71.6,89,30.03,10,Calm,Calm,-,0.04,,Mostly Cloudy,0,16-07-2016 21:00
3339,51,5:00 PM,77,71.6,83,30.02,10,Calm,Calm,-,,,Partly Cloudy,0,16-07-2016 21:35
3340,52,5:35 PM,78.8,71.6,78,30.03,10,WSW,3.5,-,,,Scattered Clouds,240,16-07-2016 21:55
3341,53,5:55 PM,78.8,69.8,74,30.04,10,SSW,10.4,19.6,,,Clear,210,16-07-2016 22:00
3342,54,6:00 PM,77,69.8,78,30.04,10,SW,8.1,-,,,Clear,230,16-07-2016 22:35
3343,55,6:35 PM,75.2,69.8,83,30.04,10,West,4.6,-,,,Clear,270,16-07-2016 22:55
3344,56,6:55 PM,77,69.8,78,30.04,10,West,6.9,-,,,Clear,280,16-07-2016 23:00
3345,57,7:00 PM,77,68,74,30.04,10,West,6.9,-,,,Clear,280,16-07-2016 23:35
3346,58,7:35 PM,77,68,74,30.04,10,West,4.6,-,,,Clear,270,16-07-2016 23:55
3347,59,7:55 PM,77,68,74,30.04,10,West,6.9,-,,,Clear,280,17-07-2016 00:00
3348,60,8:00 PM,77,68,74,30.04,10,West,3.5,-,,Thunderstorm,Clear,260,17-07-2016 00:35
3349,61,8:35 PM,77,68,74,30.04,10,WSW,3.5,-,,Thunderstorm,Thunderstorm,240,17-07-2016 00:55
3350,62,8:55 PM,77,66.2,69,30.05,10,West,5.8,-,,Thunderstorm,Clear,280,17-07-2016 01:00
3351,63,9:00 PM,77,66.2,69,30.05,10,West,5.8,-,,,Clear,260,17-07-2016 01:35
3352,64,9:35 PM,77,66.2,69,30.06,10,West,5.8,-,,,Clear,280,17-07-2016 01:55
3353,65,9:55 PM,77,66.2,69,30.06,10,West,4.6,-,,,Clear,260,17-07-2016 02:00
3354,66,10:00 PM,77,66.2,69,30.06,10,West,4.6,-,,,Clear,260,17-07-2016 02:35
3355,67,10:35 PM,77,68,74,30.06,10,SW,3.5,-,,,Clear,230,17-07-2016 02:55
3356,68,10:55 PM,77,68,74,30.06,10,WSW,3.5,-,,,Clear,240,17-07-2016 03:00
3357,69,11:00 PM,77,66.2,69,30.06,10,Calm,Calm,-,,,Clear,0,17-07-2016 03:35
3358,70,11:35 PM,77,66.2,69,30.07,10,WSW,4.6,-,,,Clear,250,17-07-2016 03:55
3359,71,11:55 PM,77,68,74,30.07,10,SW,4.6,-,,,Clear,220,17-07-2016 04:00
3360,0,12:00 AM,75.2,66.2,73,30.07,10,WSW,3.5,-,,,Clear,240,17-07-2016 04:35
3361,1,12:35 AM,75.2,68,78,30.07,10,SW,3.5,-,,,Clear,230,17-07-2016 04:55
3362,2,12:55 AM,75.2,68,78,30.06,10,West,3.5,-,,,Clear,280,17-07-2016 05:00
3363,3,1:00 AM,77,66.2,69,30.05,10,Calm,Calm,-,,,Clear,0,17-07-2016 05:35
3364,4,1:35 AM,77,66.2,69,30.05,10,North,3.5,-,,,Clear,360,17-07-2016 05:55
3365,5,1:55 AM,77,66.2,69,30.05,10,Calm,Calm,-,,,Clear,0,17-07-2016 06:00
3366,6,2:00 AM,77,66.2,69,30.04,10,Calm,Calm,-,,,Clear,0,17-07-2016 06:35
3367,7,2:35 AM,75.2,69.8,83,30.05,10,SSW,4.6,-,,,Clear,210,17-07-2016 06:55
3368,8,2:55 AM,75.2,66.2,73,30.05,10,Calm,Calm,-,,,Clear,0,17-07-2016 07:00
3369,9,3:00 AM,75.2,66.2,73,30.05,10,Calm,Calm,-,,,Clear,0,17-07-2016 07:35
3370,10,3:35 AM,75.2,68,78,30.06,10,Calm,Calm,-,,,Clear,0,17-07-2016 07:55
3371,11,3:55 AM,75.2,68,78,30.06,10,Calm,Calm,-,,,Clear,0,17-07-2016 08:00
3372,12,4:00 AM,75.2,68,78,30.06,10,West,3.5,-,,,Mostly Cloudy,260,17-07-2016 08:35
3373,13,4:35 AM,75.2,68,78,30.06,10,Calm,Calm,-,,,Scattered Clouds,0,17-07-2016 08:55
3374,14,4:55 AM,75.2,68,78,30.07,10,Calm,Calm,-,,,Scattered Clouds,0,17-07-2016 09:00
3375,15,5:00 AM,75.2,69.8,83,30.07,10,WSW,3.5,-,,,Mostly Cloudy,240,17-07-2016 09:35
3376,16,5:35 AM,75.2,69.8,83,30.08,10,SW,4.6,-,,,Mostly Cloudy,220,17-07-2016 09:55
3377,17,5:55 AM,75.2,69.8,83,30.09,10,SW,4.6,-,,,Mostly Cloudy,230,17-07-2016 10:00
3378,18,6:00 AM,75.2,69.8,83,30.09,10,West,3.5,-,,,Mostly Cloudy,260,17-07-2016 10:35
3379,19,6:35 AM,75.2,69.8,83,30.09,10,WSW,3.5,-,,,Scattered Clouds,240,17-07-2016 10:55
3380,20,6:55 AM,75.2,69.8,83,30.09,10,SSW,5.8,-,,,Scattered Clouds,210,17-07-2016 11:00
3381,21,7:00 AM,75.2,69.8,83,30.09,10,SW,4.6,-,,,Partly Cloudy,230,17-07-2016 11:35
3382,22,7:35 AM,75.2,69.8,83,30.1,10,WSW,4.6,-,,,Clear,250,17-07-2016 11:55
3383,23,7:55 AM,75.2,69.8,83,30.1,10,WSW,5.8,-,,,Clear,250,17-07-2016 12:00
3384,24,8:00 AM,75.2,69.8,83,30.1,10,SSW,4.6,-,,,Clear,210,17-07-2016 12:35
3385,25,8:35 AM,75.2,69.8,83,30.1,10,SW,3.5,-,,,Clear,230,17-07-2016 12:55
3386,26,8:55 AM,75.2,69.8,83,30.11,10,WSW,4.6,-,,,Clear,240,17-07-2016 13:00
3387,27,9:00 AM,75.2,69.8,83,30.11,10,SW,4.6,-,,,Clear,230,17-07-2016 13:35
3388,28,9:35 AM,78.8,69.8,74,30.1,10,SSW,3.5,-,,,Clear,210,17-07-2016 13:55
3389,29,9:55 AM,78.8,69.8,74,30.1,10,SW,3.5,-,,,Clear,220,17-07-2016 14:00
3390,30,10:00 AM,80.6,69.8,70,30.11,10,SW,3.5,-,,,Clear,220,17-07-2016 14:35
3391,31,10:35 AM,82.4,69.8,66,30.11,10,SW,5.8,-,,,Clear,220,17-07-2016 14:55
3392,32,10:55 AM,82.4,69.8,66,30.12,10,SW,5.8,-,,,Clear,230,17-07-2016 15:00
3393,33,11:00 AM,84.2,69.8,62,30.12,10,SSW,3.5,-,,,Clear,200,17-07-2016 15:35
3394,34,11:35 AM,87.8,69.8,55,30.11,10,SSW,4.6,-,,,Clear,200,17-07-2016 15:55
3395,35,11:55 AM,87.8,69.8,55,30.11,10,SSW,3.5,-,,,Clear,210,17-07-2016 16:00
3396,36,12:00 PM,87.8,69.8,55,30.11,10,Calm,Calm,-,,,Clear,0,17-07-2016 16:35
3397,37,12:35 PM,89.6,69.8,52,30.11,10,Calm,Calm,-,,,Clear,0,17-07-2016 16:55
3398,38,12:55 PM,87.8,69.8,55,30.11,10,SW,3.5,-,,,Clear,230,17-07-2016 17:00
3399,39,1:00 PM,89.6,69.8,52,30.1,10,West,3.5,-,,,Clear,270,17-07-2016 17:35
3400,40,1:35 PM,89.6,69.8,52,30.08,10,West,3.5,-,,,Clear,260,17-07-2016 17:55
3401,41,1:55 PM,89.6,69.8,52,30.08,10,SW,3.5,-,,,Clear,220,17-07-2016 18:00
3402,42,2:00 PM,89.6,68,49,30.08,10,SW,5.8,-,,,Clear,230,17-07-2016 18:35
3403,43,2:35 PM,89.6,68,49,30.08,10,SW,6.9,-,,,Clear,220,17-07-2016 18:55
3404,44,2:55 PM,89.6,68,49,30.08,10,SW,5.8,-,,,Partly Cloudy,230,17-07-2016 19:00
3405,45,3:00 PM,87.8,69.8,55,30.07,10,SSW,6.9,-,,,Mostly Cloudy,210,17-07-2016 19:35
3406,46,3:35 PM,87.8,69.8,55,30.08,10,SSW,4.6,-,,,Scattered Clouds,210,17-07-2016 19:55
3407,47,3:55 PM,89.6,69.8,52,30.08,10,SSW,5.8,-,,,Clear,200,17-07-2016 20:00
3408,48,4:00 PM,89.6,69.8,52,30.07,10,SSW,8.1,-,,,Clear,210,17-07-2016 20:35
3409,49,4:35 PM,91.4,66.2,43,30.07,10,SW,5.8,-,,,Clear,230,17-07-2016 20:55
3410,50,4:55 PM,89.6,66.2,46,30.07,10,SW,6.9,-,,,Scattered Clouds,230,17-07-2016 21:00
3411,51,5:00 PM,89.6,69.8,52,30.06,10,SSW,6.9,-,,,Scattered Clouds,210,17-07-2016 21:35
3412,52,5:35 PM,87.8,69.8,55,30.07,10,West,3.5,-,,,Partly Cloudy,280,17-07-2016 21:55
3413,53,5:55 PM,87.8,66.2,49,30.07,10,WSW,5.8,-,,,Mostly Cloudy,250,17-07-2016 22:00
3414,54,6:00 PM,87.8,66.2,49,30.07,10,West,10.4,-,,,Mostly Cloudy,260,17-07-2016 22:35
3415,55,6:35 PM,89.6,64.4,43,30.07,10,West,9.2,-,,,Scattered Clouds,260,17-07-2016 22:55
3416,56,6:55 PM,87.8,64.4,46,30.07,10,WSW,8.1,-,,,Partly Cloudy,250,17-07-2016 23:00
3417,57,7:00 PM,87.8,64.4,46,30.08,10,West,9.2,-,,,Clear,270,17-07-2016 23:35
3418,58,7:35 PM,86,66.2,51,30.08,10,West,8.1,-,,,Clear,270,17-07-2016 23:55
3419,59,7:55 PM,87.8,64.4,46,30.08,10,Calm,Calm,-,,,Clear,0,18-07-2016 00:00
3420,60,8:00 PM,86,62.6,45,30.08,10,Calm,Calm,-,,,Clear,0,18-07-2016 00:35
3421,61,8:35 PM,86,62.6,45,30.09,10,Calm,Calm,-,,,Clear,0,18-07-2016 00:55
3422,62,8:55 PM,86,62.6,45,30.09,10,Calm,Calm,-,,,Clear,0,18-07-2016 01:00
3423,63,9:00 PM,84.2,64.4,51,30.1,10,Calm,Calm,-,,,Clear,0,18-07-2016 01:35
3424,64,9:35 PM,84.2,62.6,48,30.11,10,Calm,Calm,-,,,Clear,0,18-07-2016 01:55
3425,65,9:55 PM,84.2,62.6,48,30.11,10,Calm,Calm,-,,,Clear,0,18-07-2016 02:00
3426,66,10:00 PM,84.2,62.6,48,30.11,10,Calm,Calm,-,,,Clear,0,18-07-2016 02:35
3427,67,10:35 PM,82.4,66.2,58,30.11,10,Calm,Calm,-,,,Clear,0,18-07-2016 02:55
3428,68,10:55 PM,82.4,62.6,51,30.11,10,Calm,Calm,-,,,Clear,0,18-07-2016 03:00
3429,69,11:00 PM,82.4,64.4,54,30.11,10,Calm,Calm,-,,,Clear,0,18-07-2016 03:35
3430,70,11:35 PM,80.6,64.4,58,30.11,10,West,3.5,-,,,Clear,270,18-07-2016 03:55
3431,71,11:55 PM,80.6,64.4,58,30.11,10,Calm,Calm,-,,,Clear,0,18-07-2016 04:00
3432,0,12:00 AM,80.6,64.4,58,30.11,10,West,3.5,-,,,Clear,280,18-07-2016 04:35
3433,1,12:35 AM,80.6,64.4,58,30.11,10,West,4.6,-,,,Clear,280,18-07-2016 04:55
3434,2,12:55 AM,80.6,64.4,58,30.11,10,West,3.5,-,,,Clear,260,18-07-2016 05:00
3435,3,1:00 AM,80.6,64.4,58,30.11,10,West,6.9,-,,,Clear,270,18-07-2016 05:35
3436,4,1:35 AM,80.6,64.4,58,30.11,10,WSW,4.6,-,,,Clear,240,18-07-2016 05:55
3437,5,1:55 AM,80.6,64.4,58,30.11,10,West,5.8,-,,,Clear,260,18-07-2016 06:00
3438,6,2:00 AM,80.6,66.2,61,30.11,10,West,8.1,-,,,Clear,280,18-07-2016 06:35
3439,7,2:35 AM,80.6,66.2,61,30.11,10,West,6.9,-,,,Clear,270,18-07-2016 06:55
3440,8,2:55 AM,80.6,66.2,61,30.11,10,West,5.8,-,,,Clear,270,18-07-2016 07:00
3441,9,3:00 AM,78.8,66.2,65,30.11,10,West,5.8,-,,,Clear,270,18-07-2016 07:35
3442,10,3:35 AM,78.8,66.2,65,30.1,10,West,8.1,-,,,Clear,280,18-07-2016 07:55
3443,11,3:55 AM,78.8,66.2,65,30.1,10,West,5.8,-,,,Clear,270,18-07-2016 08:00
3444,12,4:00 AM,78.8,69.8,74,30.11,10,West,6.9,-,,,Clear,280,18-07-2016 08:35
3445,13,4:35 AM,78.8,68,69,30.1,10,West,6.9,-,,,Clear,280,18-07-2016 08:55
3446,14,4:55 AM,78.8,69.8,74,30.1,10,West,5.8,-,,,Clear,270,18-07-2016 09:00
3447,15,5:00 AM,78.8,69.8,74,30.1,10,West,4.6,-,,,Clear,280,18-07-2016 09:35
3448,16,5:35 AM,77,69.8,78,30.1,10,West,3.5,-,,,Clear,260,18-07-2016 09:55
3449,17,5:55 AM,77,69.8,78,30.11,10,WSW,3.5,-,,,Clear,250,18-07-2016 10:00
3450,18,6:00 AM,77,69.8,78,30.11,10,WSW,4.6,-,,,Clear,240,18-07-2016 10:35
3451,19,6:35 AM,77,69.8,78,30.1,10,West,5.8,-,,,Clear,280,18-07-2016 10:55
3452,20,6:55 AM,77,69.8,78,30.11,10,West,4.6,-,,,Clear,260,18-07-2016 11:00
3453,21,7:00 AM,77,69.8,78,30.11,10,West,3.5,-,,,Clear,260,18-07-2016 11:35
3454,22,7:35 AM,77,69.8,78,30.11,10,WSW,5.8,-,,,Clear,250,18-07-2016 11:55
3455,23,7:55 AM,77,69.8,78,30.11,10,West,4.6,-,,,Clear,260,18-07-2016 12:00
3456,24,8:00 AM,77,71.6,83,30.11,10,West,4.6,-,,,Clear,260,18-07-2016 12:35
3457,25,8:35 AM,78.8,71.6,78,30.1,10,West,5.8,-,,,Clear,260,18-07-2016 12:55
3458,26,8:55 AM,78.8,71.6,78,30.1,10,WSW,4.6,-,,,Clear,250,18-07-2016 13:00
3459,27,9:00 AM,80.6,71.6,74,30.1,9,West,5.8,-,,,Clear,260,18-07-2016 13:35
3460,28,9:35 AM,82.4,71.6,70,30.1,8,WSW,3.5,-,,,Clear,250,18-07-2016 13:55
3461,29,9:55 AM,82.4,71.6,70,30.09,9,WSW,4.6,-,,,Clear,240,18-07-2016 14:00
3462,30,10:00 AM,84.2,69.8,62,30.08,10,West,4.6,-,,,Clear,260,18-07-2016 14:35
3463,31,10:35 AM,87.8,69.8,55,30.08,10,West,6.9,-,,,Clear,260,18-07-2016 14:55
3464,32,10:55 AM,87.8,69.8,55,30.09,10,West,6.9,-,,,Clear,270,18-07-2016 15:00
3465,33,11:00 AM,89.6,68,49,30.09,10,West,8.1,-,,,Clear,260,18-07-2016 15:35
3466,34,11:35 AM,89.6,68,49,30.09,10,WSW,9.2,-,,,Partly Cloudy,250,18-07-2016 15:55
3467,35,11:55 AM,91.4,66.2,43,30.08,10,West,9.2,19.6,,,Partly Cloudy,270,18-07-2016 16:00
3468,36,12:00 PM,91.4,66.2,43,30.07,10,West,6.9,19.6,,,Partly Cloudy,260,18-07-2016 16:35
3469,37,12:35 PM,91.4,66.2,43,30.07,10,West,8.1,-,,,Clear,260,18-07-2016 16:55
3470,38,12:55 PM,91.4,66.2,43,30.06,10,West,9.2,24.2,,,Scattered Clouds,270,18-07-2016 17:00
3471,39,1:00 PM,93.2,66.2,41,30.05,10,WSW,8.1,-,,,Partly Cloudy,250,18-07-2016 17:35
3472,40,1:35 PM,91.4,66.2,43,30.04,10,SW,8.1,-,,,Scattered Clouds,220,18-07-2016 17:55
3473,41,1:55 PM,93.2,66.2,41,30.03,10,SW,8.1,-,,,Mostly Cloudy,220,18-07-2016 18:00
3474,42,2:00 PM,91.4,66.2,43,30.03,10,WSW,9.2,47.2,,,Mostly Cloudy,240,18-07-2016 18:35
3475,43,2:35 PM,91.4,66.2,43,30.02,10,SW,11.5,24.2,,,Mostly Cloudy,230,18-07-2016 18:55
3476,44,2:55 PM,91.4,66.2,43,30.01,10,West,10.4,19.6,,,Scattered Clouds,270,18-07-2016 19:00
3477,45,3:00 PM,89.6,68,49,30.01,9,West,9.2,-,,,Scattered Clouds,260,18-07-2016 19:35
3478,46,3:35 PM,89.6,68,49,30.01,10,West,10.4,21.9,,,Mostly Cloudy,280,18-07-2016 19:55
3479,47,3:55 PM,89.6,66.2,46,30,10,West,9.2,16.1,,,Scattered Clouds,270,18-07-2016 20:00
3480,48,4:00 PM,89.6,66.2,46,29.99,10,West,15,21.9,,Thunderstorm,Thunderstorm,270,18-07-2016 20:35
3481,49,4:35 PM,89.6,64.4,43,29.99,10,West,9.2,20.7,,Thunderstorm,Thunderstorm,270,18-07-2016 20:55
3482,50,4:55 PM,82.4,71.6,70,30.05,2,West,32.2,49.5,0.12,Thunderstorm,Mostly Cloudy,270,18-07-2016 21:00
3483,51,5:00 PM,75.2,69.8,83,30.03,9,West,15,21.9,0.18,,Mostly Cloudy,280,18-07-2016 21:35
3484,52,5:35 PM,77,69.8,78,30.01,10,West,8.1,-,0.19,,Overcast,280,18-07-2016 21:55
3485,53,5:55 PM,77,69.8,78,30,7,SW,5.8,-,0.19,,Scattered Clouds,230,18-07-2016 22:00
3486,54,6:00 PM,80.6,69.8,70,30,8,Calm,Calm,-,,,Clear,0,18-07-2016 22:35
3487,55,6:35 PM,80.6,69.8,70,30.01,10,West,5.8,-,0.01,,Clear,270,18-07-2016 22:55
3488,56,6:55 PM,78.8,71.6,78,30,10,West,5.8,-,0.01,,Partly Cloudy,260,18-07-2016 23:00
3489,57,7:00 PM,78.8,69.8,74,30.01,10,West,6.9,-,,,Mostly Cloudy,260,18-07-2016 23:35
3490,58,7:35 PM,78.8,69.8,74,30.01,10,WSW,8.1,-,,,Mostly Cloudy,240,18-07-2016 23:55
3491,59,7:55 PM,78.8,69.8,74,30.01,10,West,6.9,-,,,Scattered Clouds,260,19-07-2016 00:00
3492,60,8:00 PM,78.8,69.8,74,30.01,10,West,10.4,20.7,,,Scattered Clouds,280,19-07-2016 00:35
3493,61,8:35 PM,78.8,71.6,78,30,10,West,5.8,-,,,Mostly Cloudy,270,19-07-2016 00:55
3494,62,8:55 PM,78.8,71.6,78,30,10,West,5.8,-,,,Scattered Clouds,280,19-07-2016 01:00
3495,63,9:00 PM,78.8,71.6,78,30,10,West,4.6,-,,,Partly Cloudy,270,19-07-2016 01:35
3496,64,9:35 PM,78.8,71.6,78,30.01,10,West,4.6,-,,,Clear,270,19-07-2016 01:55
3497,65,9:55 PM,78.8,71.6,78,30.02,10,West,6.9,-,,,Clear,270,19-07-2016 02:00
3498,66,10:00 PM,78.8,71.6,78,30.03,10,West,4.6,-,,,Clear,260,19-07-2016 02:35
3499,67,10:35 PM,78.8,71.6,78,30.04,10,West,6.9,-,,,Clear,260,19-07-2016 02:55
3500,68,10:55 PM,78.8,73.4,83,30.03,10,West,8.1,-,,,Partly Cloudy,260,19-07-2016 03:00
3501,69,11:00 PM,77,71.6,83,30.02,10,WSW,8.1,-,,,Partly Cloudy,250,19-07-2016 03:35
3502,70,11:35 PM,77,71.6,83,30.02,10,West,8.1,-,,,Clear,270,19-07-2016 03:55
3503,71,11:55 PM,77,71.6,83,30.02,10,West,8.1,-,,,Clear,260,19-07-2016 04:00
3504,0,12:00 AM,75.2,71.6,89,30.02,10,West,3.5,-,,,Clear,260,19-07-2016 04:35
3505,1,12:35 AM,75.2,71.6,89,30.01,10,West,5.8,-,,,Clear,260,19-07-2016 04:55
3506,2,12:55 AM,75.2,71.6,89,30.01,10,West,4.6,-,,,Clear,260,19-07-2016 05:00
3507,3,1:00 AM,75.2,71.6,89,30.01,10,West,5.8,-,,,Partly Cloudy,260,19-07-2016 05:35
3508,4,1:35 AM,75.2,73.4,94,30.01,10,WSW,4.6,-,,,Partly Cloudy,240,19-07-2016 05:55
3509,5,1:55 AM,75.2,71.6,89,30,10,WSW,4.6,-,,,Partly Cloudy,250,19-07-2016 06:00
3510,6,2:00 AM,75.2,71.6,89,30.01,10,WSW,4.6,-,,,Clear,250,19-07-2016 06:35
3511,7,2:35 AM,75.2,71.6,89,30.02,10,West,5.8,-,,,Scattered Clouds,270,19-07-2016 06:55
3512,8,2:55 AM,75.2,71.6,89,30.02,10,WSW,4.6,-,,,Mostly Cloudy,250,19-07-2016 07:00
3513,9,3:00 AM,75.2,71.6,89,30.02,10,WSW,3.5,-,,,Mostly Cloudy,240,19-07-2016 07:35
3514,10,3:35 AM,75.2,71.6,89,30.02,10,WSW,3.5,-,,,Partly Cloudy,240,19-07-2016 07:55
3515,11,3:55 AM,77,69.8,78,30.03,10,Calm,Calm,-,,,Partly Cloudy,0,19-07-2016 08:00
3516,12,4:00 AM,77,69.8,78,30.03,10,Calm,Calm,-,,,Mostly Cloudy,0,19-07-2016 08:35
3517,13,4:35 AM,77,68,74,30.04,10,ENE,3.5,-,,,Overcast,70,19-07-2016 08:55
3518,14,4:55 AM,77,66.2,69,30.05,10,South,4.6,-,,,Scattered Clouds,180,19-07-2016 09:00
3519,15,5:00 AM,75.2,64.4,69,30.05,10,South,3.5,-,,,Clear,180,19-07-2016 09:35
3520,16,5:35 AM,75.2,62.6,65,30.06,10,South,3.5,-,,,Clear,170,19-07-2016 09:55
3521,17,5:55 AM,75.2,62.6,65,30.06,10,East,3.5,-,,,Clear,90,19-07-2016 10:00
3522,18,6:00 AM,75.2,60.8,61,30.06,10,Calm,Calm,-,,,Clear,0,19-07-2016 10:35
3523,19,6:35 AM,75.2,60.8,61,30.07,10,South,3.5,-,,,Clear,180,19-07-2016 10:55
3524,20,6:55 AM,75.2,60.8,61,30.07,10,West,3.5,-,,,Clear,280,19-07-2016 11:00
3525,21,7:00 AM,75.2,60.8,61,30.08,10,Calm,Calm,-,,,Clear,0,19-07-2016 11:35
3526,22,7:35 AM,75.2,60.8,61,30.09,10,Calm,Calm,-,,,Clear,0,19-07-2016 11:55
3527,23,7:55 AM,77,59,54,30.09,10,Calm,Calm,-,,,Clear,0,19-07-2016 12:00
3528,24,8:00 AM,75.2,59,57,30.1,10,Calm,Calm,-,,,Clear,0,19-07-2016 12:35
3529,25,8:35 AM,75.2,59,57,30.1,10,Calm,Calm,-,,,Clear,0,19-07-2016 13:00
3530,26,9:00 AM,78.8,60.8,54,30.11,10,NNW,3.5,-,,,Clear,330,19-07-2016 13:35
3531,27,9:35 AM,80.6,57.2,45,30.11,8,Calm,Calm,-,,,Clear,0,19-07-2016 13:55
3532,28,9:55 AM,80.6,57.2,45,30.11,10,West,3.5,-,,,Clear,260,19-07-2016 14:00
3533,29,10:00 AM,82.4,55.4,39,30.11,10,West,3.5,-,,,Clear,280,19-07-2016 14:35
3534,30,10:35 AM,82.4,55.4,39,30.11,9,WNW,5.8,-,,,Clear,300,19-07-2016 14:55
3535,31,10:55 AM,82.4,55.4,39,30.11,10,NW,3.5,-,,,Clear,310,19-07-2016 15:00
3536,32,11:00 AM,82.4,55.4,39,30.11,10,West,10.4,-,,,Clear,280,19-07-2016 15:35
3537,33,11:35 AM,84.2,53.6,35,30.12,10,West,4.6,-,,,Clear,270,19-07-2016 15:55
3538,34,11:55 AM,84.2,55.4,37,30.12,10,NNW,5.8,-,,,Clear,330,19-07-2016 16:00
3539,35,12:00 PM,84.2,53.6,35,30.11,10,Calm,Calm,-,,,Clear,0,19-07-2016 16:35
3540,36,12:35 PM,84.2,51.8,33,30.11,10,West,5.8,-,,,Clear,260,19-07-2016 16:55
3541,37,12:55 PM,84.2,53.6,35,30.11,10,WNW,4.6,-,,,Clear,300,19-07-2016 17:00
3542,38,1:00 PM,84.2,51.8,33,30.11,10,West,3.5,-,,,Clear,270,19-07-2016 17:35
3543,39,1:35 PM,84.2,51.8,33,30.11,10,West,3.5,-,,,Clear,280,19-07-2016 17:55
3544,40,1:55 PM,86,51.8,31,30.1,10,WNW,3.5,-,,,Clear,290,19-07-2016 18:00
3545,41,2:00 PM,84.2,51.8,33,30.1,10,WSW,8.1,-,,,Partly Cloudy,240,19-07-2016 18:35
3546,42,2:35 PM,84.2,51.8,33,30.1,10,WNW,5.8,-,,,Partly Cloudy,290,19-07-2016 18:55
3547,43,2:55 PM,86,50,29,30.09,10,WSW,10.4,-,,,Scattered Clouds,250,19-07-2016 19:00
3548,44,3:00 PM,87.8,51.8,29,30.09,10,NNW,6.9,-,,,Scattered Clouds,340,19-07-2016 19:35
3549,45,3:35 PM,86,51.8,31,30.09,10,SSW,4.6,-,,,Scattered Clouds,210,19-07-2016 19:55
3550,46,3:55 PM,84.2,51.8,33,30.09,10,West,3.5,-,,,Scattered Clouds,270,19-07-2016 20:00
3551,47,4:00 PM,86,51.8,31,30.09,10,NNW,4.6,-,,,Partly Cloudy,340,19-07-2016 20:35
3552,48,4:35 PM,86,51.8,31,30.09,10,SW,3.5,-,,,Partly Cloudy,220,19-07-2016 20:55
3553,49,4:55 PM,87.8,51.8,29,30.09,10,West,5.8,-,,,Clear,260,19-07-2016 21:00
3554,50,5:00 PM,87.8,50,27,30.09,10,South,5.8,-,,,Scattered Clouds,180,19-07-2016 21:35
3555,51,5:35 PM,87.8,51.8,29,30.09,10,NNE,5.8,-,,,Mostly Cloudy,20,19-07-2016 21:55
3556,52,5:55 PM,84.2,51.8,33,30.08,10,North,4.6,39.1,,,Scattered Clouds,10,19-07-2016 22:00
3557,53,6:00 PM,84.2,51.8,33,30.08,10,Calm,Calm,-,,,Partly Cloudy,0,19-07-2016 22:35
3558,54,6:35 PM,84.2,51.8,33,30.08,10,West,5.8,-,,,Clear,260,19-07-2016 22:55
3559,55,6:55 PM,82.4,53.6,37,30.08,10,SE,3.5,-,,,Mostly Cloudy,130,19-07-2016 23:00
3560,56,7:00 PM,82.4,53.6,37,30.09,10,ESE,5.8,-,,,Mostly Cloudy,120,19-07-2016 23:35
3561,57,7:35 PM,82.4,51.8,35,30.1,10,SSW,4.6,-,,,Partly Cloudy,200,19-07-2016 23:55
3562,58,7:55 PM,82.4,51.8,35,30.11,10,Calm,Calm,-,,,Mostly Cloudy,0,20-07-2016 00:00
3563,59,8:00 PM,82.4,50,32,30.11,10,SSW,3.5,-,,,Overcast,200,20-07-2016 00:35
3564,60,8:35 PM,80.6,55.4,42,30.12,10,SSW,3.5,-,,,Mostly Cloudy,210,20-07-2016 00:55
3565,61,8:55 PM,80.6,53.6,39,30.13,10,South,3.5,-,,,Overcast,190,20-07-2016 01:00
3566,62,9:00 PM,80.6,53.6,39,30.14,10,SW,3.5,-,,,Overcast,220,20-07-2016 01:35
3567,63,9:35 PM,80.6,53.6,39,30.14,10,NNE,5.8,-,,,Overcast,30,20-07-2016 01:55
3568,64,9:55 PM,80.6,51.8,37,30.15,10,NNE,4.6,-,,,Overcast,30,20-07-2016 02:00
3569,65,10:00 PM,80.6,53.6,39,30.15,8,NE,8.1,-,,,Overcast,50,20-07-2016 02:35
3570,66,10:35 PM,78.8,53.6,42,30.16,10,Calm,Calm,-,,,Overcast,0,20-07-2016 02:55
3571,67,10:55 PM,78.8,51.8,39,30.16,10,WSW,3.5,-,,,Mostly Cloudy,240,20-07-2016 03:00
3572,68,11:00 PM,78.8,51.8,39,30.17,10,Calm,Calm,-,,,Mostly Cloudy,0,20-07-2016 03:35
3573,69,11:35 PM,78.8,55.4,44,30.16,10,East,3.5,-,,,Mostly Cloudy,80,20-07-2016 03:55
3574,70,11:55 PM,78.8,53.6,42,30.17,10,NE,4.6,-,,,Mostly Cloudy,50,20-07-2016 04:00
3575,0,12:00 AM,78.8,53.6,42,30.17,10,ENE,3.5,-,,,Overcast,70,20-07-2016 04:35
3576,1,12:35 AM,77,53.6,44,30.17,10,Calm,Calm,-,,,Mostly Cloudy,0,20-07-2016 04:55
3577,2,12:55 AM,77,53.6,44,30.17,10,Calm,Calm,-,,,Mostly Cloudy,0,20-07-2016 05:00
3578,3,1:00 AM,77,53.6,44,30.17,10,Calm,Calm,-,,,Mostly Cloudy,0,20-07-2016 05:35
3579,4,1:35 AM,75.2,53.6,47,30.17,10,Calm,Calm,-,,,Mostly Cloudy,0,20-07-2016 05:55
3580,5,1:55 AM,75.2,53.6,47,30.18,10,Calm,Calm,-,,,Mostly Cloudy,0,20-07-2016 06:00
3581,6,2:00 AM,75.2,55.4,50,30.19,10,Calm,Calm,-,,,Mostly Cloudy,0,20-07-2016 06:35
3582,7,2:35 AM,75.2,55.4,50,30.19,10,Calm,Calm,-,,,Mostly Cloudy,0,20-07-2016 06:55
3583,8,2:55 AM,75.2,55.4,50,30.18,10,East,5.8,-,,,Mostly Cloudy,90,20-07-2016 07:00
3584,9,3:00 AM,75.2,53.6,47,30.18,10,NE,9.2,-,,,Scattered Clouds,50,20-07-2016 07:35
3585,10,3:35 AM,75.2,53.6,47,30.18,10,NE,8.1,-,,,Scattered Clouds,50,20-07-2016 07:55
3586,11,3:55 AM,75.2,53.6,47,30.18,10,ENE,6.9,-,,,Mostly Cloudy,70,20-07-2016 08:35
3587,12,4:35 AM,73.4,51.8,47,30.17,10,NE,10.4,-,,,Partly Cloudy,40,20-07-2016 08:55
3588,13,4:55 AM,73.4,53.6,50,30.18,10,East,8.1,-,,,Clear,80,20-07-2016 09:00
3589,14,5:00 AM,73.4,53.6,50,30.18,10,ENE,9.2,-,,,Partly Cloudy,60,20-07-2016 09:35
3590,15,5:35 AM,73.4,53.6,50,30.2,10,East,4.6,-,,,Partly Cloudy,90,20-07-2016 09:55
3591,16,5:55 AM,73.4,55.4,53,30.2,10,ENE,6.9,-,,,Clear,60,20-07-2016 10:00
3592,17,6:00 AM,73.4,57.2,57,30.2,10,East,3.5,-,,,Clear,80,20-07-2016 10:35
3593,18,6:35 AM,73.4,57.2,57,30.21,10,Calm,Calm,-,,,Mostly Cloudy,0,20-07-2016 10:55
3594,19,6:55 AM,73.4,57.2,57,30.22,10,ENE,4.6,-,,,Scattered Clouds,70,20-07-2016 11:00
3595,20,7:00 AM,73.4,57.2,57,30.22,10,ENE,5.8,-,,,Partly Cloudy,70,20-07-2016 11:35
3596,21,7:35 AM,73.4,55.4,53,30.22,10,NE,10.4,-,,,Clear,50,20-07-2016 11:55
3597,22,7:55 AM,73.4,57.2,57,30.22,10,NE,11.5,-,,,Clear,50,20-07-2016 12:00
3598,23,8:00 AM,75.2,57.2,53,30.23,10,NE,10.4,-,,,Clear,50,20-07-2016 12:35
3599,24,8:35 AM,75.2,57.2,53,30.24,10,East,5.8,19.6,,,Clear,80,20-07-2016 12:55
3600,25,8:55 AM,75.2,57.2,53,30.24,10,East,8.1,-,,,Clear,80,20-07-2016 13:00
3601,26,9:00 AM,77,55.4,47,30.24,9,ENE,6.9,-,,,Clear,70,20-07-2016 13:35
3602,27,9:35 AM,78.8,55.4,44,30.24,10,ENE,9.2,-,,,Clear,60,20-07-2016 13:55
3603,28,9:55 AM,78.8,55.4,44,30.24,10,NE,10.4,-,,,Clear,50,20-07-2016 14:00
3604,29,10:00 AM,78.8,57.2,47,30.25,10,ENE,8.1,-,,,Clear,60,20-07-2016 14:35
3605,30,10:35 AM,80.6,60.8,51,30.24,10,NE,9.2,-,,,Clear,50,20-07-2016 14:55
3606,31,10:55 AM,80.6,57.2,45,30.25,10,ENE,5.8,-,,,Clear,70,20-07-2016 15:00
3607,32,11:00 AM,80.6,57.2,45,30.24,10,East,4.6,-,,,Clear,80,20-07-2016 15:35
3608,33,11:35 AM,82.4,55.4,39,30.23,10,ESE,3.5,-,,,Clear,110,20-07-2016 15:55
3609,34,11:55 AM,82.4,53.6,37,30.23,10,NNE,6.9,-,,,Clear,30,20-07-2016 16:00
3610,35,12:00 PM,82.4,53.6,37,30.22,10,Calm,Calm,-,,,Clear,0,20-07-2016 16:35
3611,36,12:35 PM,82.4,48.2,30,30.22,10,WSW,5.8,-,,,Clear,250,20-07-2016 16:55
3612,37,12:55 PM,80.6,53.6,39,30.22,10,WSW,5.8,-,,,Clear,250,20-07-2016 17:00
3613,38,1:00 PM,82.4,53.6,37,30.21,10,West,5.8,-,,,Clear,270,20-07-2016 17:35
3614,39,1:35 PM,82.4,55.4,39,30.21,10,SSW,9.2,-,,,Clear,210,20-07-2016 17:55
3615,40,1:55 PM,80.6,57.2,45,30.2,10,SW,8.1,-,,,Clear,220,20-07-2016 18:00
3616,41,2:00 PM,80.6,55.4,42,30.2,10,SW,8.1,-,,,Clear,220,20-07-2016 18:35
3617,42,2:35 PM,80.6,55.4,42,30.19,10,SSW,9.2,-,,,Clear,210,20-07-2016 18:55
3618,43,2:55 PM,80.6,55.4,42,30.18,10,SW,9.2,-,,,Clear,220,20-07-2016 19:00
3619,44,3:00 PM,82.4,55.4,39,30.18,10,SSW,5.8,-,,,Partly Cloudy,200,20-07-2016 19:35
3620,45,3:35 PM,82.4,55.4,39,30.17,10,WSW,3.5,-,,,Clear,250,20-07-2016 19:55
3621,46,3:55 PM,82.4,53.6,37,30.17,10,SSW,3.5,-,,,Clear,200,20-07-2016 20:00
3622,47,4:00 PM,82.4,57.2,42,30.16,10,SW,8.1,-,,,Clear,230,20-07-2016 20:35
3623,48,4:35 PM,82.4,57.2,42,30.16,10,SW,6.9,-,,,Clear,230,20-07-2016 20:55
3624,49,4:55 PM,82.4,57.2,42,30.15,10,SW,8.1,-,,,Clear,230,20-07-2016 21:00
3625,50,5:00 PM,82.4,57.2,42,30.15,10,WSW,6.9,-,,,Clear,240,20-07-2016 21:35
3626,51,5:35 PM,82.4,55.4,39,30.15,9,WSW,5.8,-,,,Clear,240,20-07-2016 21:55
3627,52,5:55 PM,80.6,57.2,45,30.15,10,SW,8.1,-,,,Clear,220,20-07-2016 22:00
3628,53,6:00 PM,82.4,57.2,42,30.15,10,SW,6.9,-,,,Clear,220,20-07-2016 22:35
3629,54,6:35 PM,80.6,59,48,30.14,10,SW,6.9,-,,,Clear,220,20-07-2016 22:55
3630,55,6:55 PM,80.6,59,48,30.14,10,SW,6.9,-,,,Clear,220,20-07-2016 23:00
3631,56,7:00 PM,78.8,60.8,54,30.14,10,WSW,5.8,-,,,Clear,240,20-07-2016 23:35
3632,57,7:35 PM,78.8,60.8,54,30.15,10,SW,6.9,-,,,Clear,220,20-07-2016 23:55
3633,58,7:55 PM,78.8,60.8,54,30.15,10,SW,4.6,-,,,Clear,230,21-07-2016 00:00
3634,59,8:00 PM,78.8,62.6,57,30.15,10,Calm,Calm,-,,,Clear,0,21-07-2016 00:35
3635,60,8:35 PM,77,60.8,57,30.16,10,SW,5.8,-,,,Clear,220,21-07-2016 00:55
3636,61,8:55 PM,77,62.6,61,30.16,10,SSW,4.6,-,,,Clear,200,21-07-2016 01:00
3637,62,9:00 PM,75.2,62.6,65,30.17,10,SSW,5.8,-,,,Clear,200,21-07-2016 01:35
3638,63,9:35 PM,75.2,62.6,65,30.17,10,SW,4.6,-,,,Clear,230,21-07-2016 01:55
3639,64,9:55 PM,75.2,62.6,65,30.18,10,WSW,3.5,-,,,Clear,250,21-07-2016 02:00
3640,65,10:00 PM,75.2,62.6,65,30.18,10,WSW,3.5,-,,,Clear,240,21-07-2016 02:35
3641,66,10:35 PM,75.2,62.6,65,30.18,10,SW,5.8,-,,,Clear,230,21-07-2016 02:55
3642,67,10:55 PM,75.2,62.6,65,30.18,10,SW,5.8,-,,,Clear,230,21-07-2016 03:00
3643,68,11:00 PM,75.2,64.4,69,30.18,10,SW,4.6,-,,,Clear,230,21-07-2016 03:35
3644,69,11:35 PM,75.2,64.4,69,30.18,10,SW,4.6,-,,,Clear,230,21-07-2016 03:55
3645,70,11:55 PM,73.4,62.6,69,30.18,10,SW,4.6,-,,,Clear,230,21-07-2016 04:00
3646,0,12:00 AM,73.4,62.6,69,30.18,10,WSW,3.5,-,,,Clear,250,21-07-2016 04:35
3647,1,12:35 AM,73.4,62.6,69,30.18,10,WSW,4.6,-,,,Clear,240,21-07-2016 04:55
3648,2,12:55 AM,73.4,62.6,69,30.19,10,WSW,5.8,-,,,Clear,250,21-07-2016 05:00
3649,3,1:00 AM,73.4,62.6,69,30.18,10,SW,3.5,-,,,Clear,230,21-07-2016 05:35
3650,4,1:35 AM,73.4,62.6,69,30.18,10,WSW,5.8,-,,,Clear,250,21-07-2016 05:55
3651,5,1:55 AM,73.4,64.4,73,30.18,10,West,4.6,-,,,Clear,260,21-07-2016 06:00
3652,6,2:00 AM,73.4,62.6,69,30.17,10,West,4.6,-,,,Clear,270,21-07-2016 06:35
3653,7,2:35 AM,73.4,62.6,69,30.17,10,West,6.9,-,,,Clear,260,21-07-2016 06:55
3654,8,2:55 AM,73.4,64.4,73,30.17,10,West,5.8,-,,,Clear,260,21-07-2016 07:00
3655,9,3:00 AM,73.4,64.4,73,30.16,10,WSW,5.8,-,,,Clear,240,21-07-2016 07:35
3656,10,3:35 AM,73.4,64.4,73,30.16,10,West,4.6,-,,,Clear,270,21-07-2016 07:55
3657,11,3:55 AM,73.4,64.4,73,30.16,10,WNW,4.6,-,,,Clear,290,21-07-2016 08:00
3658,12,4:00 AM,73.4,64.4,73,30.16,10,West,4.6,-,,,Clear,260,21-07-2016 08:35
3659,13,4:35 AM,73.4,64.4,73,30.16,10,West,4.6,-,,,Clear,260,21-07-2016 08:55
3660,14,4:55 AM,73.4,64.4,73,30.16,10,West,4.6,-,,,Clear,260,21-07-2016 09:00
3661,15,5:00 AM,71.6,64.4,78,30.16,10,West,4.6,-,,,Clear,260,21-07-2016 09:35
3662,16,5:35 AM,73.4,64.4,73,30.16,10,WNW,3.5,-,,,Clear,290,21-07-2016 09:55
3663,17,5:55 AM,71.6,64.4,78,30.17,10,WSW,5.8,-,,,Clear,250,21-07-2016 10:00
3664,18,6:00 AM,73.4,66.2,78,30.18,10,West,5.8,-,,,Clear,260,21-07-2016 10:35
3665,19,6:35 AM,71.6,66.2,83,30.18,10,West,5.8,-,,,Clear,260,21-07-2016 10:55
3666,20,6:55 AM,73.4,66.2,78,30.18,10,WSW,4.6,-,,,Clear,250,21-07-2016 11:00
3667,21,7:00 AM,73.4,66.2,78,30.19,10,WSW,5.8,-,,,Clear,250,21-07-2016 11:35
3668,22,7:35 AM,73.4,66.2,78,30.18,10,WSW,5.8,-,,,Clear,250,21-07-2016 11:55
3669,23,7:55 AM,73.4,66.2,78,30.18,10,West,12.7,49.5,,,Clear,270,21-07-2016 12:00
3670,24,8:00 AM,73.4,66.2,78,30.17,10,WSW,5.8,-,,,Clear,240,21-07-2016 12:35
3671,25,8:35 AM,73.4,66.2,78,30.17,10,WSW,5.8,-,,,Clear,240,21-07-2016 12:55
3672,26,8:55 AM,75.2,66.2,73,30.17,10,WSW,6.9,-,,,Clear,240,21-07-2016 13:00
3673,27,9:00 AM,75.2,66.2,73,30.17,10,WSW,5.8,-,,,Clear,240,21-07-2016 13:35
3674,28,9:35 AM,78.8,66.2,65,30.16,10,WSW,5.8,-,,,Clear,240,21-07-2016 13:55
3675,29,9:55 AM,78.8,66.2,65,30.16,8,SW,5.8,-,,,Clear,230,21-07-2016 14:00
3676,30,10:00 AM,80.6,66.2,61,30.16,10,SW,5.8,-,,,Clear,230,21-07-2016 14:35
3677,31,10:35 AM,82.4,64.4,54,30.17,9,SSW,4.6,-,,,Clear,210,21-07-2016 14:55
3678,32,10:55 AM,82.4,64.4,54,30.16,9,SSW,6.9,-,,,Clear,210,21-07-2016 15:00
3679,33,11:00 AM,84.2,60.8,45,30.16,8,SSW,6.9,-,,,Clear,210,21-07-2016 15:35
3680,34,11:35 AM,84.2,60.8,45,30.15,8,SSW,5.8,-,,,Clear,200,21-07-2016 15:55
3681,35,11:55 AM,86,60.8,43,30.15,9,SW,5.8,-,,,Clear,220,21-07-2016 16:00
3682,36,12:00 PM,87.8,60.8,40,30.14,10,West,10.4,40.3,,,Clear,270,21-07-2016 16:35
3683,37,12:35 PM,87.8,59,38,30.14,10,SW,8.1,-,,,Clear,220,21-07-2016 16:55
3684,38,12:55 PM,87.8,60.8,40,30.14,10,SW,6.9,-,,,Clear,220,21-07-2016 17:00
3685,39,1:00 PM,87.8,62.6,43,30.13,10,SSW,6.9,-,,,Clear,210,21-07-2016 17:35
3686,40,1:35 PM,87.8,60.8,40,30.12,10,SW,5.8,-,,,Clear,220,21-07-2016 17:55
3687,41,1:55 PM,87.8,60.8,40,30.11,10,SSW,6.9,-,,,Partly Cloudy,210,21-07-2016 18:00
3688,42,2:00 PM,87.8,60.8,40,30.11,9,SW,5.8,-,,,Partly Cloudy,230,21-07-2016 18:35
3689,43,2:35 PM,87.8,62.6,43,30.11,10,SSW,5.8,-,,,Partly Cloudy,210,21-07-2016 18:55
3690,44,2:55 PM,87.8,64.4,46,30.11,10,South,5.8,-,,,Partly Cloudy,190,21-07-2016 19:00
3691,45,3:00 PM,87.8,64.4,46,30.1,10,South,5.8,-,,,Clear,180,21-07-2016 19:35
3692,46,3:35 PM,87.8,62.6,43,30.09,10,South,9.2,-,,,Clear,180,21-07-2016 19:55
3693,47,3:55 PM,87.8,62.6,43,30.08,10,South,11.5,-,,,Clear,170,21-07-2016 20:00
3694,48,4:00 PM,87.8,62.6,43,30.08,10,South,8.1,-,,,Clear,180,21-07-2016 20:35
3695,49,4:35 PM,87.8,64.4,46,30.08,10,South,5.8,-,,,Clear,190,21-07-2016 20:55
3696,50,4:55 PM,87.8,62.6,43,30.08,10,South,4.6,-,,,Partly Cloudy,180,21-07-2016 21:00
3697,51,5:00 PM,86,64.4,48,30.07,10,SSE,9.2,-,,,Partly Cloudy,160,21-07-2016 21:35
3698,52,5:35 PM,86,64.4,48,30.07,10,South,8.1,-,,,Clear,190,21-07-2016 21:55
3699,53,5:55 PM,84.2,66.2,55,30.06,10,South,8.1,42.6,,,Clear,170,21-07-2016 22:00
3700,54,6:00 PM,84.2,66.2,55,30.06,10,South,5.8,49.5,,,Partly Cloudy,190,21-07-2016 22:35
3701,55,6:35 PM,84.2,66.2,55,30.05,10,South,9.2,-,,,Scattered Clouds,180,21-07-2016 22:55
3702,56,6:55 PM,82.4,68,62,30.05,10,SSW,5.8,-,,,Scattered Clouds,200,21-07-2016 23:00
3703,57,7:00 PM,82.4,68,62,30.04,10,SSW,6.9,-,,,Clear,210,21-07-2016 23:35
3704,58,7:35 PM,82.4,68,62,30.05,10,SSW,9.2,-,,,Clear,210,21-07-2016 23:55
3705,59,7:55 PM,80.6,68,65,30.05,10,SW,9.2,-,,,Clear,220,22-07-2016 00:00
3706,60,8:00 PM,80.6,68,65,30.05,10,SSW,11.5,16.1,,,Clear,210,22-07-2016 00:35
3707,61,8:35 PM,80.6,68,65,30.05,10,SW,8.1,-,,,Clear,230,22-07-2016 00:55
3708,62,8:55 PM,80.6,68,65,30.05,10,WSW,9.2,-,,,Clear,240,22-07-2016 01:00
3709,63,9:00 PM,80.6,68,65,30.06,10,WSW,9.2,-,,,Clear,240,22-07-2016 01:35
3710,64,9:35 PM,80.6,66.2,61,30.06,10,WSW,10.4,-,,,Clear,250,22-07-2016 01:55
3711,65,9:55 PM,78.8,68,69,30.07,10,WSW,10.4,-,,,Clear,240,22-07-2016 02:00
3712,66,10:00 PM,78.8,68,69,30.07,10,WSW,9.2,-,,,Clear,250,22-07-2016 02:35
3713,67,10:35 PM,78.8,66.2,65,30.07,10,WSW,10.4,-,,,Clear,250,22-07-2016 02:55
3714,68,10:55 PM,78.8,66.2,65,30.06,10,West,6.9,-,,,Clear,260,22-07-2016 03:00
3715,69,11:00 PM,78.8,68,69,30.06,10,WSW,8.1,-,,,Clear,250,22-07-2016 03:35
3716,70,11:35 PM,77,68,74,30.06,10,WSW,8.1,-,,,Clear,250,22-07-2016 03:55
3717,71,11:55 PM,77,68,74,30.05,10,WSW,8.1,-,,,Clear,240,22-07-2016 04:00
3718,0,12:00 AM,77,68,74,30.05,10,West,8.1,-,,,Clear,260,22-07-2016 04:35
3719,1,12:35 AM,77,68,74,30.04,10,WSW,10.4,16.1,,,Clear,250,22-07-2016 04:55
3720,2,12:55 AM,75.2,68,78,30.04,10,WSW,9.2,-,,,Clear,250,22-07-2016 05:00
3721,3,1:00 AM,75.2,68,78,30.03,10,WSW,8.1,-,,,Clear,250,22-07-2016 05:35
3722,4,1:35 AM,75.2,68,78,30.02,10,West,4.6,-,,,Clear,270,22-07-2016 05:55
3723,5,1:55 AM,75.2,68,78,30.03,10,West,4.6,-,,,Clear,280,22-07-2016 06:00
3724,6,2:00 AM,75.2,68,78,30.03,10,SW,3.5,-,,,Clear,230,22-07-2016 06:35
3725,7,2:35 AM,75.2,69.8,83,30.03,10,WSW,4.6,-,,,Clear,240,22-07-2016 06:55
3726,8,2:55 AM,75.2,69.8,83,30.02,10,SW,3.5,-,,,Clear,230,22-07-2016 07:00
3727,9,3:00 AM,75.2,69.8,83,30.02,10,SW,5.8,-,,,Clear,220,22-07-2016 07:35
3728,10,3:35 AM,75.2,69.8,83,30.01,10,WSW,5.8,-,,,Clear,250,22-07-2016 07:55
3729,11,3:55 AM,75.2,69.8,83,30.01,10,WSW,6.9,-,,,Clear,250,22-07-2016 08:00
3730,12,4:00 AM,75.2,69.8,83,30.02,10,SW,5.8,-,,,Clear,230,22-07-2016 08:35
3731,13,4:35 AM,75.2,71.6,89,30.01,10,WSW,10.4,-,,,Clear,250,22-07-2016 08:55
3732,14,4:55 AM,75.2,71.6,89,30,10,SW,6.9,-,,,Clear,230,22-07-2016 09:00
3733,15,5:00 AM,75.2,69.8,83,30,10,SW,5.8,-,,,Clear,230,22-07-2016 09:35
3734,16,5:35 AM,73.4,69.8,88,30,10,WSW,9.2,-,,,Clear,250,22-07-2016 09:55
3735,17,5:55 AM,73.4,69.8,88,30,10,WSW,6.9,-,,,Clear,250,22-07-2016 10:00
3736,18,6:00 AM,73.4,69.8,88,30,10,WSW,8.1,-,,,Clear,250,22-07-2016 10:35
3737,19,6:35 AM,75.2,69.8,83,30,10,WSW,6.9,-,,,Clear,240,22-07-2016 10:55
3738,20,6:55 AM,75.2,69.8,83,29.99,10,West,6.9,-,,,Clear,260,22-07-2016 11:00
3739,21,7:00 AM,75.2,69.8,83,29.98,10,WSW,9.2,-,,,Clear,240,22-07-2016 11:35
3740,22,7:35 AM,75.2,69.8,83,29.98,10,WSW,8.1,-,,,Clear,240,22-07-2016 11:55
3741,23,7:55 AM,75.2,69.8,83,29.98,10,WSW,9.2,-,,,Clear,240,22-07-2016 12:00
3742,24,8:00 AM,75.2,69.8,83,29.98,10,WSW,8.1,-,,,Clear,250,22-07-2016 12:35
3743,25,8:35 AM,77,69.8,78,29.98,10,WSW,11.5,-,,,Clear,250,22-07-2016 12:55
3744,26,8:55 AM,77,69.8,78,29.98,10,WSW,9.2,-,,,Clear,250,22-07-2016 13:00
3745,27,9:00 AM,78.8,69.8,74,29.97,10,West,9.2,18.4,,,Clear,260,22-07-2016 13:35
3746,28,9:35 AM,80.6,71.6,74,29.96,9,WSW,8.1,-,,,Clear,250,22-07-2016 13:55
3747,29,9:55 AM,80.6,71.6,74,29.95,10,WSW,8.1,-,,,Clear,240,22-07-2016 14:00
3748,30,10:00 AM,82.4,69.8,66,29.95,10,West,8.1,-,,,Clear,260,22-07-2016 14:35
3749,31,10:35 AM,82.4,69.8,66,29.95,8,WSW,8.1,-,,,Clear,250,22-07-2016 14:55
3750,32,10:55 AM,84.2,69.8,62,29.94,8,West,10.4,20.7,,,Clear,260,22-07-2016 15:00
3751,33,11:00 AM,84.2,69.8,62,29.94,10,West,10.4,29.9,,,Clear,260,22-07-2016 15:35
3752,34,11:35 AM,86,69.8,58,29.94,10,West,9.2,42.6,,,Clear,260,22-07-2016 15:55
3753,35,11:55 AM,87.8,69.8,55,29.93,10,West,10.4,-,,,Clear,260,22-07-2016 16:00
3754,36,12:00 PM,87.8,69.8,55,29.92,10,West,10.4,26.5,,,Clear,260,22-07-2016 16:35
3755,37,12:35 PM,87.8,69.8,55,29.91,10,West,10.4,17.3,,,Clear,260,22-07-2016 16:55
3756,38,12:55 PM,89.6,69.8,52,29.9,10,West,11.5,16.1,,,Clear,260,22-07-2016 17:00
3757,39,1:00 PM,89.6,69.8,52,29.9,10,West,9.2,-,,,Clear,270,22-07-2016 17:35
3758,40,1:35 PM,91.4,69.8,49,29.89,10,West,9.2,16.1,,,Clear,260,22-07-2016 17:55
3759,41,1:55 PM,91.4,68,46,29.89,10,WSW,11.5,19.6,,,Clear,250,22-07-2016 18:00
3760,42,2:00 PM,91.4,69.8,49,29.88,10,WSW,11.5,18.4,,,Clear,250,22-07-2016 18:35
3761,43,2:35 PM,91.4,69.8,49,29.87,10,West,12.7,23,,,Clear,260,22-07-2016 18:55
3762,44,2:55 PM,91.4,69.8,49,29.86,10,WSW,11.5,-,,,Clear,250,22-07-2016 19:00
3763,45,3:00 PM,93.2,68,44,29.85,10,West,10.4,17.3,,,Clear,270,22-07-2016 19:35
3764,46,3:35 PM,93.2,69.8,46,29.84,10,West,15,20.7,,,Clear,270,22-07-2016 19:55
3765,47,3:55 PM,93.2,69.8,46,29.84,10,West,9.2,24.2,,,Partly Cloudy,260,22-07-2016 20:00
3766,48,4:00 PM,93.2,69.8,46,29.83,10,West,11.5,24.2,,,Scattered Clouds,260,22-07-2016 20:35
3767,49,4:35 PM,93.2,66.2,41,29.83,10,West,12.7,17.3,,,Scattered Clouds,260,22-07-2016 20:55
3768,50,4:55 PM,93.2,69.8,46,29.82,10,West,11.5,17.3,,,Mostly Cloudy,260,22-07-2016 21:00
3769,51,5:00 PM,93.2,69.8,46,29.82,10,West,12.7,-,,,Mostly Cloudy,260,22-07-2016 21:35
3770,52,5:35 PM,93.2,69.8,46,29.81,10,SW,9.2,-,,,Mostly Cloudy,230,22-07-2016 21:55
3771,53,5:55 PM,91.4,71.6,52,29.81,10,West,10.4,-,,,Mostly Cloudy,280,22-07-2016 22:00
3772,54,6:00 PM,91.4,71.6,52,29.8,10,West,12.7,-,,,Mostly Cloudy,260,22-07-2016 22:35
3773,55,6:35 PM,93.2,68,44,29.79,10,West,13.8,-,,,Partly Cloudy,260,22-07-2016 22:55
3774,56,6:55 PM,89.6,71.6,55,29.79,10,West,11.5,-,,,Partly Cloudy,260,22-07-2016 23:00
3775,57,7:00 PM,89.6,71.6,55,29.79,10,WSW,11.5,-,,,Clear,240,22-07-2016 23:35
3776,58,7:35 PM,87.8,71.6,58,29.79,10,WSW,12.7,-,,,Partly Cloudy,250,22-07-2016 23:55
3777,59,7:55 PM,87.8,71.6,58,29.8,10,WSW,11.5,-,,,Partly Cloudy,250,23-07-2016 00:00
3778,60,8:00 PM,87.8,71.6,58,29.8,10,WSW,11.5,-,,,Mostly Cloudy,240,23-07-2016 00:35
3779,61,8:35 PM,86,73.4,66,29.8,10,WSW,11.5,31.1,,,Partly Cloudy,250,23-07-2016 00:55
3780,62,8:55 PM,86,73.4,66,29.8,10,WSW,11.5,-,,,Partly Cloudy,240,23-07-2016 01:00
3781,63,9:00 PM,84.2,73.4,70,29.8,10,West,8.1,-,,,Clear,260,23-07-2016 01:35
3782,64,9:35 PM,84.2,73.4,70,29.81,10,West,8.1,-,,,Clear,260,23-07-2016 01:55
3783,65,9:55 PM,84.2,73.4,70,29.82,10,WSW,9.2,-,,,Clear,240,23-07-2016 02:00
3784,66,10:00 PM,84.2,73.4,70,29.81,10,West,8.1,-,,,Clear,270,23-07-2016 02:35
3785,67,10:35 PM,84.2,73.4,70,29.82,10,WSW,6.9,-,,,Clear,250,23-07-2016 02:55
3786,68,10:55 PM,84.2,71.6,66,29.81,10,West,8.1,-,,,Clear,260,23-07-2016 03:00
3787,69,11:00 PM,84.2,71.6,66,29.82,10,West,8.1,-,,,Clear,260,23-07-2016 03:35
3788,70,11:35 PM,82.4,71.6,70,29.82,10,West,8.1,-,,,Clear,260,23-07-2016 03:55
3789,71,11:55 PM,82.4,71.6,70,29.82,10,West,8.1,-,,,Clear,260,23-07-2016 04:00
3790,0,12:00 AM,82.4,71.6,70,29.82,10,West,10.4,-,,,Clear,270,23-07-2016 04:35
3791,1,12:35 AM,84.2,71.6,66,29.82,10,West,9.2,19.6,,,Clear,280,23-07-2016 04:55
3792,2,12:55 AM,82.4,71.6,70,29.82,10,West,10.4,16.1,,,Clear,260,23-07-2016 05:00
3793,3,1:00 AM,82.4,71.6,70,29.83,10,West,5.8,-,,,Clear,260,23-07-2016 05:35
3794,4,1:35 AM,82.4,69.8,66,29.83,10,West,4.6,-,,,Clear,260,23-07-2016 05:55
3795,5,1:55 AM,82.4,69.8,66,29.83,10,Calm,Calm,-,,,Clear,0,23-07-2016 06:00
3796,6,2:00 AM,82.4,69.8,66,29.83,10,Calm,Calm,-,,,Clear,0,23-07-2016 06:35
3797,7,2:35 AM,82.4,69.8,66,29.83,10,West,4.6,-,,,Clear,260,23-07-2016 06:55
3798,8,2:55 AM,80.6,69.8,70,29.83,10,WSW,4.6,-,,,Clear,250,23-07-2016 07:00
3799,9,3:00 AM,80.6,69.8,70,29.83,10,Calm,Calm,-,,,Clear,0,23-07-2016 07:35
3800,10,3:35 AM,80.6,69.8,70,29.83,10,SSW,4.6,-,,,Clear,210,23-07-2016 07:55
3801,11,3:55 AM,80.6,68,65,29.83,10,NNE,3.5,-,,,Clear,30,23-07-2016 08:00
3802,12,4:00 AM,82.4,66.2,58,29.83,10,Calm,Calm,-,,,Clear,0,23-07-2016 08:35
3803,13,4:35 AM,84.2,64.4,51,29.83,10,Calm,Calm,-,,,Clear,0,23-07-2016 08:55
3804,14,4:55 AM,82.4,64.4,54,29.84,10,Calm,Calm,-,,,Clear,0,23-07-2016 09:00
3805,15,5:00 AM,82.4,64.4,54,29.84,10,Calm,Calm,-,,,Clear,0,23-07-2016 09:35
3806,16,5:35 AM,82.4,64.4,54,29.85,10,Calm,Calm,-,,,Clear,0,23-07-2016 09:55
3807,17,5:55 AM,82.4,64.4,54,29.85,10,Calm,Calm,-,,,Clear,0,23-07-2016 10:00
3808,18,6:00 AM,82.4,64.4,54,29.86,10,NNW,3.5,-,,,Clear,340,23-07-2016 10:35
3809,19,6:35 AM,82.4,64.4,54,29.86,10,Calm,Calm,-,,,Clear,0,23-07-2016 10:55
3810,20,6:55 AM,82.4,64.4,54,29.86,10,West,5.8,-,,,Clear,260,23-07-2016 11:00
3811,21,7:00 AM,82.4,64.4,54,29.87,10,WSW,4.6,-,,,Clear,250,23-07-2016 11:35
3812,22,7:35 AM,82.4,64.4,54,29.87,10,WSW,6.9,-,,,Clear,250,23-07-2016 11:55
3813,23,7:55 AM,82.4,66.2,58,29.87,10,West,8.1,-,,,Clear,260,23-07-2016 12:00
3814,24,8:00 AM,82.4,66.2,58,29.87,10,West,8.1,-,,,Clear,270,23-07-2016 12:35
3815,25,8:35 AM,82.4,66.2,58,29.87,10,West,9.2,-,,,Clear,260,23-07-2016 12:55
3816,26,8:55 AM,84.2,66.2,55,29.87,10,West,4.6,-,,,Clear,270,23-07-2016 13:00
3817,27,9:00 AM,86,64.4,48,29.87,10,Calm,Calm,-,,,Clear,0,23-07-2016 13:35
3818,28,9:35 AM,87.8,62.6,43,29.86,9,NNW,4.6,-,,,Clear,330,23-07-2016 13:55
3819,29,9:55 AM,87.8,62.6,43,29.86,10,WNW,3.5,-,,,Clear,290,23-07-2016 14:00
3820,30,10:00 AM,89.6,62.6,40,29.86,10,West,9.2,38,,,Clear,260,23-07-2016 14:35
3821,31,10:35 AM,89.6,64.4,43,29.86,9,West,9.2,16.1,,,Clear,260,23-07-2016 14:55
3822,32,10:55 AM,89.6,64.4,43,29.86,10,West,9.2,18.4,,,Clear,260,23-07-2016 15:00
3823,33,11:00 AM,91.4,59,34,29.86,10,West,5.8,-,,,Clear,270,23-07-2016 15:35
3824,34,11:35 AM,93.2,60.8,34,29.86,10,West,9.2,17.3,,,Clear,260,23-07-2016 15:55
3825,35,11:55 AM,91.4,59,34,29.86,10,West,6.9,17.3,,,Clear,260,23-07-2016 16:00
3826,36,12:00 PM,91.4,60.8,36,29.86,10,West,9.2,-,,,Clear,260,23-07-2016 16:35
3827,37,12:35 PM,91.4,60.8,36,29.85,10,WSW,8.1,-,,,Clear,250,23-07-2016 16:55
3828,38,12:55 PM,93.2,57.2,30,29.85,9,WSW,6.9,-,,,Clear,240,23-07-2016 17:00
3829,39,1:00 PM,93.2,57.2,30,29.85,10,NNW,6.9,-,,,Clear,330,23-07-2016 17:35
3830,40,1:35 PM,93.2,59,32,29.84,10,WSW,8.1,17.3,,,Partly Cloudy,250,23-07-2016 17:55
3831,41,1:55 PM,93.2,59,32,29.83,10,WSW,9.2,25.3,,,Partly Cloudy,250,23-07-2016 18:00
3832,42,2:00 PM,93.2,60.8,34,29.84,9,West,6.9,20.7,,,Partly Cloudy,260,23-07-2016 18:35
3833,43,2:35 PM,93.2,59,32,29.83,10,West,5.8,25.3,,,Mostly Cloudy,270,23-07-2016 18:55
3834,44,2:55 PM,93.2,60.8,34,29.83,10,West,9.2,16.1,,,Mostly Cloudy,270,23-07-2016 19:00
3835,45,3:00 PM,95,59,30,29.82,10,WSW,10.4,23,,,Mostly Cloudy,250,23-07-2016 19:35
3836,46,3:35 PM,93.2,57.2,30,29.82,10,West,4.6,-,,,Scattered Clouds,270,23-07-2016 19:55
3837,47,3:55 PM,93.2,57.2,30,29.83,10,NW,4.6,55.2,,,Mostly Cloudy,310,23-07-2016 20:00
3838,48,4:00 PM,93.2,59,32,29.82,10,West,10.4,23,,,Mostly Cloudy,260,23-07-2016 20:35
3839,49,4:35 PM,93.2,59,32,29.81,10,West,10.4,18.4,,,Scattered Clouds,270,23-07-2016 20:55
3840,50,4:55 PM,93.2,59,32,29.81,10,West,13.8,17.3,,,Clear,260,23-07-2016 21:00
3841,51,5:00 PM,93.2,60.8,34,29.79,10,West,11.5,-,,,Clear,260,23-07-2016 21:35
3842,52,5:35 PM,93.2,59,32,29.79,10,West,12.7,19.6,,,Clear,270,23-07-2016 21:55
3843,53,5:55 PM,93.2,57.2,30,29.79,10,West,11.5,18.4,,,Clear,270,23-07-2016 22:00
3844,54,6:00 PM,95,57.2,28,29.79,10,West,9.2,19.6,,,Clear,270,23-07-2016 22:35
3845,55,6:35 PM,95,59,30,29.8,10,West,10.4,18.4,,,Clear,270,23-07-2016 22:55
3846,56,6:55 PM,93.2,59,32,29.8,10,West,5.8,17.3,,,Clear,280,23-07-2016 23:00
3847,57,7:00 PM,91.4,57.2,31,29.81,10,West,9.2,-,,,Partly Cloudy,270,23-07-2016 23:35
3848,58,7:35 PM,91.4,59,34,29.82,10,West,5.8,-,,,Scattered Clouds,270,23-07-2016 23:55
3849,59,7:55 PM,91.4,59,34,29.82,10,West,4.6,-,,,Mostly Cloudy,280,24-07-2016 00:00
3850,60,8:00 PM,89.6,60.8,38,29.83,10,Calm,Calm,-,,,Mostly Cloudy,0,24-07-2016 00:35
3851,61,8:35 PM,91.4,57.2,31,29.83,10,Calm,Calm,-,,,Mostly Cloudy,0,24-07-2016 00:55
3852,62,8:55 PM,91.4,55.4,29,29.84,10,Calm,Calm,-,,,Partly Cloudy,0,24-07-2016 01:00
3853,63,9:00 PM,87.8,59,38,29.85,10,South,3.5,-,,,Clear,190,24-07-2016 01:35
3854,64,9:35 PM,87.8,57.2,35,29.86,10,Calm,Calm,-,,,Clear,0,24-07-2016 01:55
3855,65,9:55 PM,87.8,57.2,35,29.87,10,SSW,3.5,-,,,Clear,210,24-07-2016 02:00
3856,66,10:00 PM,87.8,55.4,33,29.87,10,Calm,Calm,-,,,Clear,0,24-07-2016 02:35
3857,67,10:35 PM,86,57.2,37,29.88,10,Calm,Calm,-,,,Clear,0,24-07-2016 02:55
3858,68,10:55 PM,84.2,60.8,45,29.88,10,Calm,Calm,-,,,Clear,0,24-07-2016 03:00
3859,69,11:00 PM,84.2,60.8,45,29.89,10,Calm,Calm,-,,,Clear,0,24-07-2016 03:35
3860,70,11:35 PM,84.2,57.2,40,29.89,10,Calm,Calm,-,,,Clear,0,24-07-2016 03:55
3861,71,11:55 PM,84.2,59,42,29.9,10,Calm,Calm,-,,,Clear,0,24-07-2016 04:00
3862,0,12:00 AM,84.2,59,42,29.91,10,Calm,Calm,-,,,Clear,0,24-07-2016 04:35
3863,1,12:35 AM,84.2,57.2,40,29.91,10,Calm,Calm,-,,,Clear,0,24-07-2016 04:55
3864,2,12:55 AM,84.2,57.2,40,29.92,10,Calm,Calm,-,,,Clear,0,24-07-2016 05:00
3865,3,1:00 AM,82.4,60.8,48,29.92,10,Calm,Calm,-,,,Clear,0,24-07-2016 05:35
3866,4,1:35 AM,82.4,59,45,29.92,10,Calm,Calm,-,,,Clear,0,24-07-2016 05:55
3867,5,1:55 AM,82.4,59,45,29.93,10,Calm,Calm,-,,,Clear,0,24-07-2016 06:00
3868,6,2:00 AM,82.4,59,45,29.93,10,West,3.5,-,,,Clear,270,24-07-2016 06:35
3869,7,2:35 AM,82.4,60.8,48,29.93,10,Calm,Calm,-,,,Clear,0,24-07-2016 06:55
3870,8,2:55 AM,80.6,60.8,51,29.94,10,Calm,Calm,-,,,Clear,0,24-07-2016 07:00
3871,9,3:00 AM,80.6,62.6,54,29.94,10,NE,3.5,-,,,Clear,50,24-07-2016 07:35
3872,10,3:35 AM,80.6,62.6,54,29.93,10,NE,4.6,-,,,Clear,40,24-07-2016 07:55
3873,11,3:55 AM,78.8,62.6,57,29.94,10,NNE,4.6,-,,,Clear,30,24-07-2016 08:00
3874,12,4:00 AM,78.8,62.6,57,29.94,10,NE,5.8,-,,,Clear,40,24-07-2016 08:35
3875,13,4:35 AM,78.8,64.4,61,29.94,10,NE,4.6,-,,,Clear,50,24-07-2016 08:55
3876,14,4:55 AM,78.8,62.6,57,29.95,10,NE,6.9,-,,,Clear,40,24-07-2016 09:00
3877,15,5:00 AM,78.8,62.6,57,29.95,10,ENE,8.1,-,,,Clear,60,24-07-2016 09:35
3878,16,5:35 AM,78.8,62.6,57,29.96,10,ENE,8.1,-,,,Clear,60,24-07-2016 09:55
3879,17,5:55 AM,78.8,62.6,57,29.96,10,ENE,8.1,-,,,Clear,60,24-07-2016 10:00
3880,18,6:00 AM,78.8,64.4,61,29.97,10,ENE,3.5,-,,,Clear,70,24-07-2016 10:35
3881,19,6:35 AM,78.8,62.6,57,29.98,10,NE,4.6,-,,,Clear,50,24-07-2016 10:55
3882,20,6:55 AM,78.8,64.4,61,29.98,10,ENE,3.5,-,,,Clear,60,24-07-2016 11:00
3883,21,7:00 AM,78.8,64.4,61,29.98,10,Calm,Calm,-,,,Clear,0,24-07-2016 11:35
3884,22,7:35 AM,78.8,64.4,61,29.99,10,East,3.5,-,,,Clear,90,24-07-2016 11:55
3885,23,7:55 AM,78.8,64.4,61,29.99,10,Calm,Calm,-,,,Clear,0,24-07-2016 12:00
3886,24,8:00 AM,78.8,62.6,57,29.99,10,Calm,Calm,-,,,Clear,0,24-07-2016 12:35
3887,25,8:35 AM,80.6,62.6,54,29.99,10,Calm,Calm,-,,,Clear,0,24-07-2016 12:55
3888,26,8:55 AM,80.6,62.6,54,29.99,10,WSW,4.6,-,,,Clear,240,24-07-2016 13:00
3889,27,9:00 AM,80.6,60.8,51,30,10,West,3.5,-,,,Clear,260,24-07-2016 13:35
3890,28,9:35 AM,82.4,60.8,48,29.99,10,WSW,6.9,-,,,Clear,250,24-07-2016 13:55
3891,29,9:55 AM,84.2,60.8,45,29.99,10,SW,4.6,-,,,Clear,220,24-07-2016 14:00
3892,30,10:00 AM,84.2,64.4,51,29.99,10,SW,5.8,-,,,Clear,220,24-07-2016 14:35
3893,31,10:35 AM,84.2,64.4,51,29.99,10,SW,5.8,-,,,Clear,220,24-07-2016 14:55
3894,32,10:55 AM,86,64.4,48,29.99,10,SW,6.9,-,,,Clear,220,24-07-2016 15:00
3895,33,11:00 AM,87.8,64.4,46,29.98,10,SSW,5.8,-,,,Clear,210,24-07-2016 15:35
3896,34,11:35 AM,87.8,64.4,46,29.98,10,SSW,3.5,-,,,Clear,200,24-07-2016 15:55
3897,35,11:55 AM,87.8,62.6,43,29.98,10,WSW,5.8,-,,,Clear,240,24-07-2016 16:00
3898,36,12:00 PM,87.8,62.6,43,29.98,10,SW,3.5,-,,,Clear,230,24-07-2016 16:35
3899,37,12:35 PM,87.8,66.2,49,29.98,10,SSW,5.8,-,,,Clear,210,24-07-2016 16:55
3900,38,12:55 PM,87.8,66.2,49,29.98,10,SSW,6.9,-,,,Clear,200,24-07-2016 17:00
3901,39,1:00 PM,89.6,64.4,43,29.97,10,SSW,3.5,-,,,Clear,210,24-07-2016 17:35
3902,40,1:35 PM,89.6,62.6,40,29.97,10,Calm,Calm,-,,,Clear,0,24-07-2016 17:55
3903,41,1:55 PM,91.4,62.6,38,29.97,10,SSW,3.5,-,,,Clear,210,24-07-2016 18:00
3904,42,2:00 PM,89.6,62.6,40,29.96,10,SSW,5.8,-,,,Clear,210,24-07-2016 18:35
3905,43,2:35 PM,89.6,64.4,43,29.96,10,SW,8.1,-,,,Clear,220,24-07-2016 18:55
3906,44,2:55 PM,91.4,62.6,38,29.95,10,SW,10.4,-,,,Clear,220,24-07-2016 19:00
3907,45,3:00 PM,91.4,64.4,41,29.95,10,SSW,8.1,-,,,Clear,210,24-07-2016 19:35
3908,46,3:35 PM,89.6,64.4,43,29.95,10,South,8.1,-,,,Clear,190,24-07-2016 19:55
3909,47,3:55 PM,89.6,64.4,43,29.94,10,SSW,5.8,-,,,Clear,200,24-07-2016 20:00
3910,48,4:00 PM,89.6,64.4,43,29.94,10,South,8.1,-,,,Clear,190,24-07-2016 20:35
3911,49,4:35 PM,89.6,64.4,43,29.94,10,SSW,5.8,-,,,Clear,200,24-07-2016 20:55
3912,50,4:55 PM,89.6,66.2,46,29.94,10,SSW,4.6,-,,,Clear,200,24-07-2016 21:00
3913,51,5:00 PM,87.8,66.2,49,29.94,10,SSW,4.6,-,,,Clear,200,24-07-2016 21:35
3914,52,5:35 PM,87.8,68,52,29.94,10,SSE,5.8,-,,,Clear,160,24-07-2016 21:55
3915,53,5:55 PM,89.6,68,49,29.94,10,SSW,3.5,-,,,Clear,210,24-07-2016 22:00
3916,54,6:00 PM,89.6,66.2,46,29.94,10,Calm,Calm,-,,,Clear,0,24-07-2016 22:35
3917,55,6:35 PM,89.6,66.2,46,29.94,10,Calm,Calm,-,,,Clear,0,24-07-2016 22:55
3918,56,6:55 PM,87.8,68,52,29.94,10,West,3.5,-,,,Clear,260,24-07-2016 23:00
3919,57,7:00 PM,86,66.2,51,29.95,10,Calm,Calm,-,,,Clear,0,24-07-2016 23:35
3920,58,7:35 PM,84.2,69.8,62,29.95,10,SSW,4.6,-,,,Clear,210,24-07-2016 23:55
3921,59,7:55 PM,84.2,69.8,62,29.95,10,SW,6.9,-,,,Clear,220,25-07-2016 00:00
3922,60,8:00 PM,84.2,69.8,62,29.95,10,WSW,4.6,-,,,Clear,240,25-07-2016 00:35
3923,61,8:35 PM,84.2,68,58,29.95,10,WSW,6.9,-,,,Clear,250,25-07-2016 00:55
3924,62,8:55 PM,84.2,66.2,55,29.96,10,West,4.6,-,,,Clear,270,25-07-2016 01:00
3925,63,9:00 PM,84.2,68,58,29.96,10,WSW,4.6,-,,,Clear,250,25-07-2016 01:35
3926,64,9:35 PM,82.4,68,62,29.97,10,West,4.6,-,,,Clear,260,25-07-2016 01:55
3927,65,9:55 PM,82.4,69.8,66,29.98,10,West,4.6,-,,,Clear,260,25-07-2016 02:00
3928,66,10:00 PM,82.4,69.8,66,29.98,10,West,3.5,-,,,Clear,260,25-07-2016 02:35
3929,67,10:35 PM,82.4,69.8,66,29.98,10,WSW,3.5,-,,,Clear,240,25-07-2016 02:55
3930,68,10:55 PM,82.4,69.8,66,29.98,10,Calm,Calm,-,,,Clear,0,25-07-2016 03:00
3931,69,11:00 PM,80.6,69.8,70,29.98,10,Calm,Calm,-,,,Clear,0,25-07-2016 03:35
3932,70,11:35 PM,80.6,69.8,70,29.97,10,SW,3.5,-,,,Clear,220,25-07-2016 03:55
3933,71,11:55 PM,80.6,69.8,70,29.97,10,WSW,3.5,-,,,Clear,240,25-07-2016 04:00
3934,0,12:00 AM,80.6,69.8,70,29.97,10,Calm,Calm,-,,,Clear,0,25-07-2016 04:35
3935,1,12:35 AM,80.6,69.8,70,29.97,10,Calm,Calm,-,,,Clear,0,25-07-2016 04:55
3936,2,12:55 AM,80.6,69.8,70,29.97,10,West,3.5,-,,,Clear,260,25-07-2016 05:00
3937,3,1:00 AM,80.6,68,65,29.96,10,West,3.5,-,,,Clear,260,25-07-2016 05:35
3938,4,1:35 AM,80.6,69.8,70,29.96,10,West,3.5,-,,,Clear,270,25-07-2016 05:55
3939,5,1:55 AM,80.6,68,65,29.96,10,West,4.6,-,,,Clear,270,25-07-2016 06:00
3940,6,2:00 AM,78.8,68,69,29.95,10,WSW,3.5,-,,,Clear,250,25-07-2016 06:35
3941,7,2:35 AM,80.6,68,65,29.95,10,Calm,Calm,-,,,Clear,0,25-07-2016 06:55
3942,8,2:55 AM,80.6,66.2,61,29.95,10,WSW,4.6,-,,,Partly Cloudy,240,25-07-2016 07:00
3943,9,3:00 AM,80.6,66.2,61,29.95,10,Calm,Calm,-,,,Clear,0,25-07-2016 07:35
3944,10,3:35 AM,80.6,66.2,61,29.95,10,SW,3.5,-,,,Clear,230,25-07-2016 07:55
3945,11,3:55 AM,78.8,66.2,65,29.95,10,WSW,4.6,-,,,Mostly Cloudy,240,25-07-2016 08:00
3946,12,4:00 AM,78.8,66.2,65,29.96,10,WSW,3.5,-,,,Overcast,250,25-07-2016 08:35
3947,13,4:35 AM,78.8,66.2,65,29.95,10,SW,3.5,-,,,Overcast,220,25-07-2016 08:55
3948,14,4:55 AM,78.8,66.2,65,29.94,10,West,3.5,-,,,Overcast,260,25-07-2016 09:00
3949,15,5:00 AM,78.8,66.2,65,29.94,10,WSW,4.6,-,,,Overcast,250,25-07-2016 09:35
3950,16,5:35 AM,78.8,68,69,29.95,10,SW,4.6,-,,,Overcast,230,25-07-2016 09:55
3951,17,5:55 AM,78.8,66.2,65,29.95,10,Calm,Calm,-,,,Mostly Cloudy,0,25-07-2016 10:00
3952,18,6:00 AM,80.6,66.2,61,29.96,10,West,4.6,-,,,Overcast,260,25-07-2016 10:35
3953,19,6:35 AM,80.6,68,65,29.96,10,West,6.9,-,,,Overcast,260,25-07-2016 10:55
3954,20,6:55 AM,78.8,69.8,74,29.96,10,WSW,5.8,-,,,Overcast,250,25-07-2016 11:00
3955,21,7:00 AM,78.8,69.8,74,29.96,10,SW,6.9,-,,,Overcast,220,25-07-2016 11:35
3956,22,7:35 AM,78.8,71.6,78,29.95,10,SW,4.6,41.4,,,Overcast,220,25-07-2016 11:55
3957,23,7:55 AM,78.8,71.6,78,29.95,10,SW,5.8,-,,,Mostly Cloudy,220,25-07-2016 12:00
3958,24,8:00 AM,78.8,71.6,78,29.95,10,SW,4.6,-,,,Partly Cloudy,220,25-07-2016 12:35
3959,25,8:35 AM,78.8,71.6,78,29.95,10,SSW,5.8,-,,,Partly Cloudy,210,25-07-2016 12:55
3960,26,8:55 AM,78.8,71.6,78,29.95,10,SW,6.9,-,,,Partly Cloudy,220,25-07-2016 13:00
3961,27,9:00 AM,80.6,73.4,79,29.95,10,SW,4.6,-,,,Mostly Cloudy,230,25-07-2016 13:35
3962,28,9:35 AM,80.6,73.4,79,29.94,10,SSW,6.9,-,,,Scattered Clouds,210,25-07-2016 13:55
3963,29,9:55 AM,80.6,73.4,79,29.94,10,SW,4.6,-,,,Clear,220,25-07-2016 14:00
3964,30,10:00 AM,82.4,73.4,74,29.94,10,SSW,6.9,-,,,Clear,200,25-07-2016 14:35
3965,31,10:35 AM,82.4,73.4,74,29.94,10,SSW,8.1,-,,,Clear,200,25-07-2016 14:55
3966,32,10:55 AM,82.4,73.4,74,29.95,10,SSW,9.2,-,,,Partly Cloudy,210,25-07-2016 15:00
3967,33,11:00 AM,82.4,73.4,74,29.94,7,SW,8.1,-,,,Scattered Clouds,220,25-07-2016 15:35
3968,34,11:35 AM,82.4,73.4,74,29.93,9,SSW,8.1,-,,,Scattered Clouds,210,25-07-2016 15:55
3969,35,11:55 AM,82.4,73.4,74,29.92,9,SSW,6.9,-,,,Clear,210,25-07-2016 16:00
3970,36,12:00 PM,84.2,73.4,70,29.92,9,SSW,8.1,-,,,Clear,210,25-07-2016 16:35
3971,37,12:35 PM,84.2,73.4,70,29.91,10,South,6.9,-,,,Clear,190,25-07-2016 16:55
3972,38,12:55 PM,86,73.4,66,29.9,9,SW,4.6,-,,,Clear,230,25-07-2016 17:00
3973,39,1:00 PM,87.8,73.4,62,29.9,10,WSW,4.6,-,,,Clear,240,25-07-2016 17:35
3974,40,1:35 PM,87.8,73.4,62,29.89,10,WSW,5.8,-,,,Clear,250,25-07-2016 17:55
3975,41,1:55 PM,89.6,73.4,59,29.89,7,SSW,5.8,-,,,Clear,210,25-07-2016 18:00
3976,42,2:00 PM,89.6,73.4,59,29.88,10,SW,6.9,-,,,Partly Cloudy,230,25-07-2016 18:35
3977,43,2:35 PM,89.6,73.4,59,29.87,10,SW,5.8,-,,,Clear,230,25-07-2016 18:55
3978,44,2:55 PM,89.6,73.4,59,29.86,9,SSW,6.9,-,,,Clear,210,25-07-2016 19:00
3979,45,3:00 PM,89.6,73.4,59,29.85,9,South,4.6,-,,,Clear,180,25-07-2016 19:35
3980,46,3:35 PM,89.6,73.4,59,29.83,9,South,4.6,-,,,Clear,170,25-07-2016 19:55
3981,47,3:55 PM,91.4,73.4,55,29.82,9,South,4.6,-,,,Clear,190,25-07-2016 20:00
3982,48,4:00 PM,91.4,73.4,55,29.82,10,West,3.5,-,,,Partly Cloudy,270,25-07-2016 20:35
3983,49,4:35 PM,87.8,71.6,58,29.83,10,NNE,16.1,26.5,,,Mostly Cloudy,30,25-07-2016 20:55
3984,50,4:55 PM,84.2,73.4,70,29.82,10,NE,12.7,-,,Thunderstorm,Mostly Cloudy,40,25-07-2016 21:00
3985,51,5:00 PM,84.2,77,79,29.87,2,SW,4.6,-,0.18,Thunderstorm,Thunderstorm,220,25-07-2016 21:35
3986,52,5:35 PM,78.8,75.2,89,29.88,1,North,3.5,-,0.76,Thunderstorm,Thunderstorm,350,25-07-2016 21:55
3987,53,5:55 PM,77,73.4,89,29.88,0.5,East,3.5,-,1.38,Thunderstorm,Thunderstorm,100,25-07-2016 22:00
3988,54,6:00 PM,75.2,73.4,94,29.92,1.8,West,4.6,16.1,0.54,Thunderstorm,Thunderstorm,280,25-07-2016 22:35
3989,55,6:35 PM,75.2,73.4,94,29.89,5,South,5.8,-,0.61,Thunderstorm,Overcast,180,25-07-2016 22:55
3990,56,6:55 PM,75.2,73.4,94,29.89,9,Calm,Calm,-,0.61,,Mostly Cloudy,0,25-07-2016 23:00
3991,57,7:00 PM,75.2,73.4,94,29.9,10,West,6.9,-,,Thunderstorm,Mostly Cloudy,260,25-07-2016 23:35
3992,58,7:35 PM,75.2,73.4,94,29.9,10,SW,4.6,-,,Thunderstorm,Mostly Cloudy,220,25-07-2016 23:55
3993,59,7:55 PM,75.2,73.4,94,29.88,7,West,5.8,-,0.01,,Mostly Cloudy,260,26-07-2016 00:00
3994,60,8:00 PM,75.2,73.4,94,29.87,5,South,4.6,-,0.01,,Mostly Cloudy,170,26-07-2016 00:35
3995,61,8:35 PM,75.2,73.4,94,29.88,10,Calm,Calm,-,0.01,,Partly Cloudy,0,26-07-2016 00:55
3996,62,8:55 PM,75.2,73.4,94,29.89,10,SW,5.8,-,0.01,,Clear,230,26-07-2016 01:00
3997,63,9:00 PM,75.2,73.4,94,29.89,10,SW,5.8,-,,,Partly Cloudy,230,26-07-2016 01:35
3998,64,9:35 PM,75.2,73.4,94,29.89,10,West,5.8,-,,,Partly Cloudy,270,26-07-2016 01:55
3999,65,9:55 PM,75.2,73.4,94,29.88,10,SSW,5.8,-,,,Mostly Cloudy,210,26-07-2016 02:00
4000,66,10:00 PM,75.2,73.4,94,29.89,10,SW,4.6,-,,,Mostly Cloudy,220,26-07-2016 02:35
4001,67,10:35 PM,75.2,73.4,94,29.89,10,SW,6.9,-,,,Partly Cloudy,230,26-07-2016 02:55
4002,68,10:55 PM,75.2,73.4,94,29.89,10,WSW,6.9,-,,,Mostly Cloudy,240,26-07-2016 03:00
4003,69,11:00 PM,75.2,73.4,94,29.89,10,West,8.1,-,,,Overcast,260,26-07-2016 03:35
4004,70,11:35 PM,75.2,73.4,94,29.9,10,West,11.5,-,,,Overcast,260,26-07-2016 03:55
4005,71,11:55 PM,75.2,73.4,94,29.89,10,West,10.4,-,,,Mostly Cloudy,260,26-07-2016 04:00
4006,0,12:00 AM,75.2,73.4,94,29.89,10,West,10.4,-,,,Overcast,270,26-07-2016 04:35
4007,1,12:35 AM,75.2,73.4,94,29.88,10,West,8.1,-,,,Mostly Cloudy,260,26-07-2016 04:55
4008,2,12:55 AM,75.2,73.4,94,29.88,10,West,8.1,-,,,Mostly Cloudy,270,26-07-2016 05:00
4009,3,1:00 AM,75.2,73.4,94,29.88,10,West,8.1,-,,,Mostly Cloudy,260,26-07-2016 05:35
4010,4,1:35 AM,75.2,73.4,94,29.87,10,West,5.8,-,,,Scattered Clouds,270,26-07-2016 05:55
4011,5,1:55 AM,75.2,71.6,89,29.87,10,North,3.5,-,,,Clear,360,26-07-2016 06:00
4012,6,2:00 AM,75.2,71.6,89,29.87,10,Calm,Calm,-,,,Clear,0,26-07-2016 06:35
4013,7,2:35 AM,75.2,71.6,89,29.87,10,Calm,Calm,-,,,Clear,0,26-07-2016 06:55
4014,8,2:55 AM,75.2,71.6,89,29.87,10,WSW,6.9,-,,,Clear,250,26-07-2016 07:00
4015,9,3:00 AM,73.4,71.6,94,29.87,10,West,5.8,-,,,Clear,260,26-07-2016 07:35
4016,10,3:35 AM,73.4,71.6,94,29.87,10,West,5.8,-,,,Clear,260,26-07-2016 07:55
4017,11,3:55 AM,73.4,71.6,94,29.88,10,West,6.9,-,,,Clear,260,26-07-2016 08:00
4018,12,4:00 AM,73.4,71.6,94,29.87,10,West,5.8,-,,,Clear,260,26-07-2016 08:35
4019,13,4:35 AM,73.4,69.8,88,29.88,10,WSW,4.6,-,,,Clear,250,26-07-2016 08:55
4020,14,4:55 AM,73.4,69.8,88,29.88,10,West,5.8,-,,,Clear,260,26-07-2016 09:00
4021,15,5:00 AM,73.4,69.8,88,29.89,10,West,4.6,-,,,Clear,260,26-07-2016 09:35
4022,16,5:35 AM,73.4,69.8,88,29.89,10,West,5.8,-,,,Clear,260,26-07-2016 09:55
4023,17,5:55 AM,73.4,69.8,88,29.9,10,WSW,5.8,-,,,Clear,240,26-07-2016 10:00
4024,18,6:00 AM,73.4,69.8,88,29.9,10,West,3.5,-,,,Clear,270,26-07-2016 10:35
4025,19,6:35 AM,73.4,69.8,88,29.9,10,West,3.5,-,,,Clear,260,26-07-2016 10:55
4026,20,6:55 AM,73.4,69.8,88,29.92,10,West,5.8,-,,,Clear,260,26-07-2016 11:00
4027,21,7:00 AM,73.4,69.8,88,29.92,10,West,6.9,-,0.01,,Clear,270,26-07-2016 11:35
4028,22,7:35 AM,75.2,69.8,83,29.92,10,West,6.9,-,0.01,,Clear,260,26-07-2016 11:55
4029,23,7:55 AM,75.2,69.8,83,29.92,10,WSW,4.6,-,0.01,,Clear,240,26-07-2016 12:00
4030,24,8:00 AM,75.2,69.8,83,29.92,10,WSW,4.6,-,,,Clear,250,26-07-2016 12:35
4031,25,8:35 AM,75.2,69.8,83,29.92,10,WSW,4.6,-,,,Clear,250,26-07-2016 12:55
4032,26,8:55 AM,77,69.8,78,29.92,10,West,3.5,-,,,Clear,270,26-07-2016 13:00
4033,27,9:00 AM,78.8,69.8,74,29.92,10,West,5.8,-,,,Clear,260,26-07-2016 13:35
4034,28,9:35 AM,80.6,69.8,70,29.92,10,West,6.9,-,,,Clear,270,26-07-2016 13:55
4035,29,9:55 AM,80.6,69.8,70,29.92,9,SW,5.8,-,,,Clear,220,26-07-2016 14:00
4036,30,10:00 AM,82.4,69.8,66,29.92,10,SW,4.6,-,,,Clear,230,26-07-2016 14:35
4037,31,10:35 AM,84.2,66.2,55,29.92,10,SW,5.8,-,,,Clear,230,26-07-2016 14:55
4038,32,10:55 AM,86,68,55,29.92,10,West,5.8,-,,,Clear,260,26-07-2016 15:00
4039,33,11:00 AM,87.8,66.2,49,29.92,10,WSW,5.8,-,,,Clear,250,26-07-2016 15:35
4040,34,11:35 AM,89.6,66.2,46,29.91,10,West,6.9,-,,,Clear,260,26-07-2016 15:55
4041,35,11:55 AM,89.6,64.4,43,29.91,9,WSW,8.1,-,,,Clear,240,26-07-2016 16:00
4042,36,12:00 PM,89.6,64.4,43,29.91,10,WSW,6.9,-,,,Clear,240,26-07-2016 16:35
4043,37,12:35 PM,89.6,64.4,43,29.9,9,Calm,Calm,-,,,Mostly Cloudy,0,26-07-2016 16:55
4044,38,12:55 PM,89.6,66.2,46,29.9,10,WSW,9.2,-,,,Mostly Cloudy,250,26-07-2016 17:00
4045,39,1:00 PM,89.6,64.4,43,29.89,10,WSW,6.9,19.6,,,Scattered Clouds,250,26-07-2016 17:35
4046,40,1:35 PM,91.4,64.4,41,29.89,7,West,4.6,-,,,Scattered Clouds,280,26-07-2016 17:55
4047,41,1:55 PM,91.4,64.4,41,29.88,10,West,3.5,-,,,Scattered Clouds,260,26-07-2016 18:00
4048,42,2:00 PM,91.4,64.4,41,29.88,10,Calm,Calm,-,,,Scattered Clouds,0,26-07-2016 18:35
4049,43,2:35 PM,91.4,64.4,41,29.88,10,West,4.6,-,,,Scattered Clouds,270,26-07-2016 18:55
4050,44,2:55 PM,91.4,64.4,41,29.88,10,North,5.8,-,,,Scattered Clouds,350,26-07-2016 19:00
4051,45,3:00 PM,91.4,62.6,38,29.87,10,West,5.8,-,,,Partly Cloudy,260,26-07-2016 19:35
4052,46,3:35 PM,91.4,60.8,36,29.87,10,NW,4.6,-,,,Partly Cloudy,320,26-07-2016 19:55
4053,47,3:55 PM,93.2,62.6,36,29.87,10,NNW,3.5,-,,,Partly Cloudy,330,26-07-2016 20:00
4054,48,4:00 PM,93.2,62.6,36,29.87,10,ESE,3.5,-,,,Scattered Clouds,110,26-07-2016 20:35
4055,49,4:35 PM,93.2,62.6,36,29.86,10,North,4.6,-,,,Scattered Clouds,350,26-07-2016 20:55
4056,50,4:55 PM,91.4,64.4,41,29.86,10,Calm,Calm,-,,,Clear,0,26-07-2016 21:00
4057,51,5:00 PM,91.4,62.6,38,29.86,10,Calm,Calm,-,,,Clear,0,26-07-2016 21:35
4058,52,5:35 PM,93.2,62.6,36,29.86,10,WNW,3.5,19.6,,,Clear,300,26-07-2016 21:55
4059,53,5:55 PM,93.2,62.6,36,29.86,10,East,4.6,-,,,Clear,100,26-07-2016 22:00
4060,54,6:00 PM,91.4,62.6,38,29.86,10,Calm,Calm,-,,,Clear,0,26-07-2016 22:35
4061,55,6:35 PM,91.4,60.8,36,29.86,10,Calm,Calm,-,,,Clear,0,26-07-2016 22:55
4062,56,6:55 PM,89.6,60.8,38,29.86,10,Calm,Calm,-,,,Clear,0,26-07-2016 23:00
4063,57,7:00 PM,89.6,62.6,40,29.86,10,Calm,Calm,-,,,Clear,0,26-07-2016 23:35
4064,58,7:35 PM,87.8,60.8,40,29.87,10,Calm,Calm,-,,,Clear,0,26-07-2016 23:55
4065,59,7:55 PM,87.8,60.8,40,29.88,10,Calm,Calm,-,,,Clear,0,27-07-2016 00:00
4066,60,8:00 PM,87.8,62.6,43,29.88,10,Calm,Calm,-,,,Clear,0,27-07-2016 00:35
4067,61,8:35 PM,84.2,64.4,51,29.89,10,Calm,Calm,-,,,Clear,0,27-07-2016 00:55
4068,62,8:55 PM,84.2,62.6,48,29.9,10,Calm,Calm,-,,,Clear,0,27-07-2016 01:00
4069,63,9:00 PM,84.2,62.6,48,29.91,10,Calm,Calm,-,,,Clear,0,27-07-2016 01:35
4070,64,9:35 PM,84.2,62.6,48,29.91,10,Calm,Calm,-,,,Clear,0,27-07-2016 01:55
4071,65,9:55 PM,82.4,62.6,51,29.92,10,Calm,Calm,-,,,Clear,0,27-07-2016 02:00
4072,66,10:00 PM,82.4,64.4,54,29.92,10,Calm,Calm,-,,,Clear,0,27-07-2016 02:35
4073,67,10:35 PM,82.4,62.6,51,29.92,10,Calm,Calm,-,,,Clear,0,27-07-2016 02:55
4074,68,10:55 PM,82.4,62.6,51,29.93,10,Calm,Calm,-,,,Clear,0,27-07-2016 03:00
4075,69,11:00 PM,82.4,62.6,51,29.92,10,Calm,Calm,-,,,Clear,0,27-07-2016 03:35
4076,70,11:35 PM,82.4,62.6,51,29.93,10,Calm,Calm,-,,,Clear,0,27-07-2016 03:55
4077,71,11:55 PM,82.4,62.6,51,29.93,10,Calm,Calm,-,,,Clear,0,27-07-2016 04:35
4078,0,12:35 AM,80.6,64.4,58,29.93,10,Calm,Calm,-,,,Clear,0,27-07-2016 04:55
4079,1,12:55 AM,80.6,64.4,58,29.92,10,Calm,Calm,-,,,Clear,0,27-07-2016 05:00
4080,2,1:00 AM,80.6,62.6,54,29.93,10,Calm,Calm,-,,,Clear,0,27-07-2016 05:35
4081,3,1:35 AM,80.6,64.4,58,29.94,10,Calm,Calm,-,,,Clear,0,27-07-2016 05:55
4082,4,1:55 AM,80.6,64.4,58,29.94,10,West,3.5,-,,,Clear,270,27-07-2016 06:00
4083,5,2:00 AM,80.6,64.4,58,29.94,10,West,3.5,-,,,Clear,280,27-07-2016 06:35
4084,6,2:35 AM,78.8,64.4,61,29.94,10,Calm,Calm,-,,,Clear,0,27-07-2016 06:55
4085,7,2:55 AM,78.8,64.4,61,29.93,10,West,4.6,-,,,Clear,270,27-07-2016 07:00
4086,8,3:00 AM,78.8,64.4,61,29.94,10,Calm,Calm,-,,,Partly Cloudy,0,27-07-2016 07:35
4087,9,3:35 AM,80.6,64.4,58,29.94,10,Calm,Calm,-,,,Scattered Clouds,0,27-07-2016 07:55
4088,10,3:55 AM,78.8,64.4,61,29.94,10,Calm,Calm,-,,,Clear,0,27-07-2016 08:00
4089,11,4:00 AM,78.8,64.4,61,29.94,10,Calm,Calm,-,,,Clear,0,27-07-2016 08:35
4090,12,4:35 AM,78.8,64.4,61,29.94,10,Calm,Calm,-,,,Clear,0,27-07-2016 08:55
4091,13,4:55 AM,78.8,66.2,65,29.94,10,NE,3.5,-,,,Clear,40,27-07-2016 09:00
4092,14,5:00 AM,78.8,66.2,65,29.94,10,ENE,5.8,-,,,Clear,60,27-07-2016 09:35
4093,15,5:35 AM,78.8,64.4,61,29.95,10,NE,5.8,-,,,Clear,50,27-07-2016 09:55
4094,16,5:55 AM,78.8,64.4,61,29.95,10,ENE,5.8,-,,,Clear,60,27-07-2016 10:00
4095,17,6:00 AM,77,66.2,69,29.95,10,ENE,5.8,-,,,Clear,60,27-07-2016 10:35
4096,18,6:35 AM,77,64.4,65,29.95,10,ENE,5.8,-,,,Clear,70,27-07-2016 10:55
4097,19,6:55 AM,78.8,64.4,61,29.96,10,ENE,5.8,-,,,Clear,60,27-07-2016 11:00
4098,20,7:00 AM,78.8,62.6,57,29.96,10,NE,8.1,-,,,Clear,50,27-07-2016 11:35
4099,21,7:35 AM,78.8,60.8,54,29.96,10,ENE,6.9,-,,,Clear,60,27-07-2016 11:55
4100,22,7:55 AM,80.6,60.8,51,29.96,10,NE,9.2,-,,,Clear,40,27-07-2016 12:00
4101,23,8:00 AM,80.6,60.8,51,29.96,10,NE,9.2,-,,,Clear,50,27-07-2016 12:35
4102,24,8:35 AM,80.6,62.6,54,29.96,10,ENE,6.9,-,,,Clear,70,27-07-2016 12:55
4103,25,8:55 AM,80.6,62.6,54,29.96,10,ENE,8.1,-,,,Clear,60,27-07-2016 13:00
4104,26,9:00 AM,82.4,60.8,48,29.96,10,ENE,4.6,-,,,Clear,70,27-07-2016 13:35
4105,27,9:35 AM,84.2,60.8,45,29.96,10,East,4.6,-,,,Clear,80,27-07-2016 13:55
4106,28,9:55 AM,84.2,60.8,45,29.96,10,ENE,3.5,-,,,Clear,70,27-07-2016 14:00
4107,29,10:00 AM,86,59,40,29.96,10,West,3.5,-,,,Clear,260,27-07-2016 14:35
4108,30,10:35 AM,87.8,59,38,29.96,10,WSW,4.6,-,,,Clear,250,27-07-2016 14:55
4109,31,10:55 AM,87.8,59,38,29.96,10,West,4.6,-,,,Clear,270,27-07-2016 15:00
4110,32,11:00 AM,87.8,60.8,40,29.96,10,West,5.8,-,,,Clear,260,27-07-2016 15:35
4111,33,11:35 AM,87.8,64.4,46,29.96,10,WSW,6.9,-,,,Clear,240,27-07-2016 15:55
4112,34,11:55 AM,87.8,62.6,43,29.96,10,WSW,5.8,-,,,Clear,250,27-07-2016 16:00
4113,35,12:00 PM,87.8,62.6,43,29.95,10,WSW,5.8,-,,,Clear,250,27-07-2016 16:35
4114,36,12:35 PM,87.8,66.2,49,29.95,10,SW,5.8,-,,,Clear,230,27-07-2016 16:55
4115,37,12:55 PM,87.8,64.4,46,29.95,10,SSW,5.8,-,,,Clear,210,27-07-2016 17:00
4116,38,1:00 PM,87.8,64.4,46,29.95,10,West,4.6,-,,,Clear,260,27-07-2016 17:35
4117,39,1:35 PM,87.8,62.6,43,29.94,10,SW,4.6,-,,,Clear,220,27-07-2016 17:55
4118,40,1:55 PM,89.6,60.8,38,29.93,8,SW,4.6,-,,,Clear,220,27-07-2016 18:00
4119,41,2:00 PM,89.6,62.6,40,29.93,10,West,3.5,-,,,Clear,260,27-07-2016 18:35
4120,42,2:35 PM,89.6,66.2,46,29.93,9,WSW,3.5,-,,,Clear,250,27-07-2016 18:55
4121,43,2:55 PM,89.6,66.2,46,29.92,10,West,3.5,-,,,Clear,260,27-07-2016 19:00
4122,44,3:00 PM,89.6,64.4,43,29.92,10,WSW,3.5,-,,,Clear,240,27-07-2016 19:35
4123,45,3:35 PM,89.6,66.2,46,29.91,10,SW,5.8,-,,,Clear,220,27-07-2016 19:55
4124,46,3:55 PM,89.6,64.4,43,29.91,8,SSW,5.8,-,,,Clear,210,27-07-2016 20:00
4125,47,4:00 PM,89.6,66.2,46,29.91,10,SW,6.9,-,,,Clear,230,27-07-2016 20:35
4126,48,4:35 PM,87.8,66.2,49,29.9,10,SW,9.2,-,,,Clear,230,27-07-2016 20:55
4127,49,4:55 PM,87.8,64.4,46,29.9,10,SW,6.9,-,,,Clear,230,27-07-2016 21:00
4128,50,5:00 PM,87.8,64.4,46,29.9,7,SW,9.2,-,,,Partly Cloudy,230,27-07-2016 21:35
4129,51,5:35 PM,87.8,64.4,46,29.89,10,WSW,9.2,-,,,Clear,240,27-07-2016 21:55
4130,52,5:55 PM,87.8,64.4,46,29.89,10,WSW,6.9,-,,,Clear,240,27-07-2016 22:00
4131,53,6:00 PM,86,64.4,48,29.89,9,Calm,Calm,-,,,Partly Cloudy,0,27-07-2016 22:35
4132,54,6:35 PM,87.8,64.4,46,29.89,10,SSW,3.5,-,,,Clear,200,27-07-2016 22:55
4133,55,6:55 PM,86,66.2,51,29.89,10,Calm,Calm,-,,,Clear,0,27-07-2016 23:00
4134,56,7:00 PM,84.2,66.2,55,29.89,10,WSW,4.6,-,,,Mostly Cloudy,240,27-07-2016 23:35
4135,57,7:35 PM,84.2,66.2,55,29.89,10,SW,3.5,-,,,Overcast,220,27-07-2016 23:55
4136,58,7:55 PM,84.2,66.2,55,29.89,10,Calm,Calm,-,,,Mostly Cloudy,0,28-07-2016 00:00
4137,59,8:00 PM,84.2,66.2,55,29.9,10,WSW,3.5,-,,,Partly Cloudy,250,28-07-2016 00:35
4138,60,8:35 PM,82.4,68,62,29.9,10,West,4.6,-,,,Partly Cloudy,270,28-07-2016 00:55
4139,61,8:55 PM,82.4,68,62,29.91,10,West,4.6,-,,,Scattered Clouds,280,28-07-2016 01:00
4140,62,9:00 PM,82.4,68,62,29.91,10,West,3.5,-,,,Mostly Cloudy,280,28-07-2016 01:35
4141,63,9:35 PM,82.4,69.8,66,29.92,10,West,3.5,-,,,Overcast,260,28-07-2016 01:55
4142,64,9:55 PM,82.4,68,62,29.92,10,West,3.5,-,,,Overcast,280,28-07-2016 02:00
4143,65,10:00 PM,82.4,68,62,29.92,10,Calm,Calm,-,,,Mostly Cloudy,0,28-07-2016 02:35
4144,66,10:35 PM,82.4,68,62,29.92,10,Calm,Calm,-,,,Mostly Cloudy,0,28-07-2016 02:55
4145,67,10:55 PM,82.4,69.8,66,29.91,10,Calm,Calm,-,,,Mostly Cloudy,0,28-07-2016 03:00
4146,68,11:00 PM,80.6,69.8,70,29.92,10,Calm,Calm,-,,,Mostly Cloudy,0,28-07-2016 03:35
4147,69,11:35 PM,80.6,69.8,70,29.92,10,Calm,Calm,-,,,Mostly Cloudy,0,28-07-2016 03:55
4148,70,11:55 PM,80.6,71.6,74,29.91,10,Calm,Calm,-,,,Partly Cloudy,0,28-07-2016 04:35
4149,0,12:35 AM,80.6,71.6,74,29.91,10,Calm,Calm,-,,,Clear,0,28-07-2016 04:55
4150,1,12:55 AM,80.6,71.6,74,29.91,10,Calm,Calm,-,,,Clear,0,28-07-2016 05:00
4151,2,1:00 AM,80.6,71.6,74,29.92,10,Calm,Calm,-,,,Clear,0,28-07-2016 05:35
4152,3,1:35 AM,80.6,71.6,74,29.92,10,Calm,Calm,-,,,Clear,0,28-07-2016 05:55
4153,4,1:55 AM,78.8,71.6,78,29.91,10,West,3.5,-,,,Clear,280,28-07-2016 06:00
4154,5,2:00 AM,78.8,73.4,83,29.92,10,West,3.5,-,,,Clear,270,28-07-2016 06:35
4155,6,2:35 AM,78.8,73.4,83,29.91,10,WSW,3.5,-,,,Clear,250,28-07-2016 06:55
4156,7,2:55 AM,78.8,73.4,83,29.92,10,West,3.5,-,,,Clear,270,28-07-2016 07:00
4157,8,3:00 AM,78.8,73.4,83,29.91,10,West,3.5,-,,,Clear,260,28-07-2016 07:35
4158,9,3:35 AM,77,73.4,89,29.91,10,Calm,Calm,-,,,Clear,0,28-07-2016 07:55
4159,10,3:55 AM,78.8,73.4,83,29.91,10,SW,4.6,-,,,Clear,230,28-07-2016 08:00
4160,11,4:00 AM,77,73.4,89,29.91,10,SW,4.6,-,,,Clear,230,28-07-2016 08:35
4161,12,4:35 AM,77,73.4,89,29.91,10,WSW,4.6,-,,,Clear,240,28-07-2016 08:55
4162,13,4:55 AM,78.8,73.4,83,29.91,10,SW,5.8,-,,,Clear,220,28-07-2016 09:00
4163,14,5:00 AM,77,73.4,89,29.91,10,SW,3.5,-,,,Clear,230,28-07-2016 09:35
4164,15,5:35 AM,77,73.4,89,29.91,10,SW,3.5,-,,,Clear,220,28-07-2016 09:55
4165,16,5:55 AM,75.2,73.4,94,29.91,10,WSW,3.5,-,,,Clear,240,28-07-2016 10:00
4166,17,6:00 AM,75.2,73.4,94,29.91,10,Calm,Calm,-,,,Clear,0,28-07-2016 10:35
4167,18,6:35 AM,75.2,73.4,94,29.92,10,Calm,Calm,-,,,Clear,0,28-07-2016 10:55
4168,19,6:55 AM,77,73.4,89,29.92,10,West,4.6,-,,,Clear,260,28-07-2016 11:00
4169,20,7:00 AM,77,73.4,89,29.92,9,West,4.6,-,,,Clear,260,28-07-2016 11:35
4170,21,7:35 AM,77,73.4,89,29.93,9,West,3.5,-,,,Clear,260,28-07-2016 11:55
4171,22,7:55 AM,77,73.4,89,29.93,9,WSW,3.5,-,,,Clear,250,28-07-2016 12:00
4172,23,8:00 AM,77,73.4,89,29.93,7,Calm,Calm,-,,,Clear,0,28-07-2016 12:35
4173,24,8:35 AM,78.8,73.4,83,29.93,9,WSW,3.5,35.7,,,Clear,250,28-07-2016 12:55
4174,25,8:55 AM,78.8,73.4,83,29.93,10,WSW,4.6,-,,,Clear,250,28-07-2016 13:00
4175,26,9:00 AM,80.6,73.4,79,29.93,9,Calm,Calm,-,,,Clear,0,28-07-2016 13:35
4176,27,9:35 AM,80.6,73.4,79,29.93,10,West,5.8,-,,,Clear,270,28-07-2016 13:55
4177,28,9:55 AM,82.4,73.4,74,29.93,10,West,4.6,-,,,Clear,260,28-07-2016 14:00
4178,29,10:00 AM,84.2,71.6,66,29.93,10,West,4.6,-,,,Clear,260,28-07-2016 14:35
4179,30,10:35 AM,86,69.8,58,29.92,10,WSW,3.5,-,,,Clear,240,28-07-2016 14:55
4180,31,10:55 AM,86,69.8,58,29.92,10,SW,3.5,-,,,Clear,230,28-07-2016 15:00
4181,32,11:00 AM,86,69.8,58,29.92,9,Calm,Calm,-,,,Clear,0,28-07-2016 15:35
4182,33,11:35 AM,87.8,73.4,62,29.91,8,Calm,Calm,-,,,Clear,0,28-07-2016 15:55
4183,34,11:55 AM,89.6,73.4,59,29.91,9,WSW,3.5,-,,,Clear,240,28-07-2016 16:00
4184,35,12:00 PM,87.8,71.6,58,29.9,9,West,9.2,-,,,Clear,270,28-07-2016 16:35
4185,36,12:35 PM,89.6,69.8,52,29.9,10,WSW,4.6,-,,,Clear,240,28-07-2016 16:55
4186,37,12:55 PM,89.6,69.8,52,29.9,10,WSW,5.8,-,,,Clear,250,28-07-2016 17:00
4187,38,1:00 PM,91.4,64.4,41,29.89,10,SW,8.1,-,,,Clear,220,28-07-2016 17:35
4188,39,1:35 PM,91.4,64.4,41,29.88,10,SW,9.2,-,,,Clear,220,28-07-2016 17:55
4189,40,1:55 PM,91.4,66.2,43,29.87,10,WSW,6.9,-,,,Clear,240,28-07-2016 18:00
4190,41,2:00 PM,91.4,64.4,41,29.86,10,SW,8.1,-,,,Clear,230,28-07-2016 18:35
4191,42,2:35 PM,91.4,66.2,43,29.86,10,South,6.9,-,,,Clear,190,28-07-2016 18:55
4192,43,2:55 PM,91.4,66.2,43,29.86,10,South,10.4,16.1,,,Clear,170,28-07-2016 19:00
4193,44,3:00 PM,89.6,69.8,52,29.87,9,SSE,12.7,-,,,Clear,160,28-07-2016 19:35
4194,45,3:35 PM,87.8,71.6,58,29.87,10,South,12.7,-,,,Clear,180,28-07-2016 19:55
4195,46,3:55 PM,86,71.6,62,29.87,10,South,9.2,18.4,,,Clear,190,28-07-2016 20:00
4196,47,4:00 PM,87.8,73.4,62,29.87,10,South,10.4,18.4,,,Clear,180,28-07-2016 20:35
4197,48,4:35 PM,86,71.6,62,29.87,10,South,10.4,38,,,Clear,180,28-07-2016 20:55
4198,49,4:55 PM,84.2,71.6,66,29.86,10,SSW,9.2,-,,,Clear,200,28-07-2016 21:00
4199,50,5:00 PM,84.2,71.6,66,29.88,10,SSW,11.5,18.4,,,Clear,210,28-07-2016 21:35
4200,51,5:35 PM,82.4,73.4,74,29.88,10,WSW,12.7,47.2,,,Clear,240,28-07-2016 21:55
4201,52,5:55 PM,82.4,73.4,74,29.89,10,WSW,10.4,-,,,Clear,240,28-07-2016 22:00
4202,53,6:00 PM,80.6,71.6,74,29.88,10,WSW,8.1,16.1,,,Partly Cloudy,250,28-07-2016 22:35
4203,54,6:35 PM,80.6,71.6,74,29.89,10,WSW,10.4,-,,,Mostly Cloudy,250,28-07-2016 22:55
4204,55,6:55 PM,78.8,69.8,74,29.89,10,West,9.2,-,,,Partly Cloudy,270,28-07-2016 23:00
4205,56,7:00 PM,78.8,69.8,74,29.88,10,WSW,6.9,-,,,Scattered Clouds,250,28-07-2016 23:35
4206,57,7:35 PM,78.8,69.8,74,29.88,10,West,4.6,-,,,Partly Cloudy,280,28-07-2016 23:55
4207,58,7:55 PM,78.8,69.8,74,29.87,10,West,5.8,-,,,Clear,270,29-07-2016 00:00
4208,59,8:00 PM,78.8,68,69,29.88,10,West,6.9,-,,,Clear,270,29-07-2016 00:35
4209,60,8:35 PM,78.8,69.8,74,29.88,10,Calm,Calm,-,,,Clear,0,29-07-2016 00:55
4210,61,8:55 PM,80.6,69.8,70,29.88,10,West,5.8,-,,,Scattered Clouds,270,29-07-2016 01:00
4211,62,9:00 PM,78.8,69.8,74,29.89,10,West,6.9,-,,,Mostly Cloudy,270,29-07-2016 01:35
4212,63,9:35 PM,78.8,69.8,74,29.88,10,WSW,15,44.9,,,Overcast,250,29-07-2016 01:55
4213,64,9:55 PM,78.8,69.8,74,29.88,10,West,5.8,-,,,Overcast,270,29-07-2016 02:00
4214,65,10:00 PM,78.8,69.8,74,29.88,10,WSW,4.6,-,,,Overcast,250,29-07-2016 02:35
4215,66,10:35 PM,78.8,69.8,74,29.88,10,West,3.5,-,,,Overcast,260,29-07-2016 02:55
4216,67,10:55 PM,78.8,69.8,74,29.88,10,West,3.5,-,,,Mostly Cloudy,260,29-07-2016 03:00
4217,68,11:00 PM,78.8,69.8,74,29.88,10,West,3.5,-,,,Overcast,270,29-07-2016 03:35
4218,69,11:35 PM,78.8,71.6,78,29.88,10,Calm,Calm,-,,,Overcast,0,29-07-2016 03:55
4219,70,11:55 PM,78.8,71.6,78,29.88,10,Calm,Calm,-,,,Overcast,0,29-07-2016 04:00
4220,0,12:00 AM,78.8,71.6,78,29.87,10,ENE,3.5,-,,,Overcast,70,29-07-2016 04:35
4221,1,12:35 AM,78.8,71.6,78,29.86,10,Calm,Calm,-,,,Overcast,0,29-07-2016 04:55
4222,2,12:55 AM,78.8,71.6,78,29.87,10,NE,3.5,-,,,Overcast,40,29-07-2016 05:00
4223,3,1:00 AM,78.8,71.6,78,29.87,10,Calm,Calm,-,0.01,,Mostly Cloudy,0,29-07-2016 05:35
4224,4,1:35 AM,77,71.6,83,29.87,10,Calm,Calm,-,0.01,,Overcast,0,29-07-2016 05:55
4225,5,1:55 AM,78.8,73.4,83,29.87,10,Calm,Calm,-,0.01,,Overcast,0,29-07-2016 06:00
4226,6,2:00 AM,78.8,71.6,78,29.86,10,NE,3.5,-,,,Overcast,40,29-07-2016 06:35
4227,7,2:35 AM,78.8,73.4,83,29.85,10,Calm,Calm,-,,,Overcast,0,29-07-2016 06:55
4228,8,2:55 AM,78.8,73.4,83,29.84,10,Calm,Calm,-,,,Overcast,0,29-07-2016 07:00
4229,9,3:00 AM,77,73.4,89,29.84,10,NE,3.5,-,,,Overcast,40,29-07-2016 07:35
4230,10,3:35 AM,77,73.4,89,29.84,8,ENE,5.8,-,,,Overcast,60,29-07-2016 07:55
4231,11,3:55 AM,75.2,71.6,89,29.83,10,NE,4.6,-,0.03,,Overcast,50,29-07-2016 08:00
4232,12,4:00 AM,75.2,71.6,89,29.83,5,NE,8.1,-,0.03,,Overcast,50,29-07-2016 08:35
4233,13,4:35 AM,75.2,71.6,89,29.81,5,NE,10.4,16.1,0.09,,Overcast,50,29-07-2016 08:55
4234,14,4:55 AM,73.4,71.6,94,29.84,2.5,WNW,3.5,-,0.53,,Overcast,300,29-07-2016 09:00
4235,15,5:00 AM,73.4,71.6,94,29.84,1.8,NE,9.2,-,0.44,,Overcast,50,29-07-2016 09:35
4236,16,5:35 AM,73.4,71.6,94,29.84,10,NE,12.7,16.1,0.47,,Overcast,50,29-07-2016 09:55
4237,17,5:55 AM,73.4,71.6,94,29.83,10,NE,15,21.9,0.47,,Overcast,40,29-07-2016 10:00
4238,18,6:00 AM,73.4,71.6,94,29.83,10,NNE,13.8,18.4,,,Overcast,30,29-07-2016 10:35
4239,19,6:35 AM,73.4,71.6,94,29.83,8,NE,12.7,17.3,0.01,,Overcast,50,29-07-2016 10:55
4240,20,6:55 AM,73.4,71.6,94,29.83,9,NE,15,21.9,0.02,,Overcast,50,29-07-2016 11:00
4241,21,7:00 AM,71.6,69.8,94,29.83,8,NE,13.8,20.7,,,Overcast,40,29-07-2016 11:35
4242,22,7:35 AM,71.6,69.8,94,29.84,6,NE,12.7,-,0.02,,Overcast,50,29-07-2016 11:55
4243,23,7:55 AM,71.6,69.8,94,29.85,7,NE,12.7,17.3,0.04,,Mostly Cloudy,40,29-07-2016 12:00
4244,24,8:00 AM,71.6,69.8,94,29.85,5,NE,10.4,-,0.02,,Overcast,40,29-07-2016 12:35
4245,25,8:35 AM,71.6,69.8,94,29.86,9,NNE,9.2,-,0.03,,Overcast,30,29-07-2016 12:55
4246,26,8:55 AM,71.6,69.8,94,29.87,8,ENE,4.6,-,0.03,,Overcast,60,29-07-2016 13:00
4247,27,9:00 AM,71.6,69.8,94,29.85,4,NE,10.4,-,0.03,,Overcast,50,29-07-2016 13:35
4248,28,9:35 AM,71.6,69.8,94,29.85,5,NE,10.4,17.3,0.06,,Overcast,40,29-07-2016 13:55
4249,29,9:55 AM,71.6,69.8,94,29.85,10,NE,11.5,-,0.06,,Mostly Cloudy,40,29-07-2016 14:00
4250,30,10:00 AM,71.6,69.8,94,29.86,10,NE,9.2,-,,,Overcast,50,29-07-2016 14:35
4251,31,10:35 AM,73.4,69.8,88,29.86,10,ENE,11.5,-,,,Overcast,60,29-07-2016 14:55
4252,32,10:55 AM,73.4,69.8,88,29.86,10,NE,9.2,17.3,,,Overcast,40,29-07-2016 15:00
4253,33,11:00 AM,75.2,69.8,83,29.85,10,NE,12.7,17.3,,,Overcast,50,29-07-2016 15:35
4254,34,11:35 AM,75.2,69.8,83,29.86,10,NE,13.8,20.7,,,Overcast,40,29-07-2016 15:55
4255,35,11:55 AM,77,69.8,78,29.86,10,NE,15,-,,,Overcast,40,29-07-2016 16:00
4256,36,12:00 PM,77,68,74,29.85,10,NE,16.1,23,,,Overcast,50,29-07-2016 16:35
4257,37,12:35 PM,78.8,68,69,29.85,10,NNE,11.5,17.3,,,Overcast,30,29-07-2016 16:55
4258,38,12:55 PM,78.8,69.8,74,29.85,10,ENE,9.2,17.3,,,Overcast,60,29-07-2016 17:00
4259,39,1:00 PM,80.6,69.8,70,29.84,10,NE,9.2,-,,,Mostly Cloudy,50,29-07-2016 17:35
4260,40,1:35 PM,80.6,69.8,70,29.84,10,ENE,9.2,-,,,Mostly Cloudy,70,29-07-2016 17:55
4261,41,1:55 PM,80.6,69.8,70,29.83,10,East,9.2,34.5,,,Overcast,80,29-07-2016 18:00
4262,42,2:00 PM,82.4,69.8,66,29.83,9,NE,5.8,-,,,Overcast,50,29-07-2016 18:35
4263,43,2:35 PM,82.4,71.6,70,29.84,10,ENE,5.8,-,,,Mostly Cloudy,70,29-07-2016 18:55
4264,44,2:55 PM,84.2,69.8,62,29.84,10,ENE,9.2,-,,,Mostly Cloudy,60,29-07-2016 19:00
4265,45,3:00 PM,84.2,69.8,62,29.84,10,ENE,5.8,38,,,Mostly Cloudy,70,29-07-2016 19:35
4266,46,3:35 PM,84.2,71.6,66,29.84,9,East,6.9,-,,,Mostly Cloudy,80,29-07-2016 19:55
4267,47,3:55 PM,86,69.8,58,29.84,10,ENE,3.5,-,,,Mostly Cloudy,70,29-07-2016 20:00
4268,48,4:00 PM,86,69.8,58,29.84,10,WSW,4.6,-,,,Mostly Cloudy,240,29-07-2016 20:35
4269,49,4:35 PM,87.8,69.8,55,29.84,8,Calm,Calm,-,,,Mostly Cloudy,0,29-07-2016 20:55
4270,50,4:55 PM,84.2,71.6,66,29.84,10,SW,6.9,-,,,Partly Cloudy,220,29-07-2016 21:00
4271,51,5:00 PM,84.2,71.6,66,29.85,9,SW,4.6,-,,,Clear,230,29-07-2016 21:35
4272,52,5:35 PM,84.2,71.6,66,29.85,10,SW,9.2,-,,,Clear,230,29-07-2016 21:55
4273,53,5:55 PM,82.4,69.8,66,29.86,10,WSW,8.1,-,,,Clear,240,29-07-2016 22:00
4274,54,6:00 PM,82.4,69.8,66,29.86,10,WSW,5.8,-,,,Clear,240,29-07-2016 22:35
4275,55,6:35 PM,82.4,69.8,66,29.87,10,WSW,3.5,-,,,Clear,250,29-07-2016 22:55
4276,56,6:55 PM,82.4,69.8,66,29.88,10,SSW,5.8,-,,,Clear,200,29-07-2016 23:00
4277,57,7:00 PM,80.6,69.8,70,29.88,10,South,5.8,-,,,Clear,190,29-07-2016 23:35
4278,58,7:35 PM,80.6,69.8,70,29.88,10,South,5.8,-,,,Clear,180,29-07-2016 23:55
4279,59,7:55 PM,80.6,69.8,70,29.89,9,South,5.8,-,,,Clear,170,30-07-2016 00:00
4280,60,8:00 PM,78.8,69.8,74,29.89,10,South,4.6,-,,,Scattered Clouds,180,30-07-2016 00:35
4281,61,8:35 PM,78.8,69.8,74,29.89,10,Calm,Calm,-,,,Overcast,0,30-07-2016 00:55
4282,62,8:55 PM,78.8,69.8,74,29.9,10,Calm,Calm,-,,,Mostly Cloudy,0,30-07-2016 01:00
4283,63,9:00 PM,78.8,69.8,74,29.9,10,Calm,Calm,-,,,Partly Cloudy,0,30-07-2016 01:35
4284,64,9:35 PM,78.8,69.8,74,29.91,10,Calm,Calm,-,,,Clear,0,30-07-2016 01:55
4285,65,9:55 PM,78.8,69.8,74,29.92,10,Calm,Calm,-,,,Clear,0,30-07-2016 02:00
4286,66,10:00 PM,78.8,69.8,74,29.92,10,WSW,4.6,-,,,Partly Cloudy,250,30-07-2016 02:35
4287,67,10:35 PM,78.8,69.8,74,29.92,10,West,4.6,-,,,Partly Cloudy,270,30-07-2016 02:55
4288,68,10:55 PM,78.8,71.6,78,29.93,10,West,4.6,-,,,Partly Cloudy,270,30-07-2016 03:00
4289,69,11:00 PM,77,71.6,83,29.94,10,West,4.6,-,,,Clear,270,30-07-2016 03:35
4290,70,11:35 PM,77,69.8,78,29.94,10,SW,3.5,-,,,Clear,230,30-07-2016 03:55
4291,71,11:55 PM,77,69.8,78,29.94,10,WSW,3.5,-,,,Clear,250,30-07-2016 04:00
4292,0,12:00 AM,77,71.6,83,29.94,10,SSW,5.8,-,,,Clear,210,30-07-2016 04:35
4293,1,12:35 AM,75.2,71.6,89,29.94,10,SSW,4.6,-,,,Clear,210,30-07-2016 04:55
4294,2,12:55 AM,75.2,71.6,89,29.94,10,SW,4.6,-,,,Clear,230,30-07-2016 05:00
4295,3,1:00 AM,75.2,71.6,89,29.94,10,SW,4.6,-,,,Clear,220,30-07-2016 05:35
4296,4,1:35 AM,75.2,71.6,89,29.94,10,Calm,Calm,-,,,Clear,0,30-07-2016 05:55
4297,5,1:55 AM,75.2,71.6,89,29.94,10,Calm,Calm,-,,,Clear,0,30-07-2016 06:00
4298,6,2:00 AM,75.2,71.6,89,29.94,10,Calm,Calm,-,,,Clear,0,30-07-2016 06:35
4299,7,2:35 AM,75.2,71.6,89,29.94,10,Calm,Calm,-,,,Clear,0,30-07-2016 06:55
4300,8,2:55 AM,75.2,71.6,89,29.94,10,SW,4.6,-,,,Clear,230,30-07-2016 07:00
4301,9,3:00 AM,75.2,71.6,89,29.95,10,SW,5.8,-,,,Clear,230,30-07-2016 07:35
4302,10,3:35 AM,75.2,71.6,89,29.95,10,West,3.5,-,,,Clear,260,30-07-2016 07:55
4303,11,3:55 AM,75.2,71.6,89,29.95,10,WSW,4.6,-,,,Clear,250,30-07-2016 08:00
4304,12,4:00 AM,75.2,71.6,89,29.95,10,SW,5.8,-,,,Clear,220,30-07-2016 08:35
4305,13,4:35 AM,75.2,71.6,89,29.95,10,WSW,5.8,-,,,Clear,240,30-07-2016 08:55
4306,14,4:55 AM,75.2,71.6,89,29.95,10,West,3.5,-,,,Clear,260,30-07-2016 09:00
4307,15,5:00 AM,75.2,71.6,89,29.95,10,SW,4.6,-,,,Clear,220,30-07-2016 09:35
4308,16,5:35 AM,75.2,71.6,89,29.96,10,SW,4.6,-,,,Clear,230,30-07-2016 09:55
4309,17,5:55 AM,73.4,71.6,94,29.96,10,WSW,4.6,-,,,Clear,250,30-07-2016 10:00
4310,18,6:00 AM,73.4,71.6,94,29.97,10,WSW,4.6,-,,,Clear,240,30-07-2016 10:35
4311,19,6:35 AM,73.4,71.6,94,29.98,10,WSW,3.5,-,,,Clear,240,30-07-2016 10:55
4312,20,6:55 AM,75.2,71.6,89,29.98,10,Calm,Calm,-,,,Clear,0,30-07-2016 11:00
4313,21,7:00 AM,75.2,71.6,89,29.99,10,Calm,Calm,-,,,Clear,0,30-07-2016 11:35
4314,22,7:35 AM,75.2,71.6,89,30,10,SW,4.6,-,,,Clear,230,30-07-2016 11:55
4315,23,7:55 AM,75.2,71.6,89,30,10,WSW,3.5,-,,,Clear,240,30-07-2016 12:00
4316,24,8:00 AM,75.2,71.6,89,30,10,Calm,Calm,-,,,Clear,0,30-07-2016 12:35
4317,25,8:35 AM,75.2,71.6,89,30.01,10,Calm,Calm,-,,,Scattered Clouds,0,30-07-2016 12:55
4318,26,8:55 AM,77,71.6,83,30.01,10,ENE,8.1,-,,,Mostly Cloudy,60,30-07-2016 13:00
4319,27,9:00 AM,78.8,71.6,78,30.01,9,ENE,8.1,-,,,Scattered Clouds,70,30-07-2016 13:35
4320,28,9:35 AM,78.8,71.6,78,30,10,NNE,8.1,-,,,Clear,30,30-07-2016 13:55
4321,29,9:55 AM,80.6,71.6,74,30.01,10,NNE,6.9,-,,,Clear,30,30-07-2016 14:00
4322,30,10:00 AM,82.4,71.6,70,30,10,NE,9.2,-,,,Partly Cloudy,50,30-07-2016 14:35
4323,31,10:35 AM,82.4,71.6,70,30.01,10,NNE,8.1,-,,,Partly Cloudy,30,30-07-2016 14:55
4324,32,10:55 AM,84.2,71.6,66,30.01,10,NE,5.8,-,,,Scattered Clouds,40,30-07-2016 15:00
4325,33,11:00 AM,84.2,71.6,66,30.01,10,NNE,6.9,-,,,Scattered Clouds,20,30-07-2016 15:35
4326,34,11:35 AM,84.2,71.6,66,30.01,10,NE,8.1,-,,,Partly Cloudy,40,30-07-2016 15:55
4327,35,11:55 AM,84.2,71.6,66,30.01,10,NE,8.1,-,,,Clear,40,30-07-2016 16:00
4328,36,12:00 PM,84.2,71.6,66,30.01,10,ENE,5.8,-,,,Mostly Cloudy,60,30-07-2016 16:35
4329,37,12:35 PM,84.2,71.6,66,30.02,10,ENE,3.5,-,,,Overcast,60,30-07-2016 16:55
4330,38,12:55 PM,84.2,71.6,66,30.01,10,South,3.5,-,,,Mostly Cloudy,180,30-07-2016 17:00
4331,39,1:00 PM,84.2,71.6,66,30.01,10,NE,9.2,-,,,Mostly Cloudy,50,30-07-2016 17:35
4332,40,1:35 PM,84.2,71.6,66,30.01,10,ENE,6.9,-,,,Mostly Cloudy,70,30-07-2016 17:55
4333,41,1:55 PM,86,71.6,62,30,10,NE,8.1,-,,,Scattered Clouds,50,30-07-2016 18:00
4334,42,2:00 PM,86,69.8,58,29.99,10,SSE,6.9,-,,,Clear,150,30-07-2016 18:35
4335,43,2:35 PM,84.2,69.8,62,29.99,10,ESE,9.2,-,,,Clear,120,30-07-2016 18:55
4336,44,2:55 PM,82.4,71.6,70,29.99,10,SSE,12.7,-,,Thunderstorm,Thunderstorm,160,30-07-2016 19:00
4337,45,3:00 PM,80.6,73.4,79,30,6,South,8.1,-,0.01,Thunderstorm,Thunderstorm,180,30-07-2016 19:35
4338,46,3:35 PM,78.8,73.4,83,30,9,South,9.2,-,0.02,,Overcast,170,30-07-2016 19:55
4339,47,3:55 PM,78.8,73.4,83,30,8,South,6.9,-,0.02,,Overcast,190,30-07-2016 20:00
4340,48,4:00 PM,78.8,73.4,83,30,10,South,6.9,-,,Thunderstorm,Overcast,180,30-07-2016 20:35
4341,49,4:35 PM,78.8,71.6,78,30.01,9,South,8.1,-,0.01,Thunderstorm,Overcast,170,30-07-2016 20:55
4342,50,4:55 PM,77,73.4,89,30.01,10,SSE,8.1,-,0.02,,Overcast,160,30-07-2016 21:00
4343,51,5:00 PM,77,73.4,89,30.03,8,South,6.9,-,0.01,,Overcast,190,30-07-2016 21:35
4344,52,5:35 PM,75.2,73.4,94,30.03,7,SSE,5.8,-,0.04,,Overcast,160,30-07-2016 21:55
4345,53,5:55 PM,75.2,73.4,94,30.03,3,South,3.5,-,0.1,,Overcast,170,30-07-2016 22:00
4346,54,6:00 PM,75.2,73.4,94,30.02,9,South,4.6,-,0.02,,Overcast,170,30-07-2016 22:35
4347,55,6:35 PM,75.2,73.4,94,30.03,10,South,3.5,-,0.02,,Mostly Cloudy,170,30-07-2016 22:55
4348,56,6:55 PM,75.2,73.4,94,30.03,10,Calm,Calm,-,0.03,,Overcast,0,30-07-2016 23:00
4349,57,7:00 PM,75.2,73.4,94,30.04,10,Calm,Calm,-,,,Overcast,0,30-07-2016 23:35
4350,58,7:35 PM,75.2,73.4,94,30.04,10,SE,3.5,-,,,Mostly Cloudy,140,30-07-2016 23:55
4351,59,7:55 PM,75.2,73.4,94,30.04,10,Calm,Calm,-,,,Overcast,0,31-07-2016 00:00
4352,60,8:00 PM,75.2,73.4,94,30.05,10,SE,4.6,-,0.01,,Overcast,140,31-07-2016 00:35
4353,61,8:35 PM,75.2,73.4,94,30.05,10,SE,4.6,-,0.01,,Overcast,140,31-07-2016 00:55
4354,62,8:55 PM,75.2,73.4,94,30.05,10,ESE,3.5,-,0.02,,Overcast,110,31-07-2016 01:00
4355,63,9:00 PM,75.2,73.4,94,30.05,10,ESE,4.6,-,,,Overcast,110,31-07-2016 01:35
4356,64,9:35 PM,75.2,73.4,94,30.05,10,SE,3.5,-,0.01,,Overcast,130,31-07-2016 01:55
4357,65,9:55 PM,75.2,73.4,94,30.05,10,ESE,3.5,-,0.01,,Overcast,110,31-07-2016 02:00
4358,66,10:00 PM,75.2,73.4,94,30.05,10,SE,4.6,-,,,Overcast,130,31-07-2016 02:35
4359,67,10:35 PM,75.2,73.4,94,30.04,10,NE,5.8,-,0.01,,Overcast,50,31-07-2016 02:55
4360,68,10:55 PM,75.2,73.4,94,30.04,10,Calm,Calm,-,0.01,,Overcast,0,31-07-2016 03:00
4361,69,11:00 PM,75.2,73.4,94,30.04,10,Calm,Calm,-,,,Overcast,0,31-07-2016 03:35
4362,70,11:35 PM,75.2,73.4,94,30.04,10,Calm,Calm,-,,,Overcast,0,31-07-2016 03:55
4363,71,11:55 PM,75.2,73.4,94,30.03,10,East,5.8,-,,,Overcast,80,31-07-2016 04:00
4364,0,12:00 AM,75.2,73.4,94,30.03,10,Calm,Calm,-,,,Mostly Cloudy,0,31-07-2016 04:35
4365,1,12:35 AM,75.2,73.4,94,30.03,10,SE,5.8,-,,,Mostly Cloudy,140,31-07-2016 04:55
4366,2,12:55 AM,75.2,73.4,94,30.03,10,ESE,5.8,-,,,Mostly Cloudy,120,31-07-2016 05:00
4367,3,1:00 AM,75.2,73.4,94,30.02,10,ESE,3.5,-,,,Overcast,110,31-07-2016 05:35
4368,4,1:35 AM,75.2,73.4,94,30.01,10,East,4.6,-,,,Overcast,90,31-07-2016 05:55
4369,5,1:55 AM,75.2,73.4,94,30,10,SE,3.5,-,,,Overcast,140,31-07-2016 06:00
4370,6,2:00 AM,75.2,73.4,94,30,10,ESE,6.9,-,,,Overcast,110,31-07-2016 06:35
4371,7,2:35 AM,75.2,73.4,94,29.99,10,NE,4.6,-,,,Mostly Cloudy,50,31-07-2016 06:55
4372,8,2:55 AM,75.2,73.4,94,29.99,10,ESE,4.6,-,,,Overcast,120,31-07-2016 07:00
4373,9,3:00 AM,75.2,71.6,89,30,10,ESE,5.8,-,,,Overcast,120,31-07-2016 07:35
4374,10,3:35 AM,75.2,73.4,94,30,10,East,3.5,-,,,Overcast,90,31-07-2016 07:55
4375,11,3:55 AM,75.2,73.4,94,29.99,10,NE,8.1,-,,,Overcast,50,31-07-2016 08:00
4376,12,4:00 AM,75.2,71.6,89,29.99,10,ENE,5.8,-,,,Overcast,70,31-07-2016 08:35
4377,13,4:35 AM,75.2,71.6,89,29.99,10,East,5.8,-,,,Overcast,80,31-07-2016 08:55
4378,14,4:55 AM,75.2,73.4,94,29.99,10,NE,4.6,-,,,Overcast,50,31-07-2016 09:00
4379,15,5:00 AM,75.2,73.4,94,30,10,ENE,4.6,-,,,Overcast,70,31-07-2016 09:35
4380,16,5:35 AM,75.2,73.4,94,30,10,ENE,4.6,-,,,Overcast,60,31-07-2016 09:55
4381,17,5:55 AM,75.2,73.4,94,30.01,10,East,4.6,-,,,Overcast,90,31-07-2016 10:00
4382,18,6:00 AM,75.2,73.4,94,30.01,10,ESE,6.9,-,,,Overcast,120,31-07-2016 10:35
4383,19,6:35 AM,75.2,73.4,94,30.01,10,ENE,5.8,-,,,Overcast,60,31-07-2016 10:55
4384,20,6:55 AM,75.2,73.4,94,30.01,10,ESE,6.9,-,,,Overcast,110,31-07-2016 11:00
4385,21,7:00 AM,75.2,73.4,94,30.01,10,ENE,4.6,-,,,Overcast,70,31-07-2016 11:35
4386,22,7:35 AM,77,73.4,89,30.01,10,East,5.8,-,,,Overcast,90,31-07-2016 11:55
4387,23,7:55 AM,77,73.4,89,30.02,10,SE,6.9,-,,,Overcast,140,31-07-2016 12:00
4388,24,8:00 AM,77,73.4,89,30.03,10,ESE,5.8,-,,,Overcast,110,31-07-2016 12:35
4389,25,8:35 AM,77,73.4,89,30.02,10,ENE,6.9,-,,,Overcast,70,31-07-2016 12:55
4390,26,8:55 AM,77,73.4,89,30.02,10,East,8.1,-,,,Overcast,100,31-07-2016 13:00
4391,27,9:00 AM,77,73.4,89,30.02,10,ENE,5.8,-,,,Overcast,70,31-07-2016 13:35
4392,28,9:35 AM,78.8,73.4,83,30.02,10,SE,6.9,-,,,Overcast,130,31-07-2016 13:55
4393,29,9:55 AM,78.8,73.4,83,30.02,10,ESE,8.1,-,,,Overcast,110,31-07-2016 14:00
4394,30,10:00 AM,77,71.6,83,30.02,10,East,5.8,-,,,Overcast,90,31-07-2016 14:35
4395,31,10:35 AM,77,71.6,83,30.02,9,East,5.8,-,,,Overcast,90,31-07-2016 14:55
4396,32,10:55 AM,77,73.4,89,30.02,10,NE,8.1,-,,,Overcast,50,31-07-2016 15:00
4397,33,11:00 AM,77,73.4,89,30.03,10,NE,8.1,-,,,Overcast,50,31-07-2016 15:35
4398,34,11:35 AM,77,71.6,83,30.03,9,ESE,6.9,-,0.01,,Overcast,120,31-07-2016 15:55
4399,35,11:55 AM,75.2,71.6,89,30.03,5,ESE,6.9,-,0.03,,Overcast,110,31-07-2016 16:00
4400,36,12:00 PM,75.2,73.4,94,30.02,5,ENE,9.2,-,0.04,,Overcast,60,31-07-2016 16:35
4401,37,12:35 PM,75.2,73.4,94,30.02,8,NE,8.1,-,0.08,,Overcast,50,31-07-2016 16:55
4402,38,12:55 PM,77,73.4,89,30.02,10,ENE,8.1,-,0.08,,Mostly Cloudy,70,31-07-2016 17:00
4403,39,1:00 PM,77,73.4,89,30.02,10,East,6.9,-,,,Overcast,80,31-07-2016 17:35
4404,40,1:35 PM,78.8,73.4,83,30.01,10,East,6.9,-,,,Overcast,90,31-07-2016 17:55
4405,41,1:55 PM,78.8,73.4,83,30.01,10,East,8.1,-,,,Mostly Cloudy,80,31-07-2016 18:00
4406,42,2:00 PM,78.8,71.6,78,30.01,10,East,6.9,-,,,Overcast,80,31-07-2016 18:35
4407,43,2:35 PM,78.8,71.6,78,30.01,10,ENE,8.1,-,,,Overcast,70,31-07-2016 18:55
4408,44,2:55 PM,78.8,71.6,78,30.01,10,ESE,9.2,-,,,Overcast,120,31-07-2016 19:00
4409,45,3:00 PM,80.6,71.6,74,30,10,ESE,4.6,-,,,Overcast,120,31-07-2016 19:35
4410,46,3:35 PM,80.6,71.6,74,29.99,10,East,8.1,-,,,Overcast,100,31-07-2016 19:55
4411,47,3:55 PM,80.6,71.6,74,29.98,10,East,9.2,-,,,Overcast,80,31-07-2016 20:00
4412,48,4:00 PM,80.6,71.6,74,29.99,10,SE,10.4,-,,,Overcast,130,31-07-2016 20:35
4413,49,4:35 PM,80.6,71.6,74,29.98,10,ENE,6.9,-,,,Overcast,70,31-07-2016 20:55
4414,50,4:55 PM,80.6,73.4,79,29.99,10,East,8.1,16.1,,,Overcast,80,31-07-2016 21:00
4415,51,5:00 PM,80.6,73.4,79,29.99,10,ENE,10.4,-,,,Overcast,70,31-07-2016 21:35
4416,52,5:35 PM,80.6,73.4,79,29.99,10,East,8.1,-,,,Overcast,90,31-07-2016 21:55
4417,53,5:55 PM,78.8,73.4,83,29.99,10,ENE,11.5,-,,,Overcast,60,31-07-2016 22:00
4418,54,6:00 PM,78.8,73.4,83,29.99,10,ENE,10.4,-,,,Overcast,70,31-07-2016 22:35
4419,55,6:35 PM,78.8,71.6,78,29.98,10,East,6.9,16.1,,,Overcast,80,31-07-2016 22:55
4420,56,6:55 PM,78.8,71.6,78,29.99,10,East,8.1,-,,,Overcast,100,31-07-2016 23:00
4421,57,7:00 PM,78.8,71.6,78,29.99,10,ENE,10.4,-,,,Overcast,70,31-07-2016 23:35
4422,58,7:35 PM,77,71.6,83,30,10,ENE,8.1,-,,,Overcast,70,31-07-2016 23:55
4423,59,7:55 PM,77,71.6,83,29.99,10,ENE,10.4,16.1,,,Overcast,70,01-08-2016 00:00
4424,60,8:00 PM,77,71.6,83,30,10,East,6.9,-,,,Overcast,80,01-08-2016 00:35
4425,61,8:35 PM,75.2,71.6,89,30,10,ENE,10.4,-,,,Overcast,70,01-08-2016 00:55
4426,62,8:55 PM,75.2,71.6,89,30.01,10,ENE,9.2,-,,,Overcast,70,01-08-2016 01:00
4427,63,9:00 PM,75.2,71.6,89,30.01,10,East,6.9,-,,,Overcast,90,01-08-2016 01:35
4428,64,9:35 PM,75.2,71.6,89,30.02,10,NE,8.1,-,,,Overcast,50,01-08-2016 01:55
4429,65,9:55 PM,75.2,71.6,89,30.03,10,NE,5.8,-,,,Overcast,50,01-08-2016 02:00
4430,66,10:00 PM,75.2,71.6,89,30.02,10,NNE,9.2,-,,,Overcast,30,01-08-2016 02:35
4431,67,10:35 PM,75.2,71.6,89,30.02,10,NE,11.5,-,,,Overcast,50,01-08-2016 02:55
4432,68,10:55 PM,75.2,71.6,89,30.03,10,NE,10.4,16.1,,,Overcast,40,01-08-2016 03:00
4433,69,11:00 PM,73.4,71.6,94,30.04,10,NNE,10.4,16.1,0.01,,Overcast,30,01-08-2016 03:35
4434,70,11:35 PM,73.4,71.6,94,30.04,8,NE,10.4,-,0.04,,Overcast,40,01-08-2016 03:55
4435,71,11:55 PM,73.4,71.6,94,30.05,10,NNE,9.2,-,0.04,,Overcast,30,01-08-2016 03:55
